{"type":"FeatureCollection","features":[{"type":"Feature","properties":{"shapeName":"Bhandara","shapeISO":"","shapeID":"76128533B14243635342908","shapeGroup":"IND","shapeType":"ADM2"},"geometry":{"type":"Polygon","coordinates":[[[79.54309631800004,21.54394598400006],[79.54024,21.54261],[79.53949,21.54226],[79.53864,21.54187],[79.53787,21.54151],[79.53535,21.54034],[79.53513,21.54024],[79.5349,21.54013],[79.53206,21.54036],[79.52974,21.54054],[79.52848,21.54005],[79.52425,21.5384],[79.51734,21.53569],[79.51694,21.53553],[79.51462,21.53462],[79.51454,21.53454],[79.51351,21.53328],[79.51287,21.53251],[79.51129,21.53059],[79.5112,21.53048],[79.51059,21.52975],[79.51044,21.52956],[79.50938,21.52826],[79.50777,21.52632],[79.5061,21.52431],[79.50573,21.52386],[79.50416,21.52195],[79.50196,21.5197],[79.50045,21.51815],[79.49729,21.51491],[79.49536,21.51173],[79.49359,21.50882],[79.49358,21.50881],[79.48902,21.50494],[79.48615,21.5025],[79.48482,21.5002],[79.4845,21.49965],[79.48147,21.49442],[79.47957,21.49112],[79.47918,21.49046],[79.47909,21.4903],[79.47893,21.49002],[79.47552,21.48413],[79.475,21.4813],[79.47404,21.48094],[79.47306,21.48058],[79.47042,21.4796],[79.46971,21.47838],[79.46557,21.47125],[79.46316,21.46709],[79.46283,21.46652],[79.45973,21.46117],[79.45873,21.46056],[79.45667,21.4593],[79.45055,21.4573],[79.4497,21.45702],[79.44984,21.45627],[79.45061,21.45228],[79.45182,21.45047],[79.4528,21.44901],[79.45224,21.445],[79.45189,21.4425],[79.45089,21.43545],[79.45563,21.4295],[79.45845,21.42784],[79.45902,21.4275],[79.46082,21.42644],[79.4719,21.42471],[79.47433,21.42552],[79.47585,21.42603],[79.48001,21.42742],[79.48093,21.42753],[79.48367,21.42783],[79.48863,21.41452],[79.48939,21.41247],[79.49182,21.40594],[79.49204,21.40533],[79.492,21.40303],[79.48828,21.39917],[79.48932,21.39908],[79.4987,21.39824],[79.4996,21.39816],[79.50074,21.39806],[79.50133,21.39715],[79.5015,21.39687],[79.5037,21.39341],[79.50396,21.393],[79.50475,21.39175],[79.50646,21.38907],[79.50801,21.38662],[79.50918,21.38477],[79.50936,21.38449],[79.50965,21.38402],[79.50987,21.38367],[79.51043,21.38278],[79.51099,21.3819],[79.51642,21.37325],[79.51701,21.37193],[79.51725,21.3714],[79.51814,21.3694],[79.52004,21.36775],[79.52189,21.36614],[79.5237,21.36457],[79.52598,21.35779],[79.52684,21.35523],[79.52798,21.35399],[79.5287,21.35321],[79.52977,21.35205],[79.53613,21.3485],[79.53768,21.34634],[79.53997,21.34316],[79.54086,21.34192],[79.54169,21.34075],[79.54404,21.33748],[79.54428,21.33714],[79.54684,21.33358],[79.54808,21.33186],[79.55162,21.33145],[79.5529,21.33131],[79.55383,21.3312],[79.55447,21.33113],[79.5573,21.33081],[79.55759,21.33014],[79.5583,21.32848],[79.55839,21.32749],[79.55857,21.32558],[79.55858,21.32547],[79.55861,21.32515],[79.55866,21.32455],[79.55874,21.32371],[79.55879,21.32315],[79.55874,21.32305],[79.55655,21.3189],[79.55534,21.31661],[79.55572,21.31627],[79.55849,21.31383],[79.55856,21.31365],[79.55932,21.31178],[79.55943,21.3115],[79.55778,21.30984],[79.55725,21.30931],[79.55641,21.30676],[79.55868,21.30378],[79.55911,21.30321],[79.5597,21.30314],[79.56028,21.30307],[79.56091,21.303],[79.56127,21.30295],[79.56373,21.30266],[79.56431,21.30259],[79.56437,21.30258],[79.56562,21.30243],[79.56783,21.30018],[79.56818,21.29983],[79.56847,21.29953],[79.56932,21.29775],[79.56939,21.2976],[79.57078,21.29471],[79.57092,21.29442],[79.57182,21.29254],[79.57195,21.29226],[79.57437,21.2872],[79.5751,21.28569],[79.57596,21.28388],[79.57598,21.28384],[79.57599,21.28381],[79.57616,21.28291],[79.57636,21.28185],[79.57669,21.28014],[79.57695,21.27875],[79.5771,21.27795],[79.57674,21.27624],[79.57656,21.27541],[79.57631,21.27425],[79.57166,21.27428],[79.57142,21.27214],[79.57134,21.27143],[79.57122,21.27036],[79.57038,21.2631],[79.57037,21.26298],[79.56935,21.25404],[79.56984,21.25277],[79.57017,21.25192],[79.57097,21.24984],[79.57102,21.24971],[79.57185,21.24756],[79.57051,21.24637],[79.56608,21.24244],[79.5642,21.24014],[79.56177,21.23718],[79.56166,21.23703],[79.5616,21.23696],[79.56151,21.23685],[79.5609,21.23504],[79.56144,21.23359],[79.56228,21.23138],[79.56277,21.23008],[79.56297,21.22954],[79.56426,21.22612],[79.56379,21.2251],[79.56298,21.22335],[79.56229,21.22185],[79.56204,21.22132],[79.56016,21.21726],[79.55975,21.21637],[79.5595,21.21583],[79.55647,21.2093],[79.55501,21.20798],[79.55356,21.20667],[79.55452,21.20538],[79.55841,21.20458],[79.5599,21.20216],[79.55999,21.20116],[79.56078,21.19253],[79.56176,21.19147],[79.56218,21.19101],[79.56255,21.18994],[79.56335,21.1876],[79.55696,21.17625],[79.55493,21.17263],[79.55509,21.17067],[79.55912,21.16636],[79.56109,21.16426],[79.56173,21.16283],[79.56242,21.16131],[79.56228,21.1585],[79.56227,21.15814],[79.56219,21.15652],[79.55657,21.15647],[79.55329,21.15746],[79.55225,21.15777],[79.54887,21.15752],[79.54852,21.15749],[79.54753,21.15718],[79.54422,21.15616],[79.54129,21.1563],[79.5411,21.15631],[79.53824,21.15645],[79.53473,21.15661],[79.534,21.15809],[79.53313,21.15985],[79.53306,21.15998],[79.53228,21.16155],[79.53181,21.1625],[79.53176,21.16261],[79.531,21.16414],[79.53087,21.16441],[79.53069,21.16477],[79.53065,21.16485],[79.53013,21.16589],[79.52901,21.16817],[79.53179,21.17084],[79.53268,21.17405],[79.53294,21.17501],[79.52816,21.17581],[79.52679,21.17603],[79.52,21.17387],[79.5121,21.17823],[79.50252,21.18352],[79.50204,21.18379],[79.5017,21.18336],[79.50087,21.18231],[79.49958,21.18066],[79.49921,21.17774],[79.49892,21.17538],[79.49853,21.17218],[79.49882,21.17196],[79.49952,21.17145],[79.50205,21.16962],[79.51088,21.16319],[79.50998,21.15962],[79.50958,21.15807],[79.50945,21.15746],[79.50915,21.15634],[79.50865,21.15444],[79.50862,21.15433],[79.50851,21.15384],[79.50831,21.15304],[79.50811,21.15224],[79.50732,21.14914],[79.50661,21.14633],[79.50562,21.1455],[79.50441,21.14448],[79.50131,21.14371],[79.4981,21.14292],[79.4938,21.14187],[79.49312,21.13986],[79.49325,21.13981],[79.49874,21.13649],[79.50681,21.13465],[79.50807,21.13436],[79.51064,21.13289],[79.51216,21.13202],[79.51295,21.12943],[79.51303,21.12919],[79.51322,21.12854],[79.5125,21.12525],[79.51261,21.12502],[79.51409,21.12185],[79.51863,21.12059],[79.52556,21.11868],[79.52743,21.11816],[79.52793,21.11802],[79.52876,21.11506],[79.53086,21.11126],[79.53197,21.10925],[79.53241,21.10845],[79.53121,21.10719],[79.53097,21.10694],[79.53049,21.10644],[79.53173,21.10562],[79.53421,21.10396],[79.53375,21.10301],[79.53316,21.10175],[79.53283,21.10151],[79.5325,21.10126],[79.53237,21.10117],[79.53219,21.10104],[79.53194,21.10085],[79.53175,21.10071],[79.53147,21.10051],[79.53129,21.10037],[79.53141,21.09827],[79.53143,21.09791],[79.53268,21.09687],[79.53345,21.09613],[79.53353,21.09601],[79.53336,21.09553],[79.53263,21.09343],[79.53222,21.09223],[79.53104,21.08882],[79.5234,21.08819],[79.52586,21.08349],[79.52672,21.08184],[79.52728,21.08117],[79.52738,21.08109],[79.52754,21.08093],[79.52767,21.08083],[79.52795,21.08067],[79.52818,21.08048],[79.52826,21.08036],[79.5284,21.08001],[79.52986,21.07585],[79.53286,21.07714],[79.533,21.0772],[79.5333,21.07733],[79.53564,21.07833],[79.5365,21.0787],[79.53777,21.07925],[79.53849,21.07958],[79.53875,21.07971],[79.54015,21.08026],[79.54091,21.08067],[79.54139,21.08097],[79.54308,21.08153],[79.54615,21.08332],[79.5463,21.08341],[79.55024,21.0857],[79.55175,21.08657],[79.55185,21.08663],[79.55451,21.0885],[79.55474,21.08823],[79.55492,21.08805],[79.55518,21.08776],[79.55533,21.08747],[79.55569,21.08679],[79.55578,21.08663],[79.5559,21.08632],[79.55614,21.08594],[79.55632,21.08546],[79.55639,21.08524],[79.5564,21.0851],[79.55697,21.08483],[79.55857,21.08405],[79.55908,21.08342],[79.56058,21.08152],[79.56095,21.08106],[79.56159,21.08025],[79.56349,21.07786],[79.56379,21.07747],[79.56442,21.07669],[79.56675,21.07375],[79.56927,21.07057],[79.57091,21.06949],[79.57269,21.06831],[79.57293,21.06815],[79.57314,21.068],[79.5735,21.06776],[79.57741,21.06677],[79.57835,21.06653],[79.58027,21.06777],[79.58237,21.06912],[79.58361,21.0703],[79.58683,21.07334],[79.58887,21.07626],[79.58913,21.07663],[79.5903,21.07679],[79.59248,21.07709],[79.59296,21.07715],[79.59684,21.07487],[79.59754,21.07446],[79.59996,21.07303],[79.60003,21.07299],[79.60251,21.06624],[79.60292,21.06642],[79.6031,21.06588],[79.60373,21.06421],[79.60451,21.06247],[79.60522,21.0614],[79.60542,21.06116],[79.60715,21.05787],[79.60824,21.05538],[79.60833,21.05517],[79.60965,21.05154],[79.61093,21.04858],[79.61109,21.04829],[79.61117,21.04796],[79.61188,21.04421],[79.61297,21.04087],[79.61303,21.04077],[79.6137,21.03893],[79.61391,21.03846],[79.61399,21.03834],[79.61408,21.03828],[79.61438,21.03811],[79.61444,21.03801],[79.61443,21.03787],[79.61419,21.03755],[79.61417,21.03743],[79.61413,21.03683],[79.61477,21.03563],[79.61461,21.03503],[79.6156,21.03328],[79.61632,21.03227],[79.61704,21.03115],[79.61737,21.03057],[79.61852,21.02814],[79.61868,21.02783],[79.61881,21.02764],[79.61895,21.02747],[79.61926,21.02726],[79.6193,21.02714],[79.62114,21.0245],[79.62201,21.0232],[79.6243,21.01985],[79.62477,21.01916],[79.62553,21.01805],[79.62894,21.01306],[79.63152,21.00928],[79.6338,21.00594],[79.63377,21.00583],[79.63353,21.00557],[79.6341,21.00476],[79.63426,21.00466],[79.63442,21.00464],[79.63467,21.00467],[79.63481,21.00462],[79.63491,21.00451],[79.63624,21.00195],[79.63672,21.00084],[79.63688,21.0005],[79.637,20.99962],[79.63687,20.99705],[79.63756,20.9935],[79.63796,20.99143],[79.64322,20.98544],[79.64347,20.98515],[79.64525,20.98397],[79.64758,20.98242],[79.65017,20.98062],[79.65367,20.9782],[79.65389,20.97805],[79.65998,20.96995],[79.65995,20.96584],[79.65993,20.96363],[79.66019,20.96217],[79.66017,20.96195],[79.66021,20.96146],[79.66031,20.96126],[79.66096,20.96078],[79.661,20.96072],[79.66102,20.9606],[79.66075,20.95953],[79.66072,20.95939],[79.66093,20.95813],[79.66093,20.95789],[79.66088,20.95733],[79.66089,20.95725],[79.66094,20.95714],[79.66149,20.95619],[79.66154,20.9561],[79.66154,20.95596],[79.66131,20.95493],[79.66128,20.95456],[79.66135,20.95438],[79.66159,20.95417],[79.66161,20.95405],[79.66156,20.95391],[79.66083,20.95171],[79.66082,20.95154],[79.66069,20.94898],[79.6606,20.94849],[79.66033,20.94748],[79.6602,20.94715],[79.65996,20.94681],[79.65939,20.94414],[79.65856,20.94226],[79.65754,20.93992],[79.65731,20.93939],[79.65715,20.93902],[79.65703,20.93876],[79.65691,20.93847],[79.65689,20.93842],[79.65672,20.93804],[79.65611,20.93666],[79.6561,20.93664],[79.65553,20.93533],[79.65525,20.93469],[79.65401,20.93185],[79.65332,20.93027],[79.65297,20.92942],[79.65276,20.92899],[79.65195,20.92714],[79.65164,20.92672],[79.64616,20.91931],[79.64451,20.91708],[79.64008,20.91442],[79.63968,20.91418],[79.63841,20.91371],[79.63772,20.91346],[79.63467,20.91233],[79.63134,20.9111],[79.62509,20.90879],[79.62454,20.90859],[79.62231,20.90777],[79.6221,20.90759],[79.62085,20.90649],[79.62055,20.90622],[79.62041,20.9061],[79.62005,20.90579],[79.61697,20.90308],[79.61425,20.89071],[79.61406,20.88986],[79.61402,20.88968],[79.61387,20.88903],[79.61356,20.88761],[79.61297,20.88493],[79.61205,20.88074],[79.61166,20.87894],[79.61338,20.87637],[79.61381,20.87572],[79.61415,20.8752],[79.61453,20.87463],[79.61581,20.87271],[79.61621,20.86948],[79.61633,20.86854],[79.61952,20.86526],[79.61913,20.86513],[79.6178,20.86466],[79.61746,20.86471],[79.61714,20.86476],[79.61683,20.8648],[79.61537,20.865],[79.6131,20.86532],[79.61095,20.86519],[79.61071,20.86518],[79.61005,20.86514],[79.60989,20.86513],[79.60709,20.86496],[79.60504,20.86484],[79.6046,20.86481],[79.60411,20.86433],[79.60355,20.86438],[79.60215,20.86452],[79.60157,20.86457],[79.60082,20.86311],[79.60024,20.86176],[79.60023,20.86175],[79.60022,20.86054],[79.59904,20.85938],[79.59866,20.85901],[79.59651,20.85692],[79.59504,20.85513],[79.59313,20.85287],[79.58864,20.84748],[79.58818,20.84708],[79.58389,20.84337],[79.58342,20.84296],[79.57941,20.84403],[79.57615,20.84406],[79.57334,20.84409],[79.57029,20.84411],[79.56933,20.84412],[79.56913,20.84762],[79.56797,20.84883],[79.5667,20.85015],[79.56022,20.8538],[79.55997,20.85356],[79.55487,20.84866],[79.54658,20.85062],[79.5439,20.85017],[79.54317,20.84948],[79.54198,20.84835],[79.54384,20.84541],[79.54768,20.83936],[79.54812,20.83866],[79.54936,20.8367],[79.54944,20.83657],[79.54999,20.83542],[79.55009,20.83522],[79.55019,20.83501],[79.55206,20.83111],[79.55332,20.8265],[79.55337,20.82634],[79.55388,20.82448],[79.5547,20.82148],[79.55553,20.81993],[79.56053,20.81068],[79.5608,20.81019],[79.56081,20.80418],[79.56082,20.80345],[79.56066,20.80328],[79.55968,20.80243],[79.55843,20.80133],[79.55615,20.79935],[79.55434,20.79776],[79.54941,20.79345],[79.54787,20.79034],[79.54696,20.78848],[79.54686,20.78828],[79.54667,20.7879],[79.54641,20.78738],[79.54595,20.78644],[79.54568,20.78613],[79.54517,20.78552],[79.54296,20.78289],[79.54269,20.78257],[79.54191,20.78164],[79.5386,20.77772],[79.53804,20.77705],[79.5379,20.77688],[79.53635,20.7741],[79.53596,20.7734],[79.53702,20.76827],[79.53725,20.76716],[79.53758,20.76558],[79.53694,20.76296],[79.53674,20.76212],[79.53584,20.75845],[79.53538,20.75655],[79.53516,20.75567],[79.53512,20.75549],[79.53453,20.75306],[79.53365,20.74945],[79.5337,20.74647],[79.53485,20.74328],[79.53574,20.74085],[79.53579,20.74071],[79.53585,20.74054],[79.53441,20.73894],[79.53433,20.73884],[79.53349,20.7379],[79.53312,20.73749],[79.53293,20.73727],[79.53283,20.73717],[79.53275,20.73708],[79.532,20.73623],[79.53133,20.73548],[79.5305,20.73455],[79.53043,20.73448],[79.52896,20.73283],[79.52684,20.73046],[79.52511,20.72852],[79.52484,20.72819],[79.52229,20.72537],[79.52061,20.72317],[79.52035,20.72284],[79.5194,20.72161],[79.51876,20.72078],[79.51596,20.71713],[79.51421,20.71485],[79.51414,20.71477],[79.5123,20.71204],[79.51128,20.71054],[79.51044,20.7093],[79.5097,20.70821],[79.50941,20.70451],[79.51059,20.70467],[79.51763,20.70568],[79.51895,20.70587],[79.52118,20.70925],[79.52788,20.70822],[79.52915,20.70716],[79.53496,20.70227],[79.5382,20.70237],[79.54581,20.70261],[79.54781,20.70267],[79.54794,20.70267],[79.54876,20.7027],[79.54944,20.70268],[79.54978,20.70266],[79.54997,20.70266],[79.55227,20.70258],[79.55343,20.70255],[79.55348,20.70255],[79.56634,20.70213],[79.56666,20.70086],[79.56758,20.69721],[79.56821,20.69472],[79.56988,20.69432],[79.57088,20.69408],[79.57139,20.69396],[79.5813,20.69159],[79.5904,20.69063],[79.59051,20.69062],[79.59062,20.69061],[79.59324,20.69033],[79.59413,20.69024],[79.59868,20.68976],[79.60547,20.69143],[79.60634,20.69146],[79.60725,20.69149],[79.60736,20.6915],[79.60787,20.69152],[79.60799,20.69152],[79.60839,20.69153],[79.60928,20.69157],[79.61019,20.6916],[79.61353,20.69172],[79.61727,20.68492],[79.6175,20.6845],[79.6192,20.68141],[79.62187,20.67655],[79.62252,20.67536],[79.62314,20.67424],[79.62353,20.67353],[79.62433,20.67342],[79.63099,20.67244],[79.63339,20.67209],[79.63486,20.67188],[79.63705,20.67156],[79.64088,20.671],[79.64498,20.6704],[79.64662,20.66998],[79.6493,20.6693],[79.65374,20.66816],[79.65597,20.66701],[79.66133,20.66426],[79.66369,20.66305],[79.6644,20.65875],[79.66443,20.65855],[79.66513,20.65426],[79.67117,20.6496],[79.67202,20.64894],[79.68013,20.64796],[79.68309,20.64683],[79.68675,20.64544],[79.68974,20.64318],[79.69007,20.64293],[79.69048,20.64262],[79.69118,20.64209],[79.69142,20.64191],[79.69603,20.6409],[79.69879,20.64294],[79.69901,20.6431],[79.70194,20.64528],[79.69865,20.65284],[79.6942,20.66306],[79.69384,20.66931],[79.70024,20.6746],[79.7073,20.68043],[79.71079,20.68332],[79.71095,20.68345],[79.71128,20.68372],[79.71386,20.68586],[79.72365,20.6832],[79.73168,20.68314],[79.73468,20.68312],[79.73579,20.68311],[79.73777,20.68348],[79.74097,20.68408],[79.74883,20.68555],[79.75245,20.68622],[79.75292,20.68631],[79.75315,20.687],[79.75429,20.69036],[79.75436,20.69056],[79.75675,20.69762],[79.75706,20.69854],[79.75804,20.70142],[79.76127,20.70735],[79.75431,20.71119],[79.75709,20.71958],[79.75854,20.72395],[79.76155,20.73041],[79.76166,20.73065],[79.76201,20.7314],[79.76225,20.73182],[79.76326,20.73145],[79.76453,20.73113],[79.76495,20.731],[79.76706,20.73036],[79.76817,20.72997],[79.76925,20.72957],[79.77034,20.72902],[79.77118,20.72855],[79.77228,20.72778],[79.77313,20.72746],[79.77801,20.72562],[79.78106,20.72448],[79.78296,20.72376],[79.7835,20.72329],[79.78675,20.72049],[79.78966,20.71798],[79.79414,20.70871],[79.79425,20.70848],[79.79621,20.70247],[79.79623,20.7024],[79.79719,20.69945],[79.79768,20.69898],[79.79868,20.69802],[79.79907,20.69765],[79.80029,20.69648],[79.80094,20.69586],[79.80096,20.69574],[79.80237,20.68895],[79.80306,20.68564],[79.80323,20.68478],[79.80382,20.68474],[79.80395,20.68473],[79.80716,20.68451],[79.81663,20.68385],[79.82253,20.68344],[79.82322,20.68339],[79.82438,20.68331],[79.82726,20.68311],[79.82881,20.68301],[79.83213,20.68211],[79.84232,20.67934],[79.8467,20.67867],[79.85024,20.67813],[79.85665,20.67968],[79.86204,20.68098],[79.86941,20.68276],[79.87194,20.68337],[79.87752,20.68472],[79.87813,20.68487],[79.8785,20.68496],[79.87949,20.6852],[79.88023,20.68512],[79.88149,20.68499],[79.89285,20.68382],[79.89461,20.68364],[79.89996,20.67994],[79.90423,20.67699],[79.90796,20.67572],[79.91086,20.67474],[79.92812,20.66886],[79.93079,20.66795],[79.93282,20.66729],[79.93332,20.66712],[79.93424,20.66979],[79.93433,20.67005],[79.93435,20.67012],[79.93505,20.67217],[79.9348,20.67674],[79.93705,20.67729],[79.93785,20.67749],[79.94337,20.67886],[79.94496,20.67955],[79.94607,20.68003],[79.94627,20.68012],[79.94672,20.68032],[79.94775,20.68076],[79.94819,20.68096],[79.94838,20.68104],[79.94853,20.6811],[79.94944,20.6815],[79.94971,20.68171],[79.95064,20.68245],[79.95237,20.68381],[79.95315,20.68443],[79.96158,20.69107],[79.96177,20.69122],[79.96485,20.69043],[79.96661,20.69418],[79.96775,20.69569],[79.96919,20.69759],[79.97062,20.69948],[79.97238,20.70181],[79.9726,20.70805],[79.97267,20.71],[79.97249,20.71042],[79.97071,20.7145],[79.97249,20.71617],[79.97919,20.72247],[79.98202,20.72513],[79.98484,20.72876],[79.99194,20.7379],[79.99699,20.74989],[79.99782,20.75186],[79.99793,20.75293],[79.99793,20.75314],[79.99815,20.75521],[79.99816,20.75529],[79.99818,20.75542],[79.9982,20.75557],[79.99866,20.7601],[79.99647,20.76649],[79.9952,20.76939],[79.99412,20.77186],[79.99325,20.7736],[79.99304,20.77402],[79.99076,20.77859],[79.98858,20.78357],[79.98732,20.7863],[79.98723,20.78666],[79.98721,20.78676],[79.9872,20.78685],[79.98605,20.79389],[79.98755,20.79885],[79.98783,20.79978],[79.98793,20.80012],[79.98818,20.80094],[79.98825,20.80116],[79.9883,20.80134],[79.98867,20.80254],[79.98895,20.80348],[79.99143,20.81171],[79.99268,20.81848],[79.99571,20.83493],[79.99698,20.84181],[79.99698,20.84323],[79.99698,20.84638],[79.99698,20.84887],[79.99584,20.85084],[79.9952,20.85195],[79.99395,20.85408],[79.99309,20.85457],[79.98723,20.85795],[79.98673,20.85827],[79.98437,20.85979],[79.98217,20.86189],[79.97697,20.86686],[79.97664,20.87274],[79.97849,20.87493],[79.97886,20.87759],[79.98008,20.88621],[79.98163,20.89719],[79.98202,20.89998],[79.98252,20.90668],[79.98353,20.92015],[79.98322,20.92379],[79.9818,20.94064],[79.97948,20.94437],[79.97845,20.94603],[79.97941,20.94579],[79.98141,20.94887],[79.98552,20.95521],[79.98929,20.96104],[79.99025,20.96252],[79.99365,20.96432],[79.99589,20.96551],[79.99597,20.96555],[79.99747,20.96563],[80.00236,20.96588],[80.01038,20.96531],[80.01177,20.96521],[80.01695,20.96501],[80.02018,20.96488],[80.02328,20.96488],[80.02407,20.96488],[80.02758,20.96488],[80.03968,20.96488],[80.04696,20.96565],[80.04825,20.96579],[80.0491,20.96588],[80.05923,20.96627],[80.0634,20.96643],[80.06846,20.96663],[80.07188,20.96676],[80.07254,20.96679],[80.08147,20.96714],[80.08183,20.96715],[80.08257,20.96748],[80.08471,20.97301],[80.08453,20.97314],[80.08474,20.97473],[80.08554,20.97663],[80.08622,20.97685],[80.08616,20.97912],[80.08615,20.97963],[80.08667,20.98216],[80.08667,20.98272],[80.08915,20.98585],[80.09235,20.98811],[80.09291,20.9885],[80.09533,20.98949],[80.09617,20.98983],[80.09813,20.99053],[80.10029,20.99068],[80.10038,20.99069],[80.10184,20.99061],[80.103,20.99051],[80.10388,20.99011],[80.1045,20.98988],[80.10514,20.98964],[80.10582,20.98941],[80.10757,20.9887],[80.1088,20.9881],[80.10906,20.98797],[80.10955,20.98774],[80.10951,20.9879],[80.10908,20.98853],[80.10883,20.98889],[80.10829,20.98937],[80.10777,20.98983],[80.10689,20.99062],[80.10602,20.99178],[80.10602,20.99188],[80.10603,20.99413],[80.10603,20.99621],[80.10642,20.99879],[80.10585,20.99895],[80.10409,20.99945],[80.10322,21.00042],[80.10273,21.00185],[80.10214,21.00354],[80.10165,21.00578],[80.10097,21.00809],[80.10038,21.00908],[80.10028,21.00934],[80.0997,21.01073],[80.0993,21.01298],[80.09986,21.01456],[80.10056,21.01606],[80.1007,21.01637],[80.10135,21.01816],[80.10216,21.02053],[80.10272,21.02173],[80.10333,21.02302],[80.10284,21.02682],[80.10211,21.03229],[80.10137,21.03787],[80.09889,21.03691],[80.09635,21.03625],[80.0954,21.03599],[80.09444,21.03558],[80.09282,21.03488],[80.08847,21.0347],[80.08546,21.03423],[80.0833,21.03371],[80.08246,21.03234],[80.08183,21.03067],[80.08141,21.02966],[80.08139,21.02962],[80.08135,21.02952],[80.08109,21.02932],[80.08018,21.0286],[80.0786,21.0289],[80.07742,21.02876],[80.0759,21.02824],[80.07431,21.02754],[80.07243,21.02756],[80.07007,21.02778],[80.0684,21.02852],[80.06841,21.03005],[80.06863,21.03072],[80.06931,21.03394],[80.07112,21.03563],[80.07132,21.03582],[80.07139,21.03589],[80.07175,21.03622],[80.07231,21.03676],[80.07275,21.03684],[80.07301,21.03697],[80.07431,21.03795],[80.07495,21.03861],[80.07656,21.03963],[80.07711,21.03996],[80.07727,21.04006],[80.07906,21.0411],[80.07914,21.04115],[80.08363,21.04405],[80.08504,21.04548],[80.08524,21.04568],[80.08535,21.04579],[80.08606,21.04651],[80.08611,21.04657],[80.08641,21.0471],[80.08689,21.04794],[80.08735,21.04874],[80.0865,21.04967],[80.08451,21.05187],[80.08157,21.05298],[80.07909,21.05502],[80.07903,21.05507],[80.07844,21.05555],[80.07807,21.05674],[80.07775,21.05776],[80.08197,21.06222],[80.08305,21.06337],[80.08245,21.07044],[80.08235,21.07309],[80.08225,21.07558],[80.08216,21.07758],[80.08215,21.07792],[80.08198,21.08186],[80.08157,21.08409],[80.08155,21.0842],[80.0813,21.08554],[80.07991,21.08796],[80.07875,21.08996],[80.07875,21.09162],[80.07984,21.0941],[80.08068,21.09602],[80.0814,21.09769],[80.08131,21.10072],[80.08128,21.10073],[80.08065,21.10099],[80.07912,21.10161],[80.07837,21.10192],[80.07758,21.10195],[80.07722,21.10196],[80.07582,21.10201],[80.07137,21.10159],[80.06531,21.10143],[80.06415,21.10147],[80.06229,21.10257],[80.06161,21.10588],[80.06271,21.11007],[80.06274,21.11019],[80.06328,21.11223],[80.06485,21.11499],[80.07034,21.11775],[80.07269,21.1194],[80.07285,21.11989],[80.07328,21.12142],[80.07337,21.12258],[80.07334,21.12639],[80.07329,21.1321],[80.07334,21.13244],[80.07347,21.13338],[80.07378,21.1355],[80.07433,21.13618],[80.07535,21.13743],[80.07813,21.13942],[80.07833,21.13957],[80.0804,21.14105],[80.0816,21.14203],[80.08333,21.14343],[80.08398,21.14396],[80.0834,21.14555],[80.08203,21.14927],[80.08109,21.15182],[80.08101,21.15207],[80.08036,21.15408],[80.07892,21.15567],[80.07877,21.15586],[80.07772,21.15719],[80.07701,21.15833],[80.07649,21.15916],[80.07458,21.16273],[80.07126,21.16664],[80.07019,21.1679],[80.06851,21.16965],[80.0682,21.16998],[80.06674,21.17149],[80.06291,21.17488],[80.06248,21.17634],[80.06201,21.17796],[80.06154,21.17957],[80.06272,21.18141],[80.06318,21.18296],[80.06351,21.18408],[80.06351,21.18638],[80.06326,21.18757],[80.06313,21.18817],[80.0629,21.18928],[80.06264,21.19007],[80.06205,21.19191],[80.06078,21.19582],[80.06018,21.19788],[80.05861,21.20018],[80.05675,21.20081],[80.05331,21.20249],[80.05253,21.20571],[80.05188,21.20759],[80.05145,21.20884],[80.05076,21.2098],[80.05008,21.21077],[80.04715,21.2107],[80.04611,21.21067],[80.04031,21.20977],[80.04017,21.20976],[80.03644,21.21372],[80.03553,21.21401],[80.03065,21.21556],[80.02981,21.2161],[80.0281,21.21721],[80.02774,21.21898],[80.02751,21.22007],[80.02743,21.2219],[80.02735,21.22383],[80.02732,21.22457],[80.02699,21.2247],[80.02403,21.22581],[80.02339,21.22605],[80.02051,21.22386],[80.01976,21.22329],[80.01633,21.22108],[80.01191,21.21795],[80.01006,21.21722],[80.00916,21.21687],[80.00838,21.21657],[80.00705,21.21705],[80.00504,21.21777],[80.00403,21.21851],[80.00377,21.21869],[80.00033,21.22071],[79.99641,21.2243],[79.9933,21.22864],[79.9928,21.22935],[79.99199,21.23047],[79.98544,21.22986],[79.98459,21.22978],[79.97489,21.22887],[79.97453,21.22884],[79.97197,21.22862],[79.97011,21.22951],[79.96191,21.2334],[79.95725,21.23561],[79.95244,21.23938],[79.94926,21.24354],[79.94526,21.24877],[79.94396,21.25047],[79.94223,21.25272],[79.93883,21.25292],[79.9374,21.253],[79.92882,21.25349],[79.92319,21.25382],[79.91014,21.24415],[79.90592,21.24102],[79.902,21.24092],[79.89924,21.24481],[79.89833,21.24611],[79.89776,21.24691],[79.896,21.24938],[79.89377,21.24929],[79.88943,21.2491],[79.88937,21.24923],[79.88868,21.25073],[79.88766,21.25296],[79.88576,21.25214],[79.88001,21.24965],[79.87235,21.24849],[79.86774,21.2478],[79.86551,21.24548],[79.86499,21.24494],[79.86499,21.24455],[79.8649,21.24025],[79.86982,21.23114],[79.86933,21.2294],[79.86537,21.23002],[79.86059,21.23077],[79.85799,21.22986],[79.85638,21.22929],[79.85323,21.23058],[79.84931,21.22717],[79.8468,21.22665],[79.84105,21.22546],[79.83921,21.22508],[79.83725,21.22467],[79.83282,21.2301],[79.83514,21.23236],[79.83705,21.23421],[79.84231,21.23935],[79.84545,21.2424],[79.8487,21.24557],[79.84802,21.24641],[79.84595,21.24897],[79.84222,21.25145],[79.8426,21.25346],[79.84278,21.25445],[79.843,21.25559],[79.85347,21.25453],[79.85468,21.25441],[79.85631,21.25111],[79.85714,21.24944],[79.86194,21.25276],[79.86587,21.25138],[79.86583,21.25408],[79.86581,21.2557],[79.86577,21.25874],[79.86257,21.25875],[79.86108,21.25876],[79.85692,21.25878],[79.8568,21.25878],[79.85042,21.25881],[79.8482,21.25882],[79.83876,21.25976],[79.83688,21.25995],[79.83357,21.26028],[79.83265,21.26334],[79.83206,21.26527],[79.83144,21.26733],[79.83101,21.26874],[79.82781,21.2702],[79.82639,21.27085],[79.82766,21.27712],[79.82815,21.2795],[79.8316,21.28098],[79.83582,21.28278],[79.83585,21.28279],[79.83786,21.28365],[79.83762,21.28441],[79.83756,21.28457],[79.83628,21.28852],[79.83522,21.28916],[79.83402,21.2899],[79.83314,21.28995],[79.82882,21.29017],[79.82891,21.29078],[79.82896,21.2911],[79.82929,21.29338],[79.83028,21.3002],[79.83529,21.30196],[79.83833,21.30491],[79.83883,21.30605],[79.83921,21.30693],[79.83917,21.30832],[79.8391,21.3107],[79.83606,21.31042],[79.83565,21.30939],[79.83551,21.30904],[79.83479,21.3072],[79.83217,21.31062],[79.83092,21.31227],[79.82741,21.31685],[79.82338,21.3174],[79.82328,21.31739],[79.82176,21.31718],[79.81573,21.31638],[79.81571,21.31884],[79.81565,21.32729],[79.81564,21.32858],[79.81563,21.32935],[79.81561,21.33183],[79.81416,21.33328],[79.81167,21.33579],[79.81194,21.3375],[79.81255,21.3414],[79.81205,21.34674],[79.8146,21.34748],[79.81457,21.34764],[79.81439,21.34849],[79.81403,21.35013],[79.81365,21.35191],[79.81342,21.353],[79.81155,21.35152],[79.81133,21.35184],[79.81034,21.35328],[79.80946,21.35456],[79.80926,21.35485],[79.8087,21.35566],[79.80744,21.35437],[79.80644,21.35336],[79.80622,21.35361],[79.8022,21.35829],[79.80203,21.35849],[79.80143,21.35993],[79.80122,21.36109],[79.80107,21.36167],[79.80068,21.36277],[79.80022,21.36388],[79.7997,21.36492],[79.79817,21.36779],[79.79982,21.37737],[79.80287,21.37995],[79.81113,21.38326],[79.81123,21.38326],[79.8115,21.38312],[79.81172,21.38325],[79.81207,21.38344],[79.81354,21.38396],[79.81367,21.38427],[79.81688,21.38556],[79.81733,21.38574],[79.81784,21.38595],[79.82015,21.38687],[79.82286,21.3887],[79.82685,21.39138],[79.82806,21.3922],[79.8309,21.39409],[79.8313,21.39418],[79.8329,21.39527],[79.83398,21.39619],[79.83655,21.39793],[79.83832,21.39912],[79.84177,21.40145],[79.8425,21.40194],[79.84331,21.40266],[79.84475,21.40394],[79.84763,21.40651],[79.84947,21.40815],[79.85195,21.41037],[79.85277,21.41061],[79.85605,21.41164],[79.8583,21.41235],[79.85978,21.41281],[79.86383,21.41407],[79.86652,21.4149],[79.86736,21.41516],[79.86792,21.41534],[79.8695,21.41583],[79.86969,21.41589],[79.87013,21.41603],[79.87091,21.41627],[79.87489,21.41842],[79.87544,21.41872],[79.87877,21.42051],[79.87944,21.42116],[79.88338,21.42497],[79.88326,21.42568],[79.88315,21.42642],[79.88308,21.42685],[79.883,21.42734],[79.88245,21.43075],[79.88181,21.43271],[79.88128,21.43372],[79.88042,21.43604],[79.88025,21.43716],[79.88069,21.43836],[79.88108,21.43937],[79.88231,21.44083],[79.8826,21.44106],[79.88295,21.44122],[79.88372,21.44137],[79.88517,21.44165],[79.88584,21.44223],[79.89016,21.44606],[79.89094,21.44769],[79.89199,21.4499],[79.89202,21.44997],[79.90419,21.46352],[79.90484,21.46392],[79.90993,21.46843],[79.91066,21.46909],[79.91087,21.46959],[79.91226,21.47077],[79.91309,21.4716],[79.91345,21.47204],[79.91385,21.47258],[79.91418,21.47291],[79.91459,21.47319],[79.91722,21.47492],[79.91774,21.47536],[79.91819,21.47584],[79.9192,21.47692],[79.92038,21.47819],[79.92213,21.48003],[79.92423,21.48238],[79.9262,21.48698],[79.92682,21.4889],[79.92769,21.49162],[79.92813,21.49298],[79.93003,21.49886],[79.93032,21.50438],[79.92951,21.50858],[79.92938,21.50932],[79.92968,21.5096],[79.92966,21.50991],[79.92952,21.51092],[79.92941,21.51136],[79.92926,21.51169],[79.92874,21.51257],[79.92864,21.51294],[79.92848,21.51335],[79.92816,21.51408],[79.92603,21.51724],[79.92589,21.51758],[79.92504,21.51947],[79.92484,21.52],[79.92445,21.52063],[79.92364,21.52149],[79.92302,21.52216],[79.92269,21.52269],[79.9225,21.52337],[79.92246,21.52403],[79.92246,21.52406],[79.92256,21.5246],[79.92239232761959,21.5245962739471],[79.92237946300008,21.524595988000044],[79.92076,21.52456],[79.92018,21.52455],[79.91725,21.52452],[79.91494,21.5245],[79.9142,21.52449],[79.90793,21.52444],[79.90655,21.52427],[79.90629,21.52424],[79.90556,21.52415],[79.90419,21.52398],[79.90072,21.52354],[79.90031,21.52349],[79.89902,21.52333],[79.89716,21.52378],[79.89648,21.52394],[79.89549,21.5254],[79.89411,21.52743],[79.89368,21.52805],[79.89257,21.5297],[79.89186,21.5296],[79.89151,21.52956],[79.89121,21.52952],[79.8897,21.52934],[79.88938,21.52929],[79.8876,21.52905],[79.88723,21.529],[79.88711,21.52899],[79.88426,21.52862],[79.88341,21.52852],[79.88019,21.52918],[79.8786,21.52959],[79.8769,21.52975],[79.87608,21.52982],[79.86798,21.53056],[79.86719,21.53064],[79.86618,21.53073],[79.86378,21.53095],[79.86336,21.53124],[79.86149537200004,21.53253241400006],[79.86147,21.53255],[79.85931,21.53496],[79.85876,21.53569],[79.85872,21.53575],[79.85840153800007,21.536177205000058],[79.85831,21.5363],[79.85794,21.53674],[79.85773,21.53698],[79.85726,21.53754],[79.85624,21.53803],[79.85457,21.53882],[79.85423,21.53898],[79.85234,21.53988],[79.85101,21.54051],[79.84824,21.54182],[79.83992,21.54428],[79.83792,21.54487],[79.83429,21.54594],[79.83271,21.5464],[79.83208,21.54658],[79.83173,21.54669],[79.83038,21.54907],[79.82869,21.55214],[79.82775,21.55383],[79.82671,21.5557],[79.82489848000006,21.558936978000077],[79.82488,21.55897],[79.82465,21.55915],[79.82420922300008,21.559504976000028],[79.82203,21.56126],[79.81834,21.56424],[79.818,21.56457],[79.81574,21.56678],[79.81359,21.5689],[79.80986,21.57255],[79.80842,21.57366],[79.80642,21.57519],[79.80243,21.57827],[79.79847,21.58131],[79.79766,21.58162],[79.79665,21.58201],[79.79551,21.58246],[79.79068,21.58435],[79.78848,21.58519],[79.78763,21.58554],[79.78452,21.58675],[79.78165,21.58787],[79.78138,21.58798],[79.78126,21.58802],[79.78116,21.58806],[79.77699624500008,21.589683282000067],[79.77544,21.59029],[79.76156,21.59459],[79.75988,21.59511],[79.7588,21.59545],[79.75628,21.59623],[79.75154,21.59769],[79.74712,21.59937],[79.74174,21.6014],[79.73925,21.60234],[79.7391,21.60225],[79.73577,21.60024],[79.72706,21.59495],[79.72044,21.59093],[79.71635219600006,21.59080731000006],[79.71311,21.59071],[79.71279,21.59071],[79.71181,21.59091],[79.71128,21.59102],[79.70756,21.59178],[79.70738,21.59182],[79.70593204000005,21.592108044000042],[79.70537,21.59197],[79.70501,21.59188],[79.70172,21.59107],[79.70042281000008,21.590753129000063],[79.70041,21.59075],[79.70021710900005,21.59052224000004],[79.69781,21.58768],[79.69594,21.58344],[79.69143,21.58049],[79.69086,21.58046],[79.69063,21.58045],[79.69033,21.58044],[79.68683,21.58028],[79.68454347300008,21.58017761800005],[79.68281,21.5801],[79.67821,21.57989],[79.67598,21.57979],[79.67242,21.57962],[79.6722,21.57961],[79.66992,21.57951],[79.66953,21.57949],[79.66865,21.57906],[79.66718,21.57833],[79.66630271000008,21.577896682000073],[79.66523340495817,21.57736852390647],[79.66471,21.57711],[79.66411,21.57512],[79.6634,21.57277],[79.66052,21.56325],[79.65719,21.55861],[79.65715167200005,21.558590175000063],[79.65632,21.55816],[79.65613,21.55806],[79.65506,21.5575],[79.65406,21.55697],[79.65135532900007,21.556287093000037],[79.65105,21.55621],[79.64731,21.55527],[79.64373,21.55498],[79.64249,21.55488],[79.6421,21.55485],[79.64083,21.55474],[79.64006,21.55473],[79.63577,21.55469],[79.63564777300007,21.554688412000075],[79.635,21.55468],[79.63483,21.55468],[79.63329,21.55466],[79.63246,21.55465],[79.63189,21.55465],[79.63016,21.55512],[79.62585,21.55629],[79.62341139000006,21.55696305600003],[79.62335,21.55698],[79.62295,21.55692],[79.62257,21.55686],[79.61878,21.55626],[79.61525,21.5557],[79.61434,21.5552],[79.61347,21.55471],[79.60992326000007,21.552751072000035],[79.60592,21.55054],[79.60364,21.54997],[79.60266,21.54973],[79.60172,21.5495],[79.60143,21.54942],[79.59959,21.54939],[79.59952,21.54939],[79.59928,21.54938],[79.59604,21.54932],[79.59402,21.54838],[79.5936,21.54818],[79.59074,21.54686],[79.59059,21.54679],[79.59052,21.54676],[79.59044,21.54672],[79.58582,21.54458],[79.58265,21.54311],[79.5793,21.54339],[79.57785,21.54355],[79.57512,21.54459],[79.57471,21.54475],[79.57071,21.54627],[79.5668,21.54775],[79.56474009900006,21.547158141000068],[79.56325,21.54673],[79.56255,21.54653],[79.56015,21.54583],[79.55832,21.54531],[79.55727,21.545],[79.55711,21.54495],[79.55528,21.54442],[79.55402,21.54407],[79.55394914600004,21.54404975600005],[79.55388,21.54403],[79.55365,21.54403],[79.55189,21.54401],[79.55135,21.54401],[79.5507,21.544],[79.54974,21.54399],[79.54716,21.54397],[79.54457,21.54395],[79.54319267200003,21.543940631000055],[79.54309631800004,21.54394598400006]]]}}]}