{"type":"FeatureCollection","features":[{"type":"Feature","properties":{"shapeName":"Chandrapur","shapeISO":"","shapeID":"76128533B31342633028465","shapeGroup":"IND","shapeType":"ADM2"},"geometry":{"type":"Polygon","coordinates":[[[79.79231,19.59663],[79.79446,19.60531],[79.79454,19.61087],[79.79468,19.61682],[79.79466,19.61755],[79.79464,19.61835],[79.79326,19.62193],[79.79305,19.62252],[79.79227,19.62467],[79.7918,19.62594],[79.79172,19.62617],[79.78959,19.63202],[79.78837,19.64182],[79.78821,19.64303],[79.78794,19.64525],[79.78734,19.65001],[79.78747,19.65184],[79.78767,19.65482],[79.78788,19.6578],[79.78809,19.66085],[79.78833,19.6643],[79.78823,19.66693],[79.78783,19.67731],[79.78771,19.68027],[79.78762,19.68265],[79.78781,19.68392],[79.78774,19.68446],[79.78755,19.68567],[79.78751,19.6861],[79.78739,19.6886],[79.78733,19.69004],[79.78718,19.69058],[79.78716,19.69086],[79.78725,19.69204],[79.78722,19.69292],[79.78727,19.6943],[79.78734,19.69622],[79.78741,19.69815],[79.78743,19.69882],[79.7878,19.7092],[79.78742,19.71457],[79.78717,19.71807],[79.78234,19.72691],[79.78226,19.72703],[79.77716,19.73246],[79.77312,19.73678],[79.77112,19.73892],[79.76527,19.74518],[79.76132,19.74939],[79.75777,19.7563],[79.75646,19.75817],[79.75626,19.75848],[79.75617,19.75867],[79.7556,19.76046],[79.75548,19.76076],[79.75525,19.76175],[79.75512,19.76206],[79.75472,19.7634],[79.75292,19.77],[79.75285,19.77024],[79.75216,19.77281],[79.75193,19.77316],[79.74775,19.77971],[79.74708,19.78383],[79.74703,19.78416],[79.74597,19.79066],[79.74574,19.79402],[79.74524,19.80129],[79.74516,19.80258],[79.74488,19.80678],[79.74478,19.80826],[79.74456,19.81139],[79.74442,19.81339],[79.74417,19.81715],[79.74423,19.81854],[79.74428,19.81988],[79.74444,19.82403],[79.74696,19.82933],[79.74795,19.83142],[79.75011,19.83457],[79.75056,19.83523],[79.75101,19.83588],[79.75216,19.83756],[79.75326,19.83917],[79.75448,19.84095],[79.75514,19.84191],[79.7589,19.84739],[79.76252,19.85108],[79.7643,19.85289],[79.76639,19.85502],[79.76857,19.8561],[79.76888,19.85631],[79.76892,19.8565],[79.77344,19.85915],[79.77415,19.85949],[79.77843,19.862],[79.78209,19.86406],[79.7854,19.86769],[79.78557,19.86787],[79.78585,19.86818],[79.78694,19.86937],[79.78694,19.87014],[79.78694,19.87035],[79.78694,19.87068],[79.78694,19.87084],[79.78694,19.87145],[79.78695,19.87191],[79.78696,19.87583],[79.7898,19.87931],[79.79192,19.88189],[79.79237,19.88214],[79.79927,19.88593],[79.79938,19.88604],[79.79978,19.88643],[79.80038,19.88702],[79.80377,19.89037],[79.80515,19.89345],[79.80525,19.89368],[79.80537,19.89432],[79.80551,19.89535],[79.80553,19.89579],[79.80572,19.89664],[79.80576,19.8973],[79.80602,19.90055],[79.80584,19.90091],[79.8046,19.90344],[79.80435,19.90398],[79.8032,19.90629],[79.8011,19.91052],[79.8,19.91274],[79.79959,19.91358],[79.79728,19.916],[79.79592,19.91741],[79.79353,19.9237],[79.79315,19.9247],[79.79267,19.92538],[79.78938,19.93005],[79.78783,19.93226],[79.78723,19.93312],[79.78599,19.93487],[79.7848,19.93656],[79.78272,19.94043],[79.77746,19.9502],[79.77723,19.95063],[79.77636,19.95476],[79.77533,19.95959],[79.77496,19.96135],[79.77451,19.9637],[79.77444,19.96411],[79.77442,19.96475],[79.77441,19.96491],[79.77419,19.96552],[79.77353,19.96808],[79.77257,19.97257],[79.77354,19.97483],[79.77589,19.98034],[79.77638,19.98119],[79.77859,19.98501],[79.77891,19.98556],[79.78009,19.98759],[79.78042,19.99208],[79.78051,19.99331],[79.78069,19.99582],[79.78106,20.00097],[79.783,20.00332],[79.78454,20.0052],[79.78629,20.00732],[79.78653,20.00762],[79.78781,20.00917],[79.78804,20.00945],[79.78825,20.00971],[79.78875,20.01032],[79.79227,20.01392],[79.79558,20.01731],[79.79672,20.01847],[79.79843,20.02022],[79.79908,20.02089],[79.79986,20.02143],[79.80033,20.02168],[79.80062,20.02186],[79.80122,20.02227],[79.80544,20.02442],[79.8103,20.02711],[79.81454,20.02946],[79.81456,20.02947],[79.81458,20.02947],[79.83797,20.03193],[79.84027,20.03217],[79.84432,20.03259],[79.84891,20.03307],[79.84905,20.03308],[79.84908,20.03304],[79.84959,20.03234],[79.85017,20.03154],[79.85342,20.02702],[79.85366,20.02669],[79.85703,20.02203],[79.86031,20.0173],[79.86177,20.0152],[79.86251,20.01413],[79.86307,20.01331],[79.86491,20.01063],[79.86557,20.00968],[79.86864,20.00525],[79.86877,20.00505],[79.87095,20.00186],[79.87097,20.00163],[79.8702,20.00072],[79.86912,19.99182],[79.87151,19.98463],[79.87717,19.98047],[79.87736,19.98034],[79.88132,19.97743],[79.88415,19.97596],[79.88549,19.97527],[79.88579,19.97512],[79.89334,19.9712],[79.89453,19.97058],[79.89538,19.97014],[79.90118,19.9695],[79.91284,19.96821],[79.91351,19.96838],[79.92472,19.9712],[79.92831,19.97262],[79.92844,19.97267],[79.93794,19.97641],[79.94121,19.97868],[79.94221,19.97938],[79.94235,19.97947],[79.9446,19.98103],[79.95088,19.98538],[79.95235,19.9872],[79.95269,19.98762],[79.95414,19.9894],[79.9557,19.99132],[79.95757,19.99363],[79.96294,20.00042],[79.96437,20.00341],[79.96502,20.00479],[79.9677,20.0085],[79.96952,20.01102],[79.97144,20.01369],[79.97191,20.01433],[79.97277,20.01553],[79.97687,20.02064],[79.98434,20.02995],[79.98488,20.03104],[79.98517,20.03143],[79.98528,20.0316],[79.98567,20.03239],[79.98596,20.03336],[79.98689,20.03533],[79.99037,20.04266],[79.99134,20.04471],[79.99143,20.04489],[79.99135,20.04635],[79.99125,20.04754],[79.99117,20.04815],[79.99084,20.05002],[79.9904,20.05145],[79.98928,20.05592],[79.98878,20.05782],[79.98809,20.06042],[79.98628,20.0673],[79.98611,20.06888],[79.98559,20.07367],[79.98529,20.0764],[79.9849,20.0801],[79.98391,20.08385],[79.98378,20.08434],[79.98365,20.08483],[79.9835,20.08541],[79.98344,20.08564],[79.98341,20.08573],[79.98338,20.08587],[79.98326,20.08633],[79.98321,20.08652],[79.98307,20.08703],[79.98231,20.08992],[79.982,20.09111],[79.98154,20.09286],[79.98005,20.09851],[79.97992,20.09901],[79.97892,20.10278],[79.97866,20.10379],[79.97749,20.10567],[79.9772,20.10573],[79.97559,20.10871],[79.9727,20.11335],[79.97034,20.11619],[79.97032,20.11624],[79.97019,20.11658],[79.97005,20.11693],[79.96979,20.11727],[79.96966,20.11762],[79.96952,20.11796],[79.96939,20.11831],[79.96912,20.11865],[79.96899,20.11899],[79.96873,20.11934],[79.96859,20.11968],[79.96833,20.11991],[79.96807,20.12025],[79.96781,20.12059],[79.96755,20.12081],[79.96728,20.12116],[79.96702,20.12138],[79.96676,20.12172],[79.9665,20.12195],[79.96624,20.12217],[79.96586,20.12239],[79.9656,20.12262],[79.96521,20.12296],[79.96482,20.12318],[79.96456,20.12329],[79.96418,20.12351],[79.96379,20.12373],[79.9634,20.12395],[79.96301,20.12417],[79.96276,20.12428],[79.96237,20.1245],[79.96198,20.12472],[79.9616,20.12482],[79.9607,20.12514],[79.95993,20.12547],[79.95916,20.12579],[79.95839,20.126],[79.95749,20.1262],[79.95672,20.12641],[79.95595,20.12662],[79.95505,20.12682],[79.95428,20.12703],[79.95351,20.12712],[79.95262,20.12732],[79.95185,20.12741],[79.95095,20.12761],[79.95018,20.1277],[79.94928,20.12779],[79.94851,20.12788],[79.94758,20.12797],[79.94595,20.12814],[79.94428,20.12831],[79.94091,20.12916],[79.93908,20.12962],[79.93859,20.12967],[79.93713,20.12981],[79.93344,20.1311],[79.93311,20.13128],[79.93053,20.13205],[79.92767,20.13337],[79.92733,20.13352],[79.92396,20.13507],[79.9209,20.13648],[79.91733,20.139],[79.91402,20.14135],[79.91304,20.14455],[79.91255,20.14612],[79.91303,20.15038],[79.91508,20.15521],[79.91592,20.15718],[79.91732,20.15846],[79.91755,20.15946],[79.91787,20.16043],[79.91831,20.16142],[79.9193,20.16388],[79.91953,20.16437],[79.91976,20.16471],[79.9204,20.16547],[79.92141,20.16719],[79.92291,20.16985],[79.92522,20.17298],[79.92613,20.17415],[79.92643,20.17461],[79.9275,20.17647],[79.92805,20.17731],[79.92951,20.17979],[79.93061,20.18143],[79.9314,20.1828],[79.93175,20.18346],[79.93247,20.18449],[79.93316,20.18541],[79.9345,20.18705],[79.935,20.18765],[79.93541,20.1882],[79.93594,20.18849],[79.9379,20.18988],[79.93865,20.19042],[79.93967,20.19115],[79.94032,20.19161],[79.94083,20.19197],[79.94185,20.1927],[79.94302,20.19312],[79.94323,20.19319],[79.94343,20.19326],[79.94548,20.194],[79.94704,20.19456],[79.94849,20.19534],[79.95108,20.19674],[79.95152,20.19698],[79.95175,20.19711],[79.9548,20.19876],[79.95599,20.1994],[79.95678,20.1997],[79.95995,20.20087],[79.96553,20.20293],[79.96742,20.20346],[79.97279,20.20498],[79.98363,20.20573],[79.9841,20.20586],[79.98417,20.20588],[79.98524,20.2064],[79.98685,20.20729],[79.98698,20.2074],[79.98741,20.20779],[79.98751,20.20787],[79.98798,20.2082],[79.98809,20.20826],[79.98958,20.20907],[79.98964,20.20913],[79.98985,20.20944],[79.98991,20.20949],[79.99006,20.20955],[79.99053,20.20964],[79.99075,20.20972],[79.99299,20.2107],[79.99408,20.21193],[79.99469,20.21261],[79.99501,20.21302],[79.99525,20.21348],[79.99539,20.2137],[79.99588,20.21412],[79.99596,20.21423],[79.99602,20.2144],[79.99613,20.21496],[79.99621,20.2157],[79.9962,20.21591],[79.99609,20.21624],[79.99608,20.21639],[79.99611,20.21668],[79.99615,20.21723],[79.99619,20.21732],[79.99624,20.21741],[79.99628,20.21752],[79.99633,20.21829],[79.99639,20.22064],[79.99625,20.224],[79.99585,20.22709],[79.99574,20.22762],[79.99536,20.22889],[79.99498,20.22976],[79.99472,20.23063],[79.99415,20.23288],[79.99414,20.23305],[79.99413,20.23402],[79.99412,20.23418],[79.99368,20.23558],[79.99343,20.23634],[79.99293,20.2373],[79.99206,20.23863],[79.99174,20.239],[79.99084,20.24041],[79.9907,20.24062],[79.98976,20.2425],[79.98943,20.24322],[79.98575,20.24909],[79.98506,20.24998],[79.97941,20.25728],[79.97528,20.26146],[79.97464,20.26211],[79.9742,20.26256],[79.97292,20.26385],[79.97195,20.26482],[79.96945,20.26677],[79.96689,20.26876],[79.96273,20.27199],[79.96179,20.27273],[79.96165,20.27284],[79.95841,20.27537],[79.95642,20.27757],[79.95551,20.27834],[79.95506,20.27859],[79.955,20.27871],[79.9546,20.27949],[79.95344,20.28093],[79.9533,20.2811],[79.95271,20.28183],[79.95045,20.28461],[79.95001,20.28516],[79.94969,20.28554],[79.94933,20.28636],[79.94878,20.28763],[79.94737,20.29085],[79.94705,20.29157],[79.94644,20.29297],[79.94629,20.29331],[79.94625,20.2934],[79.94573,20.2946],[79.94556,20.29855],[79.94551,20.29987],[79.94526,20.30607],[79.94571,20.31321],[79.94588,20.31577],[79.94597,20.31718],[79.94786,20.32165],[79.95033,20.32746],[79.95749,20.33441],[79.95968,20.33594],[79.9604,20.33645],[79.96107,20.33692],[79.96141,20.33716],[79.96406,20.33901],[79.96824,20.34223],[79.96892,20.34275],[79.96936,20.34341],[79.96969,20.34389],[79.97155,20.34665],[79.97424,20.35051],[79.97427,20.35055],[79.975,20.35246],[79.97499,20.35376],[79.97498,20.35394],[79.97482,20.35525],[79.97421,20.35885],[79.97413,20.35966],[79.97414,20.36038],[79.97418,20.36104],[79.97385,20.36132],[79.97364,20.36161],[79.97351,20.36179],[79.96696,20.37114],[79.9663,20.37208],[79.9655,20.37378],[79.96446,20.376],[79.96424,20.37684],[79.96413,20.37712],[79.9634,20.37843],[79.96254,20.38045],[79.96224,20.38076],[79.96066,20.3841],[79.96173,20.39514],[79.962,20.39798],[79.96209,20.39825],[79.96353,20.40296],[79.96398,20.40443],[79.96435,20.40563],[79.96397,20.40767],[79.96389,20.40806],[79.96384,20.40832],[79.96336,20.41082],[79.96246,20.41556],[79.95778,20.42148],[79.95716,20.42226],[79.95557,20.42427],[79.94543,20.43358],[79.9434,20.43544],[79.94278,20.43968],[79.94242,20.44212],[79.9427,20.44254],[79.94265,20.44278],[79.94221,20.44424],[79.94196,20.44524],[79.94165,20.44733],[79.94228,20.45169],[79.94242,20.45265],[79.94303,20.45684],[79.94408,20.46405],[79.94426,20.46533],[79.94565,20.475],[79.94674,20.47919],[79.94694,20.4801],[79.94758,20.48252],[79.94897,20.48781],[79.94916,20.48834],[79.94954,20.49001],[79.94977,20.49091],[79.95035,20.49314],[79.95069,20.49446],[79.95122,20.49652],[79.95128,20.49677],[79.95231,20.50074],[79.95201,20.50594],[79.95166,20.51199],[79.95168,20.51226],[79.95185,20.5141],[79.95208,20.51676],[79.95239,20.52028],[79.95252,20.52171],[79.95258,20.52233],[79.9526,20.5225],[79.95265,20.52318],[79.95303,20.5274],[79.95315,20.52872],[79.95282,20.52941],[79.94887,20.53747],[79.94787,20.53795],[79.94662,20.53855],[79.93895,20.54225],[79.93589,20.54372],[79.93505,20.54413],[79.93205,20.54777],[79.92998,20.55028],[79.92909,20.55137],[79.92797,20.55276],[79.92855,20.55414],[79.92887,20.5555],[79.92917,20.55641],[79.92963,20.55759],[79.92975,20.55776],[79.93034,20.5585],[79.93041,20.5586],[79.93072,20.55921],[79.93084,20.55945],[79.93143,20.56015],[79.93292,20.56156],[79.93413,20.56297],[79.9342,20.56309],[79.93454,20.564],[79.93517,20.56572],[79.93526,20.56596],[79.93571,20.56799],[79.93578,20.56818],[79.93634,20.57033],[79.93664,20.57132],[79.93671,20.5715],[79.93734,20.57293],[79.93738,20.57305],[79.93826,20.57638],[79.93886,20.57889],[79.93996,20.58326],[79.93998,20.58339],[79.94002,20.58417],[79.94002,20.58426],[79.94026,20.58515],[79.94044,20.58632],[79.94092,20.58855],[79.94149,20.5918],[79.94199,20.59472],[79.94209,20.59563],[79.94214,20.59671],[79.94242,20.59836],[79.94243,20.59855],[79.94252,20.60115],[79.94251,20.60132],[79.94235,20.60391],[79.94235,20.60677],[79.94237,20.60806],[79.94248,20.60907],[79.94267,20.61038],[79.94284,20.61193],[79.94315,20.61345],[79.94317,20.61356],[79.94302,20.61507],[79.943,20.61522],[79.94279,20.61614],[79.94277,20.61625],[79.94286,20.61723],[79.94312,20.61935],[79.94315,20.61958],[79.94346,20.62195],[79.94403,20.62461],[79.9441,20.62474],[79.94513,20.62659],[79.94531,20.62688],[79.94535,20.62699],[79.94542,20.62766],[79.94586,20.62919],[79.94594,20.62959],[79.94589,20.63068],[79.94586,20.63086],[79.94567,20.63145],[79.94478,20.63313],[79.94471,20.63328],[79.94415,20.63521],[79.94408,20.63563],[79.94406,20.63604],[79.94412,20.63845],[79.94413,20.64008],[79.94389,20.64293],[79.94385,20.64309],[79.94359,20.6437],[79.94336,20.64419],[79.94306,20.64486],[79.94187,20.64688],[79.94167,20.64781],[79.94135,20.64933],[79.94004,20.65264],[79.93958,20.6538],[79.93921,20.65474],[79.938,20.65781],[79.93668,20.66113],[79.93608,20.6622],[79.93509,20.66397],[79.93428,20.6654],[79.93423,20.6655],[79.93371,20.66643],[79.93339,20.66699],[79.93332,20.66712],[79.93282,20.66729],[79.93079,20.66795],[79.92812,20.66886],[79.91086,20.67474],[79.90796,20.67572],[79.90423,20.67699],[79.89996,20.67994],[79.89461,20.68364],[79.89285,20.68382],[79.88149,20.68499],[79.88023,20.68512],[79.87949,20.6852],[79.8785,20.68496],[79.87813,20.68487],[79.87752,20.68472],[79.87194,20.68337],[79.86941,20.68276],[79.86204,20.68098],[79.85665,20.67968],[79.85024,20.67813],[79.8467,20.67867],[79.84232,20.67934],[79.83213,20.68211],[79.82881,20.68301],[79.82726,20.68311],[79.82438,20.68331],[79.82322,20.68339],[79.82253,20.68344],[79.81663,20.68385],[79.80716,20.68451],[79.80395,20.68473],[79.80382,20.68474],[79.80323,20.68478],[79.80306,20.68564],[79.80237,20.68895],[79.80096,20.69574],[79.80094,20.69586],[79.80029,20.69648],[79.79907,20.69765],[79.79868,20.69802],[79.79768,20.69898],[79.79719,20.69945],[79.79623,20.7024],[79.79621,20.70247],[79.79425,20.70848],[79.79414,20.70871],[79.78966,20.71798],[79.78675,20.72049],[79.7835,20.72329],[79.78296,20.72376],[79.78106,20.72448],[79.77801,20.72562],[79.77313,20.72746],[79.77228,20.72778],[79.77118,20.72855],[79.77034,20.72902],[79.76925,20.72957],[79.76817,20.72997],[79.76706,20.73036],[79.76495,20.731],[79.76453,20.73113],[79.76326,20.73145],[79.76225,20.73182],[79.76201,20.7314],[79.76166,20.73065],[79.76155,20.73041],[79.75854,20.72395],[79.75709,20.71958],[79.75431,20.71119],[79.76127,20.70735],[79.75804,20.70142],[79.75706,20.69854],[79.75675,20.69762],[79.75436,20.69056],[79.75429,20.69036],[79.75315,20.687],[79.75292,20.68631],[79.75245,20.68622],[79.74883,20.68555],[79.74097,20.68408],[79.73777,20.68348],[79.73579,20.68311],[79.73468,20.68312],[79.73168,20.68314],[79.72365,20.6832],[79.71386,20.68586],[79.71128,20.68372],[79.71095,20.68345],[79.71079,20.68332],[79.7073,20.68043],[79.70024,20.6746],[79.69384,20.66931],[79.6942,20.66306],[79.69865,20.65284],[79.70194,20.64528],[79.69901,20.6431],[79.69879,20.64294],[79.69603,20.6409],[79.69142,20.64191],[79.69118,20.64209],[79.69048,20.64262],[79.69007,20.64293],[79.68974,20.64318],[79.68675,20.64544],[79.68309,20.64683],[79.68013,20.64796],[79.67202,20.64894],[79.67117,20.6496],[79.66513,20.65426],[79.66443,20.65855],[79.6644,20.65875],[79.66369,20.66305],[79.66133,20.66426],[79.65597,20.66701],[79.65374,20.66816],[79.6493,20.6693],[79.64662,20.66998],[79.64498,20.6704],[79.64088,20.671],[79.63705,20.67156],[79.63486,20.67188],[79.63339,20.67209],[79.63099,20.67244],[79.62433,20.67342],[79.62353,20.67353],[79.62314,20.67424],[79.62252,20.67536],[79.62187,20.67655],[79.6192,20.68141],[79.6175,20.6845],[79.61727,20.68492],[79.61353,20.69172],[79.61019,20.6916],[79.60928,20.69157],[79.60839,20.69153],[79.60799,20.69152],[79.60787,20.69152],[79.60736,20.6915],[79.60725,20.69149],[79.60634,20.69146],[79.60547,20.69143],[79.59868,20.68976],[79.59413,20.69024],[79.59324,20.69033],[79.59062,20.69061],[79.59051,20.69062],[79.5904,20.69063],[79.5813,20.69159],[79.57139,20.69396],[79.57088,20.69408],[79.56988,20.69432],[79.56821,20.69472],[79.56758,20.69721],[79.56666,20.70086],[79.56634,20.70213],[79.55348,20.70255],[79.55343,20.70255],[79.55227,20.70258],[79.54997,20.70266],[79.54978,20.70266],[79.54944,20.70268],[79.54876,20.7027],[79.54794,20.70267],[79.54781,20.70267],[79.54581,20.70261],[79.5382,20.70237],[79.53496,20.70227],[79.52915,20.70716],[79.52788,20.70822],[79.52118,20.70925],[79.51895,20.70587],[79.51763,20.70568],[79.51059,20.70467],[79.50941,20.70451],[79.50768,20.7024],[79.507,20.70157],[79.50615,20.70053],[79.50608,20.70045],[79.49673,20.6997],[79.49605,20.70155],[79.49544,20.7032],[79.49478,20.70499],[79.49196,20.7046],[79.49119,20.70228],[79.49036,20.69976],[79.49001,20.69871],[79.48575,20.69346],[79.48408,20.6914],[79.48279,20.68981],[79.48272,20.68973],[79.48229,20.68924],[79.47984,20.68646],[79.47836,20.68478],[79.47544,20.68147],[79.47397,20.68023],[79.47375,20.68004],[79.47317,20.67955],[79.47301,20.67941],[79.47272,20.67916],[79.47127,20.67792],[79.46998,20.67683],[79.46948,20.6764],[79.46884,20.67586],[79.46807,20.6752],[79.46781,20.67498],[79.46703,20.67439],[79.46604,20.67366],[79.46463,20.67261],[79.46043,20.66947],[79.45992,20.66921],[79.45973,20.66911],[79.45615,20.66731],[79.45465,20.66655],[79.45406,20.66626],[79.45143,20.66493],[79.45068,20.66479],[79.4458,20.66387],[79.44503,20.66354],[79.4448,20.66344],[79.44264,20.66251],[79.44237,20.66239],[79.44172,20.66211],[79.44019,20.66145],[79.43595,20.65961],[79.43532,20.65934],[79.4347,20.65952],[79.43043,20.66075],[79.42911,20.66116],[79.42695,20.66025],[79.42479,20.65933],[79.42262,20.65842],[79.41839,20.65663],[79.41421,20.65642],[79.40728,20.65606],[79.40595,20.65637],[79.40274,20.65712],[79.39943,20.65789],[79.39881,20.65819],[79.39782,20.65868],[79.39311,20.66102],[79.38992,20.66615],[79.3899,20.66891],[79.38987,20.67291],[79.38613,20.67576],[79.38538,20.67632],[79.38365,20.6766],[79.37928,20.67731],[79.37892,20.67737],[79.37684,20.67771],[79.37624,20.67781],[79.37593,20.67786],[79.37145,20.67461],[79.36777,20.673],[79.36592,20.67219],[79.3658,20.67213],[79.36518,20.67186],[79.36505,20.6718],[79.3641,20.67139],[79.3628,20.67146],[79.35324,20.67185],[79.35147,20.66742],[79.35081,20.66578],[79.35114,20.66546],[79.35438,20.66233],[79.35631,20.66048],[79.35779,20.65584],[79.35403,20.65108],[79.35303,20.65027],[79.35129,20.64886],[79.34856,20.64666],[79.34629,20.64482],[79.3457,20.6429],[79.34516,20.64115],[79.34627,20.6384],[79.3474,20.63556],[79.34779,20.6346],[79.34543,20.63079],[79.34403,20.62854],[79.34314,20.62711],[79.33914,20.62065],[79.33533,20.6145],[79.33527,20.6144],[79.3351,20.61413],[79.33504,20.61308],[79.33489,20.61072],[79.33474,20.60839],[79.33453,20.60755],[79.33415,20.60606],[79.33329,20.60267],[79.33276,20.60149],[79.32942,20.59405],[79.32751,20.5898],[79.32221,20.58381],[79.32054,20.58331],[79.31353,20.58121],[79.30804,20.58293],[79.30659,20.58338],[79.30523,20.5838],[79.30458,20.584],[79.3005,20.58626],[79.29989,20.5866],[79.2984,20.58743],[79.29694,20.58824],[79.29292,20.58934],[79.28523,20.58704],[79.28502,20.58697],[79.28106,20.58579],[79.27487,20.5857],[79.27209,20.58566],[79.26379,20.58554],[79.25718,20.58614],[79.25191,20.58662],[79.24532,20.58592],[79.24357,20.58573],[79.23963,20.5853],[79.23148,20.58443],[79.22682,20.58393],[79.22512,20.58266],[79.22179,20.58005],[79.22186,20.57279],[79.22187,20.57186],[79.22191,20.56756],[79.22192,20.56634],[79.22181,20.56609],[79.22094,20.56416],[79.22005,20.56218],[79.21905,20.55994],[79.21771,20.55695],[79.21752,20.55353],[79.21741,20.5518],[79.21481,20.54699],[79.20969,20.54387],[79.20454,20.54073],[79.19627,20.5357],[79.19613,20.53559],[79.19227,20.53327],[79.19118,20.53175],[79.18959,20.52953],[79.18695,20.52584],[79.18653,20.52526],[79.18558,20.52285],[79.18422,20.51939],[79.18287,20.51593],[79.1803,20.5119],[79.17984,20.51118],[79.17674,20.51189],[79.17293,20.51277],[79.17217,20.51294],[79.17093,20.51098],[79.16773,20.5059],[79.16664,20.50055],[79.16587,20.49675],[79.16558,20.49533],[79.16551,20.49499],[79.1647,20.49098],[79.16458,20.49041],[79.16424,20.48863],[79.16418,20.48845],[79.16406,20.48785],[79.16388,20.48763],[79.1616,20.4849],[79.16122,20.48445],[79.16049,20.48356],[79.15991,20.48252],[79.15897,20.48081],[79.15768,20.47846],[79.15702,20.47727],[79.15288,20.4783],[79.14686,20.47978],[79.14553,20.47946],[79.14266,20.47878],[79.14078,20.47833],[79.13979,20.47809],[79.13866,20.47358],[79.13695,20.46674],[79.13563,20.46398],[79.13427,20.46114],[79.13262,20.45772],[79.13224,20.45691],[79.13121,20.45478],[79.13113,20.45461],[79.12939,20.4539],[79.12711,20.45296],[79.12147,20.45064],[79.11906,20.45063],[79.1141,20.45061],[79.1131,20.45084],[79.11291,20.45088],[79.11278,20.45091],[79.11246,20.45098],[79.11132,20.45124],[79.10272,20.45324],[79.09843,20.45546],[79.0978,20.45578],[79.09717,20.45881],[79.09687,20.4602],[79.0968,20.46054],[79.09155,20.4617],[79.09042,20.46195],[79.08799,20.46219],[79.08459,20.46252],[79.08255,20.4627],[79.07867,20.46307],[79.07733,20.4632],[79.07638,20.46344],[79.07175,20.46462],[79.07135,20.46472],[79.07117,20.46477],[79.07101,20.46481],[79.07002,20.46506],[79.06367,20.46667],[79.05836,20.46697],[79.05785,20.467],[79.0576,20.46689],[79.05623,20.46628],[79.05348,20.46506],[79.05234,20.46456],[79.05191,20.4648],[79.04925,20.46634],[79.04596,20.46716],[79.04718,20.47404],[79.04301,20.4747],[79.04053,20.4751],[79.03774,20.47606],[79.03727,20.47622],[79.03274,20.47779],[79.03062,20.47852],[79.02946,20.47862],[79.02858,20.47869],[79.0275,20.47879],[79.02536,20.47897],[79.02441,20.47906],[79.02051,20.47584],[79.01918,20.47475],[79.01748,20.47335],[79.01527,20.47011],[79.01218,20.46557],[79.00935,20.46063],[79.0093,20.46051],[79.00785,20.45794],[79.00763,20.45756],[79.00638,20.45536],[79.00627,20.45518],[79.00583,20.45441],[79.00535,20.45355],[79.00515,20.4532],[79.00439,20.45186],[79.00405,20.45127],[79.00392,20.45105],[79.00378,20.4508],[79.00368,20.45062],[79.00363,20.45052],[79.00232,20.44822],[79.00127,20.44859],[79.00037,20.44891],[78.99959,20.44886],[78.99952,20.44941],[78.99939,20.45038],[78.99875,20.45522],[78.99284,20.45668],[78.99196,20.45889],[78.99018,20.4634],[78.98986,20.46342],[78.98878,20.4635],[78.98916,20.46189],[78.98954,20.46031],[78.98806,20.46003],[78.98794,20.46001],[78.98541,20.45953],[78.98439,20.45694],[78.98015,20.45754],[78.97977,20.4576],[78.97515,20.45825],[78.97448,20.45835],[78.97392,20.45843],[78.9738,20.45845],[78.96901,20.45913],[78.96856,20.45447],[78.9695,20.45097],[78.96747,20.44551],[78.96417,20.43664],[78.96188,20.43453],[78.96127,20.43397],[78.95978,20.43323],[78.95685,20.43178],[78.95443,20.43058],[78.95147,20.42911],[78.95128,20.42902],[78.9495,20.42906],[78.94797,20.4291],[78.94568,20.42915],[78.9448,20.42917],[78.94188,20.42924],[78.94167,20.42925],[78.94149,20.42925],[78.93996,20.42929],[78.93966,20.42931],[78.93497,20.42962],[78.9326,20.42977],[78.93237,20.42979],[78.932,20.42981],[78.92864,20.43003],[78.92404,20.43033],[78.9222,20.43045],[78.92028,20.43058],[78.91843,20.43019],[78.91688,20.42986],[78.9128,20.43131],[78.90839,20.43287],[78.9067,20.43382],[78.89969,20.43777],[78.8992,20.4373],[78.8972,20.43534],[78.89275,20.43101],[78.89119,20.43016],[78.89099,20.43006],[78.88049,20.42437],[78.88028,20.42426],[78.87972,20.42395],[78.87967,20.42392],[78.87949,20.42388],[78.87372,20.42265],[78.87195,20.42227],[78.87062,20.42241],[78.86908,20.42258],[78.86713,20.42278],[78.86622,20.42288],[78.86431,20.42361],[78.85803,20.42599],[78.8573,20.42627],[78.85604,20.42701],[78.85283,20.42889],[78.85238,20.4293],[78.85028,20.43107],[78.84682,20.43402],[78.84582,20.43349],[78.84365,20.43236],[78.84227,20.43164],[78.84253,20.42907],[78.84294,20.42509],[78.84303,20.42486],[78.84406,20.42228],[78.84445,20.4219],[78.84899,20.41749],[78.85037,20.4165],[78.85713,20.41168],[78.85615,20.40951],[78.85408,20.40672],[78.84916,20.40445],[78.84776,20.40381],[78.84371,20.40194],[78.82697,20.40248],[78.82388,20.40051],[78.82141,20.39739],[78.81987,20.39342],[78.81949,20.3879],[78.81958,20.38768],[78.82024,20.38599],[78.82077,20.38464],[78.82089,20.38434],[78.82106,20.38392],[78.82249,20.38028],[78.82254,20.37563],[78.82254,20.37481],[78.82258,20.37091],[78.82674,20.36516],[78.8285,20.36273],[78.82831,20.36151],[78.82789,20.35886],[78.82785,20.35873],[78.82438,20.35426],[78.82433,20.35268],[78.8243,20.35166],[78.82424,20.34996],[78.8255,20.34668],[78.82812,20.34285],[78.83408,20.33416],[78.83411,20.33276],[78.83413,20.33159],[78.83414,20.33073],[78.83416,20.33001],[78.83418,20.32905],[78.83419,20.32864],[78.83399,20.32814],[78.83334,20.32653],[78.83292,20.32549],[78.83284,20.32529],[78.83273,20.32501],[78.83257,20.3241],[78.83245,20.3235],[78.83229,20.32304],[78.83187,20.32211],[78.83183,20.32183],[78.83176,20.32161],[78.83148,20.32108],[78.83104,20.3203],[78.8308,20.32],[78.83058,20.31984],[78.83012,20.31958],[78.82985,20.31946],[78.82929,20.31925],[78.82884,20.31903],[78.82843,20.31879],[78.82765,20.31822],[78.82714,20.31798],[78.82653,20.31771],[78.82539,20.31711],[78.82441,20.3167],[78.82361,20.31642],[78.82253,20.3161],[78.82104,20.31569],[78.81992,20.31539],[78.81978,20.31535],[78.81879,20.31512],[78.81857,20.31509],[78.81821,20.31507],[78.81741,20.31494],[78.81677,20.3148],[78.81661,20.31475],[78.8144,20.31385],[78.81343,20.31336],[78.81237,20.31287],[78.81107,20.31222],[78.80634,20.30756],[78.80472,20.30561],[78.80171,20.30201],[78.8015,20.30221],[78.80145,20.3015],[78.80149,20.30076],[78.80155,20.30043],[78.80171,20.29989],[78.80188,20.29948],[78.80218,20.2991],[78.80223,20.29878],[78.8023,20.29839],[78.80331,20.29398],[78.80366,20.29325],[78.80346,20.29286],[78.80443,20.29108],[78.80573,20.2891],[78.8062,20.28886],[78.80887,20.28606],[78.80912,20.2858],[78.8121,20.28267],[78.81299,20.28175],[78.81419,20.28048],[78.81685,20.2777],[78.81876,20.27569],[78.81892,20.27521],[78.82051,20.27053],[78.81991,20.26969],[78.8192,20.26896],[78.8192,20.26816],[78.81757,20.26653],[78.81721,20.26617],[78.81704,20.26606],[78.81699,20.26607],[78.81675,20.26613],[78.81646,20.26621],[78.8148,20.26469],[78.81328,20.2633],[78.81185,20.26036],[78.81301,20.25445],[78.81358,20.2536],[78.81359,20.25358],[78.81486,20.2517],[78.81579,20.25102],[78.81808,20.24935],[78.81875,20.24886],[78.82062,20.24749],[78.82512,20.24756],[78.82636,20.24758],[78.82754,20.2476],[78.82998,20.24806],[78.83412,20.24885],[78.83504,20.24925],[78.83566,20.24933],[78.83782,20.24978],[78.8384,20.24988],[78.83878,20.25001],[78.83931,20.25014],[78.84157,20.25058],[78.84651,20.25153],[78.84796,20.25171],[78.84828,20.25176],[78.84944,20.25199],[78.85063,20.25225],[78.85106,20.25207],[78.85552,20.25237],[78.85772,20.25252],[78.86113,20.25275],[78.87155,20.25159],[78.87373,20.25099],[78.87482,20.25066],[78.87646,20.25028],[78.879,20.24965],[78.87938,20.24962],[78.88076,20.24918],[78.88574,20.24796],[78.88764,20.24794],[78.88988,20.24792],[78.89048,20.248],[78.89227,20.24824],[78.89251,20.24827],[78.8933,20.24853],[78.89357,20.24857],[78.89379,20.24864],[78.89411,20.24865],[78.89548,20.24866],[78.89696,20.24918],[78.89893,20.24988],[78.90588,20.25365],[78.90678,20.25375],[78.90786,20.25386],[78.90999,20.25408],[78.91255,20.25435],[78.91265,20.25436],[78.91291,20.25435],[78.91522,20.25462],[78.916,20.2549],[78.91658,20.25477],[78.91667,20.25479],[78.9171,20.25491],[78.9173,20.25496],[78.91926,20.25505],[78.92176,20.25294],[78.9232,20.24985],[78.92242,20.24096],[78.92235,20.24084],[78.92235,20.24069],[78.92238,20.24046],[78.92216,20.23796],[78.92224,20.23778],[78.92412,20.23594],[78.92426,20.23581],[78.92439,20.23569],[78.92788,20.23246],[78.93061,20.22994],[78.93502,20.22829],[78.93548,20.22772],[78.93722,20.22554],[78.93736,20.22435],[78.93732,20.22338],[78.93743,20.22227],[78.93748,20.22219],[78.93764,20.22197],[78.93775,20.22181],[78.93794,20.22121],[78.93804,20.22105],[78.93837,20.22059],[78.93875,20.22017],[78.93991,20.21868],[78.94194,20.21617],[78.9443,20.21445],[78.94715,20.21238],[78.95232,20.21107],[78.96075,20.20742],[78.9608,20.20734],[78.96159,20.20598],[78.96307,20.20342],[78.96304,20.20314],[78.963,20.20265],[78.96199,20.19947],[78.95784,20.19324],[78.9575,20.18761],[78.95748,20.18732],[78.95747,20.18714],[78.95736,20.1853],[78.95824,20.18231],[78.95824,20.18111],[78.95824,20.18105],[78.95824,20.18092],[78.95822,20.17795],[78.9573,20.17241],[78.95626,20.17031],[78.95611,20.17001],[78.95557,20.16891],[78.95656,20.16793],[78.95705,20.16743],[78.95857,20.16592],[78.96401,20.16297],[78.96932,20.16142],[78.96982,20.16123],[78.97022,20.16108],[78.97061,20.16077],[78.97076,20.16065],[78.97643,20.15617],[78.97797,20.15496],[78.98028,20.15313],[78.98078,20.15196],[78.98187,20.14925],[78.98188,20.14771],[78.98188,20.1469],[78.98189,20.14555],[78.97865,20.14269],[78.97434,20.14165],[78.97087,20.13823],[78.96944,20.13414],[78.96986,20.13129],[78.97015,20.12936],[78.97021,20.12895],[78.97064,20.12605],[78.97077,20.1252],[78.97097,20.12378],[78.97459,20.12088],[78.97966,20.12093],[78.9805,20.12094],[78.98106,20.12116],[78.98375,20.12222],[78.98461,20.12232],[78.99058,20.12305],[78.99103,20.12311],[78.99455,20.1228],[78.9956,20.12271],[79.00029,20.12131],[79.00422,20.12108],[79.00455,20.12106],[79.00468,20.12098],[79.01072,20.11729],[79.01128,20.11689],[79.0124,20.11617],[79.01275,20.11605],[79.01713,20.11337],[79.01985,20.11055],[79.02216,20.10814],[79.02486,20.10532],[79.02503,20.10505],[79.02596,20.10397],[79.02691,20.10354],[79.02692,20.10353],[79.02703,20.10341],[79.02723,20.10311],[79.02792,20.1019],[79.02827,20.10171],[79.02865,20.10139],[79.02984,20.10015],[79.03128,20.09843],[79.03151,20.09841],[79.0356,20.09416],[79.04222,20.09014],[79.04292,20.08972],[79.0437,20.08924],[79.04507,20.08803],[79.04566,20.0877],[79.04603,20.08747],[79.04647,20.08709],[79.04671,20.08683],[79.04704,20.08628],[79.04878,20.08474],[79.0483,20.0818],[79.0477,20.07803],[79.0461,20.07492],[79.04507,20.07384],[79.04476,20.07336],[79.04468,20.07309],[79.04462,20.07274],[79.04467,20.07237],[79.04475,20.07176],[79.04903,20.06851],[79.04954,20.06839],[79.05122,20.06799],[79.05446,20.06723],[79.05536,20.06718],[79.0567,20.06743],[79.05973,20.068],[79.06175,20.06882],[79.06196,20.0689],[79.06479,20.07005],[79.06665,20.06838],[79.0668,20.06825],[79.07101,20.06449],[79.07152,20.06384],[79.07171,20.0636],[79.07191,20.06328],[79.07198,20.06281],[79.07196,20.06238],[79.07179,20.06151],[79.07261,20.05814],[79.07342,20.05466],[79.07637,20.04951],[79.07689,20.04861],[79.07701,20.0484],[79.07905,20.04487],[79.07957,20.04415],[79.07986,20.04388],[79.07988,20.0438],[79.08065,20.04083],[79.08062,20.04036],[79.08057,20.04],[79.0806,20.03967],[79.08079,20.03932],[79.08139,20.03765],[79.08142,20.03752],[79.08171,20.03637],[79.0837,20.02914],[79.08517,20.02759],[79.08818,20.02443],[79.09088,20.0216],[79.09664,20.01883],[79.0988,20.01779],[79.10355,20.01616],[79.10498,20.01567],[79.10713,20.01193],[79.10778,20.01119],[79.10822,20.01038],[79.10914,20.00854],[79.10916,20.00835],[79.10962,20.00644],[79.11009,20.00271],[79.11032,20.00152],[79.11048,20.00103],[79.11253,19.99699],[79.11338,19.99505],[79.11356,19.99457],[79.11365,19.99406],[79.11406,19.99326],[79.11565,19.98905],[79.11397,19.98645],[79.11063,19.98674],[79.10932,19.98686],[79.10844,19.98694],[79.10795,19.98682],[79.10643,19.98644],[79.10394,19.98582],[79.10203,19.98535],[79.09685,19.98269],[79.0955,19.982],[79.09416,19.97774],[79.0966,19.97549],[79.09821,19.97401],[79.10699,19.96847],[79.10756,19.96811],[79.10893,19.96724],[79.10942,19.96693],[79.11025,19.96641],[79.11024,19.96496],[79.10917,19.96118],[79.10869,19.9595],[79.10586,19.95464],[79.1053,19.95424],[79.10215,19.952],[79.10015,19.95058],[79.09777,19.9489],[79.09764,19.94881],[79.09726,19.94853],[79.09628,19.94784],[79.09617,19.94776],[79.09404,19.94625],[79.09252,19.94061],[79.0925,19.94029],[79.09198,19.93323],[79.09252,19.92742],[79.09283,19.92413],[79.09291,19.92328],[79.09313,19.92089],[79.09316,19.92058],[79.09318,19.92036],[79.09459,19.91704],[79.09465,19.91689],[79.09533,19.91528],[79.09554,19.91522],[79.09596,19.91509],[79.10275,19.91359],[79.10358,19.91319],[79.10481,19.91259],[79.10568,19.91216],[79.10593,19.91204],[79.10956,19.91028],[79.11033,19.90927],[79.11271,19.90617],[79.11329,19.90541],[79.11407,19.90439],[79.11466,19.90421],[79.11495,19.90412],[79.11545,19.90396],[79.12024,19.90265],[79.1228,19.90193],[79.1252,19.90125],[79.12767,19.90044],[79.12851,19.90017],[79.13096,19.89947],[79.13192,19.89913],[79.13211,19.89911],[79.13288,19.89908],[79.13305,19.89906],[79.13557,19.89842],[79.13797,19.8979],[79.13871,19.89743],[79.14076,19.89685],[79.14523,19.8956],[79.1472,19.89504],[79.14753,19.89495],[79.15082,19.89402],[79.1521,19.89366],[79.15195,19.89325],[79.14989,19.88746],[79.14722,19.88378],[79.14707,19.88358],[79.14665,19.88301],[79.14465,19.88025],[79.14238,19.87716],[79.13845,19.87172],[79.13836,19.87149],[79.13805,19.87069],[79.1363,19.86617],[79.13303,19.86363],[79.12556,19.86202],[79.12545,19.86195],[79.12116,19.85905],[79.11362,19.85082],[79.11297,19.84976],[79.11292,19.84968],[79.1128,19.84954],[79.11244,19.84932],[79.11201,19.84904],[79.11022,19.8471],[79.10348,19.84287],[79.10026,19.84223],[79.09924,19.84203],[79.09856,19.8419],[79.09451,19.8411],[79.09435,19.84093],[79.09151,19.83794],[79.09106,19.83685],[79.09111,19.83672],[79.09108,19.8358],[79.09101,19.83569],[79.09011,19.83474],[79.09002,19.83468],[79.08996,19.83458],[79.0895,19.83392],[79.08881,19.83245],[79.08873,19.8323],[79.08802,19.83151],[79.08773,19.83129],[79.08753,19.83111],[79.08731,19.83078],[79.08604,19.82881],[79.08519,19.8276],[79.08468,19.82711],[79.08143,19.82462],[79.08127,19.82444],[79.08053,19.82362],[79.08034,19.82346],[79.07803,19.82162],[79.07331,19.81877],[79.07042,19.81741],[79.06687,19.81575],[79.06541,19.81571],[79.06502,19.81575],[79.065,19.81533],[79.05936,19.81509],[79.05905,19.81511],[79.05182,19.81569],[79.04333,19.81777],[79.0387,19.8142],[79.03765,19.81184],[79.0355,19.80701],[79.02976,19.80197],[79.02879,19.80172],[79.02819,19.80157],[79.02091,19.79971],[79.01402,19.80322],[79.01388,19.80335],[79.01164,19.80451],[79.01093,19.8045],[79.0096,19.80448],[79.00759,19.80459],[79.00139,19.80472],[78.99929,19.80508],[78.99778,19.80534],[78.99065,19.80432],[78.99048,19.80429],[78.98917,19.80435],[78.98684,19.80437],[78.98456,19.80454],[78.97859,19.80478],[78.97826,19.80479],[78.97774,19.80481],[78.97652,19.80486],[78.97524,19.80483],[78.97219,19.80495],[78.96893,19.80467],[78.96275,19.80419],[78.96036,19.804],[78.95844,19.80377],[78.95688,19.80249],[78.95106,19.79772],[78.95067,19.79741],[78.95058,19.79728],[78.95027,19.79677],[78.94544,19.78914],[78.94436,19.78799],[78.94361,19.78718],[78.94335,19.78652],[78.94326,19.78619],[78.94252,19.78541],[78.94231,19.78518],[78.94091,19.77891],[78.94131,19.77618],[78.94155,19.77455],[78.94159,19.77429],[78.9419,19.77222],[78.94453,19.76869],[78.94534,19.76766],[78.94594,19.76679],[78.94762,19.76454],[78.9482,19.76377],[78.95059,19.75935],[78.95186,19.75519],[78.95214,19.75426],[78.95215,19.75422],[78.95209,19.75361],[78.94936,19.74924],[78.94152,19.7474],[78.93982,19.74734],[78.93893,19.74731],[78.93849,19.7473],[78.93206,19.74708],[78.93144,19.74696],[78.92472,19.7456],[78.9241,19.74547],[78.92039,19.7442],[78.91946,19.74388],[78.91918,19.74379],[78.9176,19.74325],[78.91733,19.74312],[78.91608,19.74252],[78.90814,19.73875],[78.90337,19.7377],[78.90236,19.73821],[78.9018,19.73849],[78.90078,19.73899],[78.90056,19.7391],[78.89275,19.74298],[78.89121,19.74374],[78.89049,19.7441],[78.88753,19.74517],[78.8835,19.74663],[78.88294,19.74769],[78.88279,19.74798],[78.88035,19.75259],[78.88088,19.75478],[78.88142,19.75698],[78.88124,19.75744],[78.88177,19.75941],[78.88168,19.76025],[78.88148,19.76187],[78.88124,19.76384],[78.87964,19.76509],[78.8791,19.76573],[78.87867,19.76604],[78.87826,19.76632],[78.8775,19.76674],[78.87551,19.76828],[78.87154,19.76923],[78.87091,19.7693],[78.87059,19.76936],[78.86987,19.76963],[78.8672,19.77027],[78.85935,19.77077],[78.85896,19.77049],[78.85781,19.76965],[78.85412,19.76697],[78.85363,19.7662],[78.85289,19.76502],[78.85238,19.76421],[78.85193,19.76349],[78.85019,19.76073],[78.85149,19.76008],[78.85458,19.75218],[78.85524,19.7505],[78.85577,19.74915],[78.85686,19.74638],[78.85785,19.74385],[78.85886,19.74126],[78.85945,19.73977],[78.8628,19.73309],[78.86284,19.73221],[78.86305,19.72714],[78.8631,19.72587],[78.86311,19.72559],[78.86329,19.72154],[78.86449,19.71765],[78.86528,19.71508],[78.86671,19.71045],[78.86755,19.70773],[78.86937,19.69861],[78.86955,19.6952],[78.86989,19.68855],[78.86987,19.68836],[78.86911,19.68136],[78.86732,19.67673],[78.86616,19.67373],[78.86502,19.67079],[78.86492,19.66699],[78.86491,19.66647],[78.8649,19.66594],[78.86486,19.6646],[78.86479,19.66185],[78.8647,19.6582],[78.8715,19.65839],[78.87573,19.6585],[78.87619,19.65851],[78.87877,19.65858],[78.87916,19.65859],[78.88286,19.65869],[78.88388,19.65872],[78.88632,19.65843],[78.8864,19.65842],[78.89061,19.65793],[78.89692,19.6572],[78.90194,19.66084],[78.90666,19.66426],[78.90898,19.66594],[78.90974,19.66649],[78.91173,19.66701],[78.91454,19.66775],[78.92143,19.66955],[78.92188,19.66967],[78.93061,19.66715],[78.93779,19.66507],[78.93866,19.66482],[78.94098,19.66415],[78.94953,19.6671],[78.94959,19.66712],[78.94966,19.66711],[78.95833,19.6657],[78.96021,19.6654],[78.96088,19.66499],[78.966,19.66182],[78.96769,19.66077],[78.9714,19.65593],[78.97312,19.65369],[78.97358,19.65309],[78.97499,19.65125],[78.97484,19.64968],[78.97474,19.64867],[78.97463,19.64756],[78.97447,19.64594],[78.97427,19.64386],[78.97414,19.6425],[78.97404,19.64141],[78.9708,19.63189],[78.97071,19.6316],[78.9701,19.62748],[78.96985,19.62581],[78.96962,19.62423],[78.9689,19.61939],[78.97011,19.61382],[78.97166,19.6066],[78.97619,19.60089],[78.97738,19.59937],[78.98317,19.59371],[78.98436,19.59254],[78.98658,19.58722],[78.98391,19.58208],[78.9789,19.57842],[78.97838,19.57805],[78.97786,19.57766],[78.9776,19.57747],[78.97503,19.5756],[78.97074,19.57243],[78.96999,19.57187],[78.96049,19.56486],[78.95559,19.55962],[78.95785,19.55708],[78.958,19.55692],[78.95897,19.55582],[78.9606,19.55399],[78.9709,19.5525],[78.97871,19.55212],[78.9796,19.55208],[78.98455,19.55311],[78.98604,19.55427],[78.98708,19.55508],[78.99057,19.55779],[78.99214,19.559],[78.99305,19.5597],[78.99834,19.56378],[78.99893,19.56423],[79.00034,19.56371],[79.00616,19.56157],[79.00682,19.56073],[79.00863,19.55841],[79.00989,19.55679],[79.01115,19.55518],[79.01161,19.55459],[79.01272,19.55316],[79.0183,19.546],[79.02129,19.54417],[79.02447,19.54221],[79.04496,19.54726],[79.0518,19.54742],[79.05441,19.54747],[79.05768,19.54755],[79.05953,19.54615],[79.06627,19.54102],[79.06956,19.53356],[79.06983,19.53349],[79.07396,19.53245],[79.07893,19.5312],[79.08004,19.53092],[79.10284,19.53283],[79.10396,19.53238],[79.10699,19.53115],[79.10908,19.53031],[79.10907,19.53007],[79.1089,19.52723],[79.10858,19.52174],[79.11098,19.51513],[79.11578,19.51338],[79.11905,19.51219],[79.13237,19.50899],[79.13271,19.5089],[79.13361,19.50856],[79.13632,19.50751],[79.14653,19.50356],[79.14812,19.50208],[79.15275,19.4978],[79.15319,19.49739],[79.15647,19.49435],[79.15991,19.49116],[79.16327,19.48804],[79.16459,19.48611],[79.16856,19.48031],[79.16951,19.47893],[79.17057,19.47737],[79.17067,19.47724],[79.17259,19.47442],[79.17499,19.47091],[79.17541,19.4703],[79.17686,19.46913],[79.17711,19.46893],[79.1783,19.46796],[79.18097,19.4658],[79.18305,19.46411],[79.18412,19.46324],[79.1935,19.4616],[79.19538,19.46127],[79.19922,19.46202],[79.21337,19.4648],[79.21491,19.4651],[79.21677,19.46546],[79.22509,19.4671],[79.22905,19.47019],[79.22931,19.47039],[79.22705,19.47816],[79.22317,19.48115],[79.21513,19.48735],[79.21321,19.49421],[79.21374,19.49725],[79.21385,19.49786],[79.21427,19.50029],[79.21443,19.50118],[79.21665,19.50464],[79.22207,19.5131],[79.22315,19.514],[79.22979,19.51952],[79.23836,19.52325],[79.243,19.52931],[79.24473,19.53527],[79.24511,19.53888],[79.24528,19.54044],[79.24532,19.5408],[79.24539,19.54145],[79.24549,19.54242],[79.24572,19.54454],[79.24507,19.54941],[79.24506,19.5495],[79.24479,19.55147],[79.24521,19.55373],[79.24546,19.55508],[79.2459,19.55747],[79.2472,19.55964],[79.24837,19.56113],[79.24887,19.56206],[79.24792,19.56202],[79.24618,19.56203],[79.2537,19.57526],[79.25557,19.57854],[79.25581,19.57896],[79.25647,19.58013],[79.25557,19.5859],[79.25504,19.58929],[79.25235,19.59285],[79.25015,19.59575],[79.24406,19.60194],[79.24346,19.61172],[79.24345,19.61187],[79.24467,19.61249],[79.2451,19.61262],[79.25023,19.61493],[79.26159,19.6136],[79.26748,19.6115],[79.26926,19.61087],[79.27317,19.60947],[79.27425,19.60909],[79.28051,19.60664],[79.29964,19.59919],[79.31126,19.59264],[79.31425,19.58757],[79.31606,19.58452],[79.31971,19.57158],[79.32012,19.57014],[79.3207,19.56806],[79.32313,19.57015],[79.32449,19.57132],[79.32794,19.57428],[79.33613,19.57622],[79.33745,19.57623],[79.33872,19.57624],[79.3397,19.57625],[79.34168,19.57627],[79.3452,19.5763],[79.34605,19.57631],[79.34735,19.57632],[79.34784,19.57628],[79.34868,19.5762],[79.35439,19.5757],[79.36238,19.57499],[79.37114,19.57421],[79.37314,19.57403],[79.37553,19.57382],[79.37561,19.57356],[79.37572,19.57303],[79.37606,19.57145],[79.37674,19.56839],[79.37715,19.56656],[79.37769,19.56416],[79.37898,19.56339],[79.38723,19.55848],[79.38753,19.55823],[79.39521,19.55181],[79.3955,19.55157],[79.39983,19.54853],[79.40528,19.54469],[79.40838,19.5425],[79.42016,19.53618],[79.42975,19.53555],[79.43685,19.53782],[79.43877,19.53758],[79.43916,19.53749],[79.44473,19.53669],[79.44785,19.53624],[79.45318,19.53168],[79.45524,19.52991],[79.45543,19.52975],[79.46479,19.52173],[79.46861,19.51628],[79.47174,19.51181],[79.47458,19.50565],[79.47484,19.50508],[79.47504,19.50465],[79.47705,19.50027],[79.47855,19.50126],[79.48253,19.5039],[79.4843,19.50506],[79.48668,19.50664],[79.49223,19.50722],[79.49996,19.50803],[79.5114,19.51536],[79.5128,19.51626],[79.513,19.51638],[79.51907,19.52027],[79.52007,19.52091],[79.52035,19.52141],[79.5209,19.52237],[79.52096,19.52249],[79.5225,19.5252],[79.52257,19.53381],[79.52259,19.53655],[79.52262,19.53935],[79.52262,19.53963],[79.52164,19.54301],[79.52149,19.5436],[79.52159,19.54437],[79.52164,19.54475],[79.52251,19.54507],[79.52388,19.54558],[79.53289,19.54887],[79.53528,19.54942],[79.54167,19.55089],[79.5439,19.55103],[79.54406,19.55104],[79.5441,19.55104],[79.54625,19.55117],[79.54663,19.55119],[79.54747,19.55124],[79.54935,19.55135],[79.54956,19.55077],[79.55079,19.54735],[79.55136,19.54575],[79.55143,19.54555],[79.55153,19.54367],[79.55156,19.54304],[79.55164,19.54151],[79.55189,19.53686],[79.55364,19.53132],[79.55439,19.52895],[79.55642,19.5264],[79.55859,19.52369],[79.5592,19.52293],[79.55957,19.52268],[79.56349,19.51995],[79.56446,19.51927],[79.56974,19.51561],[79.57232,19.51382],[79.57584,19.51191],[79.57962,19.50952],[79.58004,19.50929],[79.58236,19.50839],[79.58367,19.50788],[79.58813,19.50643],[79.58895,19.50617],[79.5894,19.50599],[79.59808,19.50469],[79.59879,19.50491],[79.60089,19.50554],[79.6048,19.50673],[79.60689,19.50986],[79.6076,19.51091],[79.60919,19.51748],[79.60969,19.52401],[79.61245,19.53591],[79.61323,19.53929],[79.61395,19.54238],[79.61765,19.55208],[79.61785,19.55247],[79.61869,19.55408],[79.62082,19.55819],[79.62256,19.56152],[79.62574,19.56522],[79.62814,19.568],[79.63112,19.56961],[79.63167,19.56991],[79.63688,19.57272],[79.63982,19.5743],[79.64061,19.57473],[79.64122,19.57506],[79.64648,19.5779],[79.64912,19.57825],[79.65939,19.5796],[79.66348,19.57976],[79.67184,19.58009],[79.67228,19.58007],[79.68121,19.57966],[79.68481,19.5795],[79.68905,19.58113],[79.69158,19.5821],[79.69563,19.58283],[79.69643,19.58297],[79.69906,19.58344],[79.7025,19.58405],[79.70314,19.58406],[79.71193,19.58418],[79.71324,19.58455],[79.71925,19.58624],[79.71975,19.5863],[79.72801,19.59274],[79.73512,19.59828],[79.73516,19.59831],[79.73674,19.59954],[79.73977,19.60145],[79.74717,19.60611],[79.74996,19.60595],[79.7552,19.60565],[79.75795,19.60549],[79.75919,19.60542],[79.76111,19.60531],[79.7707,19.6036],[79.77315,19.60316],[79.7736,19.60306],[79.77442,19.60288],[79.77515,19.60272],[79.777,19.60232],[79.78441,19.6007],[79.78658,19.59958],[79.79209,19.59674],[79.79231,19.59663]]]}}]}