{"type":"FeatureCollection","features":[{"type":"Feature","properties":{"shapeName":"Nagpur","shapeISO":"","shapeID":"76128533B3026318797185","shapeGroup":"IND","shapeType":"ADM2"},"geometry":{"type":"Polygon","coordinates":[[[78.43546,21.50065],[78.43526,21.50048],[78.43495,21.50022],[78.43351,21.49899],[78.43331,21.49882],[78.43263,21.49823],[78.43264,21.4981],[78.43286,21.49532],[78.43303,21.49319],[78.43323,21.493],[78.43334,21.49281],[78.43344,21.49253],[78.43354,21.49223],[78.43359,21.49194],[78.43358,21.49155],[78.43351,21.49128],[78.43338,21.49105],[78.43317,21.49083],[78.43336,21.48887],[78.43315,21.4881],[78.43092,21.4802],[78.43226,21.47624],[78.43293,21.47573],[78.4363,21.47315],[78.43677,21.47247],[78.4369,21.47228],[78.43845,21.47005],[78.43846,21.47001],[78.43851,21.46968],[78.43927,21.46454],[78.43933,21.46416],[78.43949,21.46306],[78.4397,21.46268],[78.43974,21.46257],[78.43972,21.46238],[78.43963,21.46209],[78.43975,21.46129],[78.4398,21.46101],[78.44008,21.45999],[78.44027,21.45931],[78.44078,21.45744],[78.44183,21.45368],[78.44189,21.45326],[78.44204,21.4528],[78.44209,21.45265],[78.4431,21.44903],[78.44452,21.44673],[78.44475,21.44635],[78.445,21.44594],[78.4443,21.44517],[78.44428,21.44515],[78.44368,21.44449],[78.443,21.44374],[78.44276,21.44323],[78.44246,21.44276],[78.44222,21.44261],[78.44192,21.44252],[78.44174,21.44014],[78.44284,21.43696],[78.44343,21.43524],[78.44444,21.43228],[78.44448,21.4252],[78.44449,21.42246],[78.4451,21.42189],[78.44737,21.41978],[78.45129,21.41614],[78.4516,21.41586],[78.45196,21.41238],[78.45203,21.41166],[78.45166,21.41021],[78.45113,21.40809],[78.45098,21.40748],[78.44921,21.40506],[78.44854,21.40457],[78.44828,21.40438],[78.44755,21.40385],[78.44721,21.4036],[78.44676,21.40328],[78.44437,21.40293],[78.44396,21.4028],[78.44388,21.4028],[78.44371,21.40277],[78.44355,21.40268],[78.44341,21.4025],[78.44328,21.40234],[78.44318,21.4023],[78.44292,21.40265],[78.439,21.40201],[78.43805,21.40184],[78.43744,21.40159],[78.43684,21.4014],[78.43631,21.40118],[78.43581,21.40105],[78.43509,21.40091],[78.43463,21.40086],[78.43433,21.40086],[78.42942,21.3985],[78.42613,21.39784],[78.4254,21.3977],[78.42479,21.39758],[78.42412,21.39744],[78.42365,21.39728],[78.42306,21.39675],[78.42189,21.39579],[78.42203,21.39517],[78.42228,21.39415],[78.42249,21.3933],[78.42293,21.39149],[78.42179,21.3907],[78.41993,21.38943],[78.41984,21.38939],[78.41966,21.3893],[78.41954,21.38921],[78.41941,21.3891],[78.41933,21.38902],[78.41864,21.38855],[78.41824,21.38847],[78.4165,21.38827],[78.41641,21.38826],[78.4145,21.38801],[78.41401,21.38795],[78.41382,21.38794],[78.41329,21.38786],[78.41322,21.38785],[78.41182,21.38767],[78.41147,21.38762],[78.41135,21.38735],[78.41134,21.38732],[78.41115,21.38688],[78.41114,21.38685],[78.41045,21.38531],[78.40995,21.38418],[78.40872,21.384],[78.40868,21.38399],[78.40829,21.38393],[78.40756,21.38383],[78.40645,21.38366],[78.40347,21.38396],[78.40183,21.38412],[78.39901,21.38504],[78.39852,21.38515],[78.39744,21.3861],[78.39687,21.38661],[78.3948,21.38843],[78.39351,21.38956],[78.39286,21.39013],[78.39128,21.39018],[78.39097,21.39019],[78.3904,21.39021],[78.38963,21.39024],[78.38961,21.39024],[78.38573,21.38762],[78.38552,21.38747],[78.38459,21.38685],[78.38364,21.38724],[78.38273,21.38763],[78.3824,21.38777],[78.38227,21.38782],[78.37988,21.39173],[78.37694,21.39454],[78.37482,21.39494],[78.37443,21.39502],[78.37431,21.39504],[78.37402,21.39489],[78.37378,21.39477],[78.37154,21.39361],[78.37082,21.39324],[78.37051,21.39308],[78.36776,21.39165],[78.36776,21.39161],[78.3676,21.3869],[78.36751,21.38407],[78.36445,21.38295],[78.36434,21.38291],[78.36387,21.38274],[78.36217,21.38211],[78.36206,21.38207],[78.35888,21.3809],[78.35604,21.38056],[78.35533,21.38049],[78.35492,21.38057],[78.354,21.38076],[78.35317,21.38092],[78.35128,21.3813],[78.35003,21.38355],[78.34902,21.38536],[78.34659,21.38084],[78.34619,21.38006],[78.34461,21.37715],[78.34288,21.37581],[78.33929,21.37307],[78.33359,21.37162],[78.33077,21.36903],[78.32893,21.36811],[78.32876,21.368],[78.32859,21.36788],[78.32686,21.36696],[78.3252,21.36689],[78.32233,21.36678],[78.3181,21.36448],[78.3157,21.36261],[78.31468,21.36182],[78.31381,21.36115],[78.31131,21.35747],[78.30614,21.35596],[78.30535,21.35573],[78.30386,21.3553],[78.3038,21.35531],[78.30365,21.3553],[78.30344,21.35531],[78.30325,21.3553],[78.3031,21.35527],[78.30299,21.35524],[78.3029,21.35519],[78.30285,21.35515],[78.30287,21.35501],[78.30261,21.35493],[78.30246,21.35489],[78.30178,21.35469],[78.3013,21.35455],[78.30118,21.35451],[78.30081,21.35441],[78.30047,21.35431],[78.2923,21.35193],[78.29007,21.35128],[78.28845,21.3508],[78.28815,21.35072],[78.28724,21.35045],[78.28713,21.35042],[78.28679,21.35045],[78.28424,21.3507],[78.28365,21.35082],[78.28308,21.35094],[78.28176,21.35087],[78.27654,21.35132],[78.27385,21.34764],[78.27371,21.34744],[78.27358,21.34727],[78.27297,21.34644],[78.27115,21.34396],[78.26811,21.34288],[78.26691,21.34246],[78.26596,21.34213],[78.26381,21.34137],[78.26213,21.34078],[78.25971,21.33993],[78.2528,21.33749],[78.25221,21.33242],[78.25182,21.32911],[78.25481,21.32685],[78.25654,21.32555],[78.2584,21.32868],[78.25843,21.32872],[78.25979,21.32938],[78.25995,21.32946],[78.26052,21.32973],[78.26084,21.32985],[78.26328,21.328],[78.26354,21.3278],[78.26415,21.32733],[78.26445,21.3271],[78.26922,21.32263],[78.2702,21.32172],[78.27138,21.32061],[78.27179,21.32023],[78.2719,21.32013],[78.2728,21.31778],[78.27353,21.31588],[78.27357,21.31564],[78.27803,21.31072],[78.27836,21.31043],[78.28501,21.30447],[78.28634,21.30415],[78.2907,21.3031],[78.29078,21.30298],[78.29183,21.30124],[78.29299,21.29932],[78.29554,21.29513],[78.29854,21.29353],[78.30201,21.29357],[78.30429,21.2936],[78.30629,21.29413],[78.30864,21.29476],[78.30896,21.29473],[78.30912,21.29471],[78.31099,21.29455],[78.31182,21.29446],[78.31259,21.2937],[78.31396,21.29234],[78.31335,21.28913],[78.30979,21.28187],[78.30957,21.28142],[78.30791,21.27804],[78.30794,21.27734],[78.30803,21.27431],[78.3103,21.27053],[78.31415,21.26944],[78.31495,21.26921],[78.32083,21.27119],[78.32332,21.27203],[78.32415,21.27195],[78.32676,21.27169],[78.3278,21.27009],[78.32802,21.26704],[78.32811,21.26572],[78.32713,21.26125],[78.32776,21.25692],[78.3278,21.25671],[78.32861,21.25567],[78.32945,21.2546],[78.32989,21.25404],[78.33068,21.25304],[78.33349,21.25109],[78.33699,21.25115],[78.3373,21.25115],[78.33837,21.25117],[78.34475,21.25127],[78.35337,21.2514],[78.35635,21.24944],[78.35667,21.24922],[78.3571,21.24894],[78.35756,21.24895],[78.36101,21.24871],[78.36745,21.24592],[78.36865,21.24539],[78.37233,21.24379],[78.37583,21.24312],[78.37935,21.24245],[78.38255,21.24184],[78.39335,21.23979],[78.39489,21.2395],[78.39515,21.23945],[78.40108,21.23831],[78.40169,21.2382],[78.40511,21.2381],[78.40527,21.2381],[78.40689,21.23805],[78.40757,21.23803],[78.40878,21.2375],[78.41106,21.23648],[78.41209,21.23509],[78.41497,21.23122],[78.416,21.22983],[78.41613,21.22965],[78.41664,21.22947],[78.41992,21.22828],[78.42463,21.22805],[78.4259,21.22826],[78.42658,21.22837],[78.42863,21.2287],[78.42879,21.22873],[78.42964,21.22886],[78.42989,21.22898],[78.43143,21.22971],[78.43463,21.23122],[78.43689,21.23229],[78.43951,21.23353],[78.44303,21.2352],[78.44495,21.23492],[78.44613,21.23476],[78.44676,21.23467],[78.44707,21.23462],[78.44907,21.23289],[78.45351,21.22903],[78.45377,21.2288],[78.45618,21.22671],[78.46211,21.22463],[78.46536,21.22349],[78.47018,21.21896],[78.47318,21.2173],[78.47869,21.22006],[78.48013,21.21644],[78.48033,21.21593],[78.48256,21.21293],[78.48302,21.21231],[78.48827,21.20782],[78.48928,21.20695],[78.4895,21.20677],[78.48964,21.20665],[78.48974,21.20656],[78.48975,21.20656],[78.49001,21.20633],[78.49022,21.20615],[78.49215,21.2045],[78.49328,21.20353],[78.49566,21.19951],[78.49803,21.19733],[78.49914,21.1963],[78.50188,21.19435],[78.5066,21.19098],[78.50694,21.19074],[78.50752,21.19033],[78.50757,21.19023],[78.50789,21.18958],[78.50917,21.18697],[78.50941,21.18648],[78.50963,21.18602],[78.50965,21.18599],[78.50978,21.18574],[78.5113,21.18405],[78.51528,21.17967],[78.51538,21.17956],[78.51899,21.17557],[78.52077,21.17264],[78.52082,21.17256],[78.52093,21.17238],[78.52138,21.17162],[78.52204,21.17053],[78.52206,21.16928],[78.52216,21.16231],[78.52624,21.15342],[78.53036,21.14918],[78.53083,21.14876],[78.53171,21.14797],[78.53168,21.14783],[78.53517,21.14426],[78.53532,21.14409],[78.53811,21.14119],[78.53821,21.14108],[78.53893,21.14038],[78.54226,21.13594],[78.54515,21.1321],[78.55545,21.11839],[78.55919,21.11529],[78.56441,21.11534],[78.57518,21.11543],[78.58587,21.11552],[78.58868,21.1153],[78.59021,21.11518],[78.59331,21.11266],[78.59335,21.11262],[78.59387,21.11212],[78.59536,21.11067],[78.59595,21.1101],[78.59696,21.10911],[78.59769,21.10151],[78.59707,21.0987],[78.59874,21.09701],[78.5995,21.09625],[78.59958,21.09617],[78.59933,21.09307],[78.59926,21.09218],[78.59914,21.09066],[78.60096,21.09009],[78.6017,21.08985],[78.60261,21.08957],[78.60342,21.08952],[78.60742,21.08928],[78.60822,21.08923],[78.61117,21.08905],[78.61092,21.08244],[78.61052,21.08101],[78.60954,21.07742],[78.60939,21.07689],[78.60742,21.06975],[78.61173,21.06969],[78.61257,21.06967],[78.61493,21.06964],[78.61505,21.06908],[78.61597,21.06481],[78.62013,21.06711],[78.62158,21.06791],[78.62425,21.06765],[78.62568,21.0675],[78.62645,21.06698],[78.62856,21.06555],[78.63212,21.06024],[78.63221,21.0601],[78.63346,21.05949],[78.6349,21.05878],[78.63986,21.05901],[78.641,21.05931],[78.64371,21.06004],[78.64559,21.05779],[78.64668,21.05647],[78.64699,21.05611],[78.64856,21.05422],[78.65159,21.052],[78.65169,21.05044],[78.65186,21.04768],[78.65212,21.04356],[78.65249,21.03753],[78.65253,21.03678],[78.65256,21.03643],[78.65787,21.035],[78.65898,21.03498],[78.66321,21.03488],[78.66551,21.03483],[78.67119,21.0347],[78.67951,21.0325],[78.68633,21.0307],[78.68664,21.03061],[78.68907,21.02997],[78.69178,21.02768],[78.69375,21.02601],[78.69441,21.02544],[78.69538,21.02173],[78.6956,21.02087],[78.69565,21.02068],[78.70186,21.01809],[78.70832,21.01722],[78.71373,21.01525],[78.71452,21.01379],[78.71599,21.01109],[78.71674,21.00969],[78.72132,21.00884],[78.72172,21.00877],[78.72483,21.0082],[78.72649,21.00573],[78.73143,21.00515],[78.73149,21.00415],[78.73167,21.00107],[78.73159,20.99906],[78.73147,20.99581],[78.72971,20.99327],[78.72666,20.98888],[78.7267,20.9873],[78.72672,20.9868],[78.72673,20.98651],[78.72673,20.98641],[78.72682,20.98327],[78.72691,20.98007],[78.72713,20.97238],[78.72741,20.96924],[78.73008,20.96559],[78.73243,20.96238],[78.73559,20.94751],[78.73743,20.94518],[78.73904,20.94453],[78.7405,20.94394],[78.74081,20.94397],[78.74269,20.94418],[78.7466,20.94461],[78.74771,20.94433],[78.74991,20.94377],[78.74888,20.9429],[78.74623,20.94064],[78.74575,20.94023],[78.74495,20.93955],[78.74482,20.93944],[78.74492,20.93922],[78.74608,20.93674],[78.74645,20.93594],[78.7487,20.93332],[78.75011,20.93168],[78.75025,20.93152],[78.7511,20.93053],[78.75177,20.92976],[78.75261,20.92876],[78.75788,20.92264],[78.75848,20.92212],[78.75892,20.92168],[78.76127,20.91973],[78.76638,20.92148],[78.77175,20.91233],[78.77188,20.9121],[78.77421,20.90815],[78.77425,20.9076],[78.77449,20.90396],[78.77342,20.90171],[78.77051,20.89945],[78.77341,20.8968],[78.77519,20.89517],[78.77869,20.89198],[78.77895,20.89174],[78.78542,20.89112],[78.78765,20.8909],[78.78837,20.89083],[78.79192,20.88896],[78.79236,20.88873],[78.79668,20.88404],[78.79944,20.88188],[78.79981,20.88159],[78.80529,20.87726],[78.81018,20.87666],[78.81348,20.87685],[78.81695,20.87804],[78.81797,20.87839],[78.81949,20.87891],[78.82019,20.87915],[78.82096,20.87942],[78.82458,20.88544],[78.82691,20.88933],[78.82903,20.89165],[78.83261,20.89362],[78.83361,20.89376],[78.83688,20.89422],[78.84098,20.89215],[78.84109,20.89209],[78.84294,20.89115],[78.84262,20.89085],[78.84029,20.88872],[78.84017,20.88595],[78.84015,20.88539],[78.84004,20.88292],[78.84158,20.88098],[78.84501,20.87846],[78.84928,20.87533],[78.8512,20.87511],[78.85181,20.87503],[78.85343,20.87484],[78.8558,20.87523],[78.85934,20.8758],[78.86028,20.8754],[78.8616,20.87483],[78.86265,20.87438],[78.86517,20.87187],[78.86447,20.87068],[78.86355,20.86901],[78.86326,20.86848],[78.86321,20.86839],[78.86287,20.86687],[78.86169,20.86155],[78.86285,20.85378],[78.86318,20.85156],[78.8645,20.84273],[78.86586,20.84136],[78.86667,20.84055],[78.86775,20.83947],[78.8693,20.83792],[78.87132,20.83382],[78.87347,20.82944],[78.874,20.82888],[78.87551,20.82727],[78.87752,20.82837],[78.88418,20.83203],[78.88611,20.83566],[78.88618,20.83877],[78.88624,20.84151],[78.88642,20.84157],[78.88891,20.84233],[78.89454,20.84114],[78.90004,20.83998],[78.90102,20.83977],[78.90634,20.8392],[78.90897,20.83889],[78.91609,20.8358],[78.91624,20.83574],[78.91641,20.83573],[78.9156,20.82241],[78.91549,20.82057],[78.91538,20.81882],[78.91952,20.81793],[78.92004,20.81482],[78.92024,20.81364],[78.92004,20.81354],[78.91751,20.81219],[78.9173,20.81149],[78.917,20.81046],[78.91672,20.80953],[78.91658,20.80904],[78.91596,20.80696],[78.9194,20.80624],[78.92159,20.80579],[78.92614,20.80209],[78.92801,20.79881],[78.92849,20.79797],[78.93228,20.79839],[78.93346,20.79804],[78.93857,20.79651],[78.94109,20.79576],[78.9458,20.79435],[78.9472,20.79448],[78.94771,20.79294],[78.94865,20.79013],[78.94897,20.78917],[78.94943,20.78517],[78.94889,20.78292],[78.94812,20.78263],[78.94257,20.78055],[78.94281,20.77952],[78.94285,20.77935],[78.94413,20.77387],[78.94445,20.7725],[78.94562,20.76753],[78.94627,20.76752],[78.94642,20.76752],[78.95258,20.76743],[78.95346,20.76742],[78.95481,20.7674],[78.95675,20.76737],[78.95733,20.76736],[78.95783,20.76632],[78.95864,20.76465],[78.96619,20.75883],[78.96757,20.75813],[78.9678,20.75801],[78.97024,20.75734],[78.97089,20.75716],[78.9714,20.75679],[78.97416,20.75478],[78.9794,20.75475],[78.98047,20.75448],[78.98935,20.75222],[78.99798,20.75444],[78.99799,20.75439],[78.99828,20.75299],[78.99834,20.75274],[78.99856,20.7517],[78.99975,20.74607],[78.99977,20.746],[78.99986,20.74558],[78.99994,20.7452],[79.00016,20.74414],[79.00041,20.74297],[79.00469,20.74184],[79.00553,20.74162],[79.01084,20.74185],[79.0111,20.74196],[79.01314,20.74287],[79.01845,20.74048],[79.02019,20.73667],[79.02133,20.73657],[79.0343,20.73549],[79.03492,20.73544],[79.03818,20.73517],[79.04029,20.73677],[79.04098,20.73729],[79.04116,20.73742],[79.04185,20.73794],[79.04202,20.73807],[79.04582,20.73483],[79.04678,20.73483],[79.05047,20.73483],[79.05327,20.73483],[79.0536,20.73134],[79.05402,20.72687],[79.06095,20.72328],[79.06112,20.72318],[79.06708,20.72323],[79.06973,20.72326],[79.0746,20.72417],[79.07511,20.72252],[79.07567,20.72071],[79.07707,20.71615],[79.07718,20.7158],[79.08074,20.71511],[79.0865,20.714],[79.09009,20.7119],[79.09262,20.70851],[79.09372,20.7088],[79.09892,20.71017],[79.09899,20.71019],[79.10455,20.71273],[79.10475,20.71212],[79.10568,20.70918],[79.10714,20.70455],[79.10854,20.70014],[79.10951,20.69709],[79.10951,20.69675],[79.10875,20.69301],[79.10818,20.69023],[79.10736,20.68624],[79.10831,20.68595],[79.11051,20.68527],[79.12006,20.68232],[79.12108,20.68201],[79.12371,20.6812],[79.12984,20.67931],[79.13002,20.67925],[79.13185,20.67869],[79.14331,20.67641],[79.14353,20.67563],[79.14465,20.67167],[79.14495,20.67061],[79.14551,20.6686],[79.1473,20.66784],[79.14692,20.66658],[79.14607,20.66373],[79.14518,20.66075],[79.14514,20.66063],[79.14584,20.66038],[79.1497,20.659],[79.15052,20.65758],[79.14985,20.65213],[79.15013,20.65191],[79.15172,20.65067],[79.15304,20.65018],[79.15716,20.64864],[79.15967,20.64771],[79.16978,20.64396],[79.17062,20.64364],[79.1708,20.64357],[79.1713,20.64239],[79.17149,20.64196],[79.17121,20.64109],[79.17043,20.63864],[79.17148,20.63675],[79.17164,20.63648],[79.17168,20.63611],[79.17178,20.63537],[79.17206,20.63308],[79.17231,20.63116],[79.17117,20.62506],[79.17584,20.62372],[79.17646,20.62041],[79.1781,20.61936],[79.18032,20.61793],[79.18046,20.61784],[79.1813,20.6173],[79.18367,20.61747],[79.18668,20.61937],[79.18674,20.61415],[79.18844,20.61172],[79.18874,20.60718],[79.18877,20.60676],[79.189,20.60319],[79.18974,20.60199],[79.19136,20.59936],[79.193,20.59668],[79.19594,20.60121],[79.20055,20.60013],[79.20449,20.59921],[79.20981,20.59796],[79.2111,20.59667],[79.2125,20.59526],[79.21414,20.59417],[79.22068,20.58982],[79.22512,20.58266],[79.22682,20.58393],[79.23148,20.58443],[79.23963,20.5853],[79.24357,20.58573],[79.24532,20.58592],[79.25191,20.58662],[79.25718,20.58614],[79.26379,20.58554],[79.27209,20.58566],[79.27487,20.5857],[79.28106,20.58579],[79.28502,20.58697],[79.28523,20.58704],[79.29292,20.58934],[79.29694,20.58824],[79.2984,20.58743],[79.29989,20.5866],[79.3005,20.58626],[79.30458,20.584],[79.30523,20.5838],[79.30659,20.58338],[79.30804,20.58293],[79.31353,20.58121],[79.32054,20.58331],[79.32221,20.58381],[79.32751,20.5898],[79.32942,20.59405],[79.33276,20.60149],[79.33329,20.60267],[79.33415,20.60606],[79.33453,20.60755],[79.33474,20.60839],[79.33489,20.61072],[79.33504,20.61308],[79.3351,20.61413],[79.33527,20.6144],[79.33533,20.6145],[79.33914,20.62065],[79.34314,20.62711],[79.34403,20.62854],[79.34543,20.63079],[79.34779,20.6346],[79.3474,20.63556],[79.34627,20.6384],[79.34516,20.64115],[79.3457,20.6429],[79.34629,20.64482],[79.34856,20.64666],[79.35129,20.64886],[79.35303,20.65027],[79.35403,20.65108],[79.35779,20.65584],[79.35631,20.66048],[79.35438,20.66233],[79.35114,20.66546],[79.35081,20.66578],[79.35147,20.66742],[79.35324,20.67185],[79.3628,20.67146],[79.3641,20.67139],[79.36505,20.6718],[79.36518,20.67186],[79.3658,20.67213],[79.36592,20.67219],[79.36777,20.673],[79.37145,20.67461],[79.37593,20.67786],[79.37624,20.67781],[79.37684,20.67771],[79.37892,20.67737],[79.37928,20.67731],[79.38365,20.6766],[79.38538,20.67632],[79.38613,20.67576],[79.38987,20.67291],[79.3899,20.66891],[79.38992,20.66615],[79.39311,20.66102],[79.39782,20.65868],[79.39881,20.65819],[79.39943,20.65789],[79.40274,20.65712],[79.40595,20.65637],[79.40728,20.65606],[79.41421,20.65642],[79.41839,20.65663],[79.42262,20.65842],[79.42479,20.65933],[79.42695,20.66025],[79.42911,20.66116],[79.43043,20.66075],[79.4347,20.65952],[79.43532,20.65934],[79.43595,20.65961],[79.44019,20.66145],[79.44172,20.66211],[79.44237,20.66239],[79.44264,20.66251],[79.4448,20.66344],[79.44503,20.66354],[79.4458,20.66387],[79.45068,20.66479],[79.45143,20.66493],[79.45406,20.66626],[79.45465,20.66655],[79.45615,20.66731],[79.45973,20.66911],[79.45992,20.66921],[79.46043,20.66947],[79.46463,20.67261],[79.46604,20.67366],[79.46703,20.67439],[79.46781,20.67498],[79.46807,20.6752],[79.46884,20.67586],[79.46948,20.6764],[79.46998,20.67683],[79.47127,20.67792],[79.47272,20.67916],[79.47301,20.67941],[79.47317,20.67955],[79.47375,20.68004],[79.47397,20.68023],[79.47544,20.68147],[79.47836,20.68478],[79.47984,20.68646],[79.48229,20.68924],[79.48272,20.68973],[79.48279,20.68981],[79.48408,20.6914],[79.48575,20.69346],[79.49001,20.69871],[79.49036,20.69976],[79.49119,20.70228],[79.49196,20.7046],[79.49478,20.70499],[79.49544,20.7032],[79.49605,20.70155],[79.49673,20.6997],[79.50608,20.70045],[79.50615,20.70053],[79.507,20.70157],[79.50768,20.7024],[79.50941,20.70451],[79.5097,20.70821],[79.51044,20.7093],[79.51128,20.71054],[79.5123,20.71204],[79.51414,20.71477],[79.51421,20.71485],[79.51596,20.71713],[79.51876,20.72078],[79.5194,20.72161],[79.52035,20.72284],[79.52061,20.72317],[79.52229,20.72537],[79.52484,20.72819],[79.52511,20.72852],[79.52684,20.73046],[79.52896,20.73283],[79.53043,20.73448],[79.5305,20.73455],[79.53133,20.73548],[79.532,20.73623],[79.53275,20.73708],[79.53283,20.73717],[79.53293,20.73727],[79.53312,20.73749],[79.53349,20.7379],[79.53433,20.73884],[79.53441,20.73894],[79.53585,20.74054],[79.53579,20.74071],[79.53574,20.74085],[79.53485,20.74328],[79.5337,20.74647],[79.53365,20.74945],[79.53453,20.75306],[79.53512,20.75549],[79.53516,20.75567],[79.53538,20.75655],[79.53584,20.75845],[79.53674,20.76212],[79.53694,20.76296],[79.53758,20.76558],[79.53725,20.76716],[79.53702,20.76827],[79.53596,20.7734],[79.53635,20.7741],[79.5379,20.77688],[79.53804,20.77705],[79.5386,20.77772],[79.54191,20.78164],[79.54269,20.78257],[79.54296,20.78289],[79.54517,20.78552],[79.54568,20.78613],[79.54595,20.78644],[79.54641,20.78738],[79.54667,20.7879],[79.54686,20.78828],[79.54696,20.78848],[79.54787,20.79034],[79.54941,20.79345],[79.55434,20.79776],[79.55615,20.79935],[79.55843,20.80133],[79.55968,20.80243],[79.56066,20.80328],[79.56082,20.80345],[79.56081,20.80418],[79.5608,20.81019],[79.56053,20.81068],[79.55553,20.81993],[79.5547,20.82148],[79.55388,20.82448],[79.55337,20.82634],[79.55332,20.8265],[79.55206,20.83111],[79.55019,20.83501],[79.55009,20.83522],[79.54999,20.83542],[79.54944,20.83657],[79.54936,20.8367],[79.54812,20.83866],[79.54768,20.83936],[79.54384,20.84541],[79.54198,20.84835],[79.54317,20.84948],[79.5439,20.85017],[79.54658,20.85062],[79.55487,20.84866],[79.55997,20.85356],[79.56022,20.8538],[79.5667,20.85015],[79.56797,20.84883],[79.56913,20.84762],[79.56933,20.84412],[79.57029,20.84411],[79.57334,20.84409],[79.57615,20.84406],[79.57941,20.84403],[79.58342,20.84296],[79.58389,20.84337],[79.58818,20.84708],[79.58864,20.84748],[79.59313,20.85287],[79.59504,20.85513],[79.59651,20.85692],[79.59866,20.85901],[79.59904,20.85938],[79.60022,20.86054],[79.60023,20.86175],[79.60024,20.86176],[79.60082,20.86311],[79.60157,20.86457],[79.60215,20.86452],[79.60355,20.86438],[79.60411,20.86433],[79.6046,20.86481],[79.60504,20.86484],[79.60709,20.86496],[79.60989,20.86513],[79.61005,20.86514],[79.61071,20.86518],[79.61095,20.86519],[79.6131,20.86532],[79.61537,20.865],[79.61683,20.8648],[79.61714,20.86476],[79.61746,20.86471],[79.6178,20.86466],[79.61913,20.86513],[79.61952,20.86526],[79.61633,20.86854],[79.61621,20.86948],[79.61581,20.87271],[79.61453,20.87463],[79.61415,20.8752],[79.61381,20.87572],[79.61338,20.87637],[79.61166,20.87894],[79.61205,20.88074],[79.61297,20.88493],[79.61356,20.88761],[79.61387,20.88903],[79.61402,20.88968],[79.61406,20.88986],[79.61425,20.89071],[79.61697,20.90308],[79.62005,20.90579],[79.62041,20.9061],[79.62055,20.90622],[79.62085,20.90649],[79.6221,20.90759],[79.62231,20.90777],[79.62454,20.90859],[79.62509,20.90879],[79.63134,20.9111],[79.63467,20.91233],[79.63772,20.91346],[79.63841,20.91371],[79.63968,20.91418],[79.64008,20.91442],[79.64451,20.91708],[79.64616,20.91931],[79.65164,20.92672],[79.65195,20.92714],[79.65276,20.92899],[79.65297,20.92942],[79.65332,20.93027],[79.65401,20.93185],[79.65525,20.93469],[79.65553,20.93533],[79.6561,20.93664],[79.65611,20.93666],[79.65672,20.93804],[79.65689,20.93842],[79.65691,20.93847],[79.65703,20.93876],[79.65715,20.93902],[79.65731,20.93939],[79.65754,20.93992],[79.65856,20.94226],[79.65939,20.94414],[79.65996,20.94681],[79.6602,20.94715],[79.66033,20.94748],[79.6606,20.94849],[79.66069,20.94898],[79.66082,20.95154],[79.66083,20.95171],[79.66156,20.95391],[79.66161,20.95405],[79.66159,20.95417],[79.66135,20.95438],[79.66128,20.95456],[79.66131,20.95493],[79.66154,20.95596],[79.66154,20.9561],[79.66149,20.95619],[79.66094,20.95714],[79.66089,20.95725],[79.66088,20.95733],[79.66093,20.95789],[79.66093,20.95813],[79.66072,20.95939],[79.66075,20.95953],[79.66102,20.9606],[79.661,20.96072],[79.66096,20.96078],[79.66031,20.96126],[79.66021,20.96146],[79.66017,20.96195],[79.66019,20.96217],[79.65993,20.96363],[79.65995,20.96584],[79.65998,20.96995],[79.65389,20.97805],[79.65367,20.9782],[79.65017,20.98062],[79.64758,20.98242],[79.64525,20.98397],[79.64347,20.98515],[79.64322,20.98544],[79.63796,20.99143],[79.63756,20.9935],[79.63687,20.99705],[79.637,20.99962],[79.63688,21.0005],[79.63672,21.00084],[79.63624,21.00195],[79.63491,21.00451],[79.63481,21.00462],[79.63467,21.00467],[79.63442,21.00464],[79.63426,21.00466],[79.6341,21.00476],[79.63353,21.00557],[79.63377,21.00583],[79.6338,21.00594],[79.63152,21.00928],[79.62894,21.01306],[79.62553,21.01805],[79.62477,21.01916],[79.6243,21.01985],[79.62201,21.0232],[79.62114,21.0245],[79.6193,21.02714],[79.61926,21.02726],[79.61895,21.02747],[79.61881,21.02764],[79.61868,21.02783],[79.61852,21.02814],[79.61737,21.03057],[79.61704,21.03115],[79.61632,21.03227],[79.6156,21.03328],[79.61461,21.03503],[79.61477,21.03563],[79.61413,21.03683],[79.61417,21.03743],[79.61419,21.03755],[79.61443,21.03787],[79.61444,21.03801],[79.61438,21.03811],[79.61408,21.03828],[79.61399,21.03834],[79.61391,21.03846],[79.6137,21.03893],[79.61303,21.04077],[79.61297,21.04087],[79.61188,21.04421],[79.61117,21.04796],[79.61109,21.04829],[79.61093,21.04858],[79.60965,21.05154],[79.60833,21.05517],[79.60824,21.05538],[79.60715,21.05787],[79.60542,21.06116],[79.60522,21.0614],[79.60451,21.06247],[79.60373,21.06421],[79.6031,21.06588],[79.60292,21.06642],[79.60251,21.06624],[79.60003,21.07299],[79.59996,21.07303],[79.59754,21.07446],[79.59684,21.07487],[79.59296,21.07715],[79.59248,21.07709],[79.5903,21.07679],[79.58913,21.07663],[79.58887,21.07626],[79.58683,21.07334],[79.58361,21.0703],[79.58237,21.06912],[79.58027,21.06777],[79.57835,21.06653],[79.57741,21.06677],[79.5735,21.06776],[79.57314,21.068],[79.57293,21.06815],[79.57269,21.06831],[79.57091,21.06949],[79.56927,21.07057],[79.56675,21.07375],[79.56442,21.07669],[79.56379,21.07747],[79.56349,21.07786],[79.56159,21.08025],[79.56095,21.08106],[79.56058,21.08152],[79.55908,21.08342],[79.55857,21.08405],[79.55697,21.08483],[79.5564,21.0851],[79.55639,21.08524],[79.55632,21.08546],[79.55614,21.08594],[79.5559,21.08632],[79.55578,21.08663],[79.55569,21.08679],[79.55533,21.08747],[79.55518,21.08776],[79.55492,21.08805],[79.55474,21.08823],[79.55451,21.0885],[79.55185,21.08663],[79.55175,21.08657],[79.55024,21.0857],[79.5463,21.08341],[79.54615,21.08332],[79.54308,21.08153],[79.54139,21.08097],[79.54091,21.08067],[79.54015,21.08026],[79.53875,21.07971],[79.53849,21.07958],[79.53777,21.07925],[79.5365,21.0787],[79.53564,21.07833],[79.5333,21.07733],[79.533,21.0772],[79.53286,21.07714],[79.52986,21.07585],[79.5284,21.08001],[79.52826,21.08036],[79.52818,21.08048],[79.52795,21.08067],[79.52767,21.08083],[79.52754,21.08093],[79.52738,21.08109],[79.52728,21.08117],[79.52672,21.08184],[79.52586,21.08349],[79.5234,21.08819],[79.53104,21.08882],[79.53222,21.09223],[79.53263,21.09343],[79.53336,21.09553],[79.53353,21.09601],[79.53345,21.09613],[79.53268,21.09687],[79.53143,21.09791],[79.53141,21.09827],[79.53129,21.10037],[79.53147,21.10051],[79.53175,21.10071],[79.53194,21.10085],[79.53219,21.10104],[79.53237,21.10117],[79.5325,21.10126],[79.53283,21.10151],[79.53316,21.10175],[79.53375,21.10301],[79.53421,21.10396],[79.53173,21.10562],[79.53049,21.10644],[79.53097,21.10694],[79.53121,21.10719],[79.53241,21.10845],[79.53197,21.10925],[79.53086,21.11126],[79.52876,21.11506],[79.52793,21.11802],[79.52743,21.11816],[79.52556,21.11868],[79.51863,21.12059],[79.51409,21.12185],[79.51261,21.12502],[79.5125,21.12525],[79.51322,21.12854],[79.51303,21.12919],[79.51295,21.12943],[79.51216,21.13202],[79.51064,21.13289],[79.50807,21.13436],[79.50681,21.13465],[79.49874,21.13649],[79.49325,21.13981],[79.49312,21.13986],[79.4938,21.14187],[79.4981,21.14292],[79.50131,21.14371],[79.50441,21.14448],[79.50562,21.1455],[79.50661,21.14633],[79.50732,21.14914],[79.50811,21.15224],[79.50831,21.15304],[79.50851,21.15384],[79.50862,21.15433],[79.50865,21.15444],[79.50915,21.15634],[79.50945,21.15746],[79.50958,21.15807],[79.50998,21.15962],[79.51088,21.16319],[79.50205,21.16962],[79.49952,21.17145],[79.49882,21.17196],[79.49853,21.17218],[79.49892,21.17538],[79.49921,21.17774],[79.49958,21.18066],[79.50087,21.18231],[79.5017,21.18336],[79.50204,21.18379],[79.50252,21.18352],[79.5121,21.17823],[79.52,21.17387],[79.52679,21.17603],[79.52816,21.17581],[79.53294,21.17501],[79.53268,21.17405],[79.53179,21.17084],[79.52901,21.16817],[79.53013,21.16589],[79.53065,21.16485],[79.53069,21.16477],[79.53087,21.16441],[79.531,21.16414],[79.53176,21.16261],[79.53181,21.1625],[79.53228,21.16155],[79.53306,21.15998],[79.53313,21.15985],[79.534,21.15809],[79.53473,21.15661],[79.53824,21.15645],[79.5411,21.15631],[79.54129,21.1563],[79.54422,21.15616],[79.54753,21.15718],[79.54852,21.15749],[79.54887,21.15752],[79.55225,21.15777],[79.55329,21.15746],[79.55657,21.15647],[79.56219,21.15652],[79.56227,21.15814],[79.56228,21.1585],[79.56242,21.16131],[79.56173,21.16283],[79.56109,21.16426],[79.55912,21.16636],[79.55509,21.17067],[79.55493,21.17263],[79.55696,21.17625],[79.56335,21.1876],[79.56255,21.18994],[79.56218,21.19101],[79.56176,21.19147],[79.56078,21.19253],[79.55999,21.20116],[79.5599,21.20216],[79.55841,21.20458],[79.55452,21.20538],[79.55356,21.20667],[79.55501,21.20798],[79.55647,21.2093],[79.5595,21.21583],[79.55975,21.21637],[79.56016,21.21726],[79.56204,21.22132],[79.56229,21.22185],[79.56298,21.22335],[79.56379,21.2251],[79.56426,21.22612],[79.56297,21.22954],[79.56277,21.23008],[79.56228,21.23138],[79.56144,21.23359],[79.5609,21.23504],[79.56151,21.23685],[79.5616,21.23696],[79.56166,21.23703],[79.56177,21.23718],[79.5642,21.24014],[79.56608,21.24244],[79.57051,21.24637],[79.57185,21.24756],[79.57102,21.24971],[79.57097,21.24984],[79.57017,21.25192],[79.56984,21.25277],[79.56935,21.25404],[79.57037,21.26298],[79.57038,21.2631],[79.57122,21.27036],[79.57134,21.27143],[79.57142,21.27214],[79.57166,21.27428],[79.57631,21.27425],[79.57656,21.27541],[79.57674,21.27624],[79.5771,21.27795],[79.57695,21.27875],[79.57669,21.28014],[79.57636,21.28185],[79.57616,21.28291],[79.57599,21.28381],[79.57598,21.28384],[79.57596,21.28388],[79.5751,21.28569],[79.57437,21.2872],[79.57195,21.29226],[79.57182,21.29254],[79.57092,21.29442],[79.57078,21.29471],[79.56939,21.2976],[79.56932,21.29775],[79.56847,21.29953],[79.56818,21.29983],[79.56783,21.30018],[79.56562,21.30243],[79.56437,21.30258],[79.56431,21.30259],[79.56373,21.30266],[79.56127,21.30295],[79.56091,21.303],[79.56028,21.30307],[79.5597,21.30314],[79.55911,21.30321],[79.55868,21.30378],[79.55641,21.30676],[79.55725,21.30931],[79.55778,21.30984],[79.55943,21.3115],[79.55932,21.31178],[79.55856,21.31365],[79.55849,21.31383],[79.55572,21.31627],[79.55534,21.31661],[79.55655,21.3189],[79.55874,21.32305],[79.55879,21.32315],[79.55874,21.32371],[79.55866,21.32455],[79.55861,21.32515],[79.55858,21.32547],[79.55857,21.32558],[79.55839,21.32749],[79.5583,21.32848],[79.55759,21.33014],[79.5573,21.33081],[79.55447,21.33113],[79.55383,21.3312],[79.5529,21.33131],[79.55162,21.33145],[79.54808,21.33186],[79.54684,21.33358],[79.54428,21.33714],[79.54404,21.33748],[79.54169,21.34075],[79.54086,21.34192],[79.53997,21.34316],[79.53768,21.34634],[79.53613,21.3485],[79.52977,21.35205],[79.5287,21.35321],[79.52798,21.35399],[79.52684,21.35523],[79.52598,21.35779],[79.5237,21.36457],[79.52189,21.36614],[79.52004,21.36775],[79.51814,21.3694],[79.51725,21.3714],[79.51701,21.37193],[79.51642,21.37325],[79.51099,21.3819],[79.51043,21.38278],[79.50987,21.38367],[79.50965,21.38402],[79.50936,21.38449],[79.50918,21.38477],[79.50801,21.38662],[79.50646,21.38907],[79.50475,21.39175],[79.50396,21.393],[79.5037,21.39341],[79.5015,21.39687],[79.50133,21.39715],[79.50074,21.39806],[79.4996,21.39816],[79.4987,21.39824],[79.48932,21.39908],[79.48828,21.39917],[79.492,21.40303],[79.49204,21.40533],[79.49182,21.40594],[79.48939,21.41247],[79.48863,21.41452],[79.48367,21.42783],[79.48093,21.42753],[79.48001,21.42742],[79.47585,21.42603],[79.47433,21.42552],[79.4719,21.42471],[79.46082,21.42644],[79.45902,21.4275],[79.45845,21.42784],[79.45563,21.4295],[79.45089,21.43545],[79.45189,21.4425],[79.45224,21.445],[79.4528,21.44901],[79.45182,21.45047],[79.45061,21.45228],[79.44984,21.45627],[79.4497,21.45702],[79.45055,21.4573],[79.45667,21.4593],[79.45873,21.46056],[79.45973,21.46117],[79.46283,21.46652],[79.46316,21.46709],[79.46557,21.47125],[79.46971,21.47838],[79.47042,21.4796],[79.47306,21.48058],[79.47404,21.48094],[79.475,21.4813],[79.47552,21.48413],[79.47893,21.49002],[79.47909,21.4903],[79.47918,21.49046],[79.47957,21.49112],[79.48147,21.49442],[79.4845,21.49965],[79.48482,21.5002],[79.48615,21.5025],[79.48902,21.50494],[79.49358,21.50881],[79.49359,21.50882],[79.49536,21.51173],[79.49729,21.51491],[79.50045,21.51815],[79.50196,21.5197],[79.50416,21.52195],[79.50573,21.52386],[79.5061,21.52431],[79.50777,21.52632],[79.50938,21.52826],[79.51044,21.52956],[79.51059,21.52975],[79.5112,21.53048],[79.51129,21.53059],[79.51287,21.53251],[79.51351,21.53328],[79.51454,21.53454],[79.51462,21.53462],[79.51694,21.53553],[79.51734,21.53569],[79.52425,21.5384],[79.52848,21.54005],[79.52974,21.54054],[79.53206,21.54036],[79.5349,21.54013],[79.53513,21.54024],[79.53535,21.54034],[79.53787,21.54151],[79.53864,21.54187],[79.53949,21.54226],[79.54024,21.54261],[79.54309631800004,21.54394598400006],[79.54278,21.54446],[79.54144776000004,21.546650510000063],[79.5407,21.54788],[79.54036,21.55046],[79.54255,21.55467],[79.54323,21.55668],[79.5437,21.55808],[79.54446,21.56033],[79.54491,21.56166],[79.54501,21.56195],[79.54558,21.56366],[79.54595,21.56474],[79.546,21.56489],[79.54403,21.56867],[79.54097,21.57092],[79.54091,21.57096],[79.53862,21.57265],[79.53414,21.57447],[79.53145,21.57696],[79.52869,21.57952],[79.52819,21.57998],[79.52763,21.58012],[79.52759,21.58013],[79.52598,21.58054],[79.52401,21.58104],[79.51985,21.5821],[79.51863,21.58241],[79.51761,21.58268],[79.51712,21.5828],[79.51693,21.58308],[79.51262,21.5894],[79.51257,21.58947],[79.51228,21.58989],[79.5123,21.59016],[79.51237,21.59103],[79.5126,21.5938],[79.51267,21.59464],[79.51327,21.60199],[79.51301,21.60235],[79.51181,21.60399],[79.51163,21.60424],[79.51133,21.60466],[79.51068,21.60554],[79.50953,21.60711],[79.50951,21.60713],[79.5091,21.60753],[79.5074,21.60922],[79.50658,21.61003],[79.50628,21.61033],[79.50574,21.61087],[79.50465,21.61196],[79.50522,21.61338],[79.50735,21.61867],[79.50758,21.61923],[79.5092,21.62131],[79.50927,21.62141],[79.50969,21.62194],[79.51006,21.62216],[79.51041,21.62237],[79.51053,21.62244],[79.51117,21.62283],[79.51119,21.62284],[79.51126,21.62283],[79.51377,21.62256],[79.51495,21.62244],[79.51544,21.62288],[79.51683,21.62415],[79.51757,21.62482],[79.51859,21.62575],[79.51893,21.62607],[79.51809,21.6307],[79.51622,21.63275],[79.51605,21.63293],[79.51533,21.63306],[79.51498,21.63312],[79.51439,21.63322],[79.51423,21.63325],[79.51238,21.63358],[79.50924,21.63413],[79.50909,21.63416],[79.5081,21.63664],[79.50782,21.63733],[79.50673,21.64007],[79.50687,21.64089],[79.50708,21.64213],[79.50716,21.64259],[79.50753,21.64487],[79.50754,21.64496],[79.5076,21.64526],[79.50693,21.64603],[79.50684,21.64614],[79.50656,21.64646],[79.50621,21.64685],[79.50575,21.64738],[79.50549,21.64793],[79.50469,21.64962],[79.50383,21.65147],[79.50328,21.65313],[79.5017,21.65793],[79.5011,21.65976],[79.50101,21.66006],[79.50077,21.66027],[79.50066,21.66036],[79.50019,21.66077],[79.4993,21.66154],[79.49865,21.66209],[79.49786,21.66277],[79.49777,21.66285],[79.49734,21.66322],[79.49661267090295,21.665975384304147],[79.49545,21.67038],[79.49531,21.67148],[79.49513,21.67278],[79.49502,21.67361],[79.49362,21.67422],[79.49249,21.67472],[79.49069,21.6755],[79.49019,21.67572],[79.48796,21.6767],[79.48418,21.67835],[79.48387,21.67848],[79.47803,21.68103],[79.47775,21.68116],[79.47752839400005,21.68125497400007],[79.47726,21.68137],[79.47529,21.68224],[79.4736,21.68297],[79.47278,21.68333],[79.47224,21.68357],[79.46816,21.68534],[79.46494,21.68676],[79.46399,21.68639],[79.46304,21.68601],[79.45744,21.68377],[79.44715,21.68168],[79.4414,21.68251],[79.43864,21.68291],[79.43435,21.68468],[79.43124,21.688],[79.4300362065617,21.6892814575311],[79.42938,21.68998],[79.42574,21.69042],[79.42298,21.69075],[79.42217,21.69085],[79.41778,21.69037],[79.41719,21.68951],[79.41602,21.68779],[79.4141,21.68497],[79.41254,21.6837],[79.41252,21.68368],[79.41244,21.68361],[79.41108,21.68251],[79.40961,21.68131],[79.40903,21.68084],[79.40687,21.67908],[79.40675,21.67897],[79.40579,21.67781],[79.404,21.67568],[79.40365,21.67527],[79.40347,21.67505],[79.40263,21.67467],[79.40112,21.674],[79.40099,21.67401],[79.39966,21.6741],[79.39807,21.6742],[79.39649,21.67431],[79.39441,21.67445],[79.38944,21.67479],[79.3864,21.67537],[79.38279,21.67607],[79.37454,21.67766],[79.37092,21.67836],[79.36814,21.67889],[79.36804,21.67889],[79.36798,21.67889],[79.36225,21.6786],[79.35534,21.67826],[79.35528,21.67877],[79.355,21.68104],[79.35492,21.68165],[79.35484,21.68233],[79.35482,21.68254],[79.35466,21.68376],[79.34895,21.68387],[79.34382,21.68483],[79.34054,21.68544],[79.32845,21.68771],[79.32655,21.68593],[79.32364,21.68515],[79.32185,21.68559],[79.32115,21.68577],[79.31935,21.68621],[79.30831,21.68894],[79.30762,21.68911],[79.30348,21.69014],[79.29606,21.69197],[79.29536,21.69214],[79.29109,21.6932],[79.28666,21.69668],[79.28566,21.69747],[79.28307,21.6995],[79.28159,21.70316],[79.2812,21.70413],[79.28105,21.70449],[79.27856,21.70764],[79.27827,21.708],[79.27822,21.70806],[79.27803,21.7083],[79.27519,21.71072],[79.27404,21.7117],[79.27114,21.71417],[79.26775,21.71536],[79.26392,21.71676],[79.25828,21.718],[79.25245,21.71929],[79.24908,21.72003],[79.24718,21.72044],[79.2401,21.722],[79.23492,21.72314],[79.23434,21.7212],[79.23431,21.72111],[79.23483,21.72025],[79.23508,21.71985],[79.23517,21.7197],[79.241,21.71442],[79.23937,21.71258],[79.23577,21.7085],[79.23128,21.70342],[79.2281,21.69983],[79.22789,21.69892],[79.22714,21.69582],[79.22486,21.6831],[79.22439,21.68051],[79.22592,21.67725],[79.22638,21.67626],[79.23078,21.67514],[79.23305,21.67366],[79.23463,21.67067],[79.23348,21.65991],[79.23336,21.65888],[79.23336,21.65884],[79.23329,21.65814],[79.23316,21.65694],[79.23125,21.65668],[79.22902,21.65637],[79.22882,21.65634],[79.22779,21.6562],[79.22714,21.65382],[79.22707,21.65356],[79.22644,21.65127],[79.22612,21.65011],[79.22596,21.65008],[79.22575,21.65004],[79.22282,21.64949],[79.2173,21.65025],[79.21421,21.65068],[79.20995,21.65127],[79.19511,21.65332],[79.19238,21.65369],[79.18484,21.65488],[79.18276,21.65521],[79.1773,21.65607],[79.16692,21.65771],[79.16559,21.65792],[79.16424,21.65813],[79.16358,21.65823],[79.1618,21.65852],[79.1594,21.65889],[79.15609,21.65942],[79.15399,21.65975],[79.15366,21.6579],[79.15328,21.65578],[79.15262,21.65392],[79.15166,21.65123],[79.15091,21.64913],[79.15,21.64657],[79.14993,21.64637],[79.14935,21.64474],[79.14924,21.64442],[79.14879,21.64316],[79.14798,21.6409],[79.14723,21.63878],[79.1441,21.63669],[79.14322,21.6361],[79.14202,21.63497],[79.14141,21.6344],[79.13932,21.63243],[79.13884,21.63198],[79.13825,21.63143],[79.13615,21.62946],[79.13492,21.6283],[79.13386,21.62731],[79.13121,21.62691],[79.12811,21.62644],[79.12461,21.62591],[79.12068,21.62531],[79.12057,21.62529],[79.11735,21.62481],[79.11534,21.6237],[79.11422,21.62308],[79.1087,21.62003],[79.10678,21.61897],[79.10528,21.61814],[79.105,21.61658],[79.10482,21.61555],[79.10491,21.61506],[79.10551,21.61189],[79.10558,21.61152],[79.10616,21.61116],[79.1088,21.6095],[79.10922,21.60924],[79.11022,21.60862],[79.10913,21.60744],[79.10839,21.60664],[79.10684,21.60494],[79.10603,21.60407],[79.10422,21.6021],[79.10165,21.60235],[79.10163,21.60235],[79.09998,21.60251],[79.09813,21.60269],[79.09679,21.60125],[79.09418,21.59845],[79.08994,21.60359],[79.0892,21.60449],[79.08901,21.60472],[79.08763,21.6064],[79.08618,21.60654],[79.08446,21.6067],[79.08216,21.60692],[79.07281,21.60558],[79.05679,21.60316],[79.05587,21.60374],[79.05542,21.60401],[79.05397,21.60491],[79.04898,21.60393],[79.03764,21.60477],[79.03699,21.60482],[79.02791,21.60307],[79.01557,21.6007],[79.0118,21.60321],[79.01173,21.60328],[79.006,21.60897],[79.00522,21.61074],[79.00338,21.61494],[79.00265,21.61569],[79.00198,21.61637],[79.00169,21.61667],[79.00107,21.6173],[79.00046,21.61791],[78.99775,21.61758],[78.98748,21.61631],[78.98337,21.61655],[78.98074,21.6167],[78.98056,21.61653],[78.97907,21.61514],[78.97827,21.61439],[78.97716,21.61335],[78.97584,21.61212],[78.97262,21.60911],[78.96897,21.60571],[78.96824,21.60503],[78.95815,21.59898],[78.95798,21.59888],[78.95232,21.5955],[78.95182,21.59519],[78.94972,21.59433],[78.94757,21.59344],[78.94738,21.59337],[78.9463,21.59292],[78.94337,21.59314],[78.93497,21.59378],[78.92859,21.59174],[78.92792,21.59172],[78.9274,21.59171],[78.92116,21.59154],[78.91916,21.59149],[78.91889,21.58969],[78.91865,21.58812],[78.91827,21.58551],[78.91824,21.58534],[78.91809,21.58432],[78.91797,21.58132],[78.91796,21.58084],[78.91769,21.57367],[78.91755,21.57007],[78.91888,21.56944],[78.92025,21.5688],[78.92035,21.56879],[78.92191,21.5686],[78.92582,21.56813],[78.92967,21.56609],[78.93431,21.56362],[78.93418,21.56265],[78.93419,21.56252],[78.93402,21.56138],[78.93375,21.55947],[78.9304,21.55935],[78.9299,21.55934],[78.9213,21.5616],[78.91863,21.5623],[78.91812,21.5621],[78.91501,21.56092],[78.91426,21.55982],[78.9128,21.55766],[78.91033,21.55401],[78.91285,21.55233],[78.91318,21.5521],[78.91987,21.54762],[78.92044,21.54725],[78.92516,21.54409],[78.92769,21.54239],[78.92847,21.54115],[78.9288,21.54062],[78.93039,21.53806],[78.93049,21.53789],[78.92978,21.53449],[78.92966,21.53392],[78.92932,21.5323],[78.92932,21.53016],[78.92933,21.52635],[78.92934,21.52587],[78.92934,21.525],[78.92934,21.52395],[78.92934,21.52381],[78.92935,21.52321],[78.92935,21.52302],[78.93013,21.52242],[78.93043,21.52219],[78.93095,21.5218],[78.93198,21.52101],[78.93215,21.52088],[78.93733,21.51973],[78.93747,21.5197],[78.93811,21.51955],[78.93987,21.51916],[78.94167,21.51877],[78.94208,21.51868],[78.94225,21.51864],[78.94462,21.51655],[78.94584,21.51429],[78.94657,21.51296],[78.94448,21.51115],[78.94405,21.51077],[78.94334,21.51015],[78.94283,21.5097],[78.94178,21.50361],[78.94031,21.49515],[78.93971,21.49167],[78.93774,21.48669],[78.93705,21.4867],[78.9362,21.48672],[78.93561,21.48673],[78.93528,21.48674],[78.92648,21.48691],[78.92502,21.48767],[78.92368,21.48837],[78.91774,21.49146],[78.91381,21.49351],[78.90862,21.49727],[78.90715,21.4978],[78.90165,21.49981],[78.90014,21.49915],[78.89636,21.49748],[78.89146,21.48537],[78.89124,21.48484],[78.89055,21.48476],[78.8874,21.48441],[78.88572,21.48422],[78.88101,21.48717],[78.87793,21.48818],[78.87674,21.48857],[78.87444,21.48933],[78.8717,21.49022],[78.87005,21.49076],[78.86883,21.49116],[78.86344,21.49293],[78.85738,21.49492],[78.85654,21.49399],[78.85357,21.49068],[78.85,21.48919],[78.84933,21.48919],[78.84413,21.48918],[78.83905,21.48917],[78.83668,21.48916],[78.83376,21.48916],[78.82917,21.49031],[78.82803,21.4899],[78.82506,21.48883],[78.81893,21.48792],[78.81587,21.49005],[78.79859,21.48904],[78.79687,21.48829],[78.79664,21.48819],[78.79578,21.48781],[78.79545,21.48767],[78.79485,21.48774],[78.79037,21.48831],[78.78978,21.48721],[78.78865,21.48508],[78.78593,21.47999],[78.78281,21.47827],[78.78257,21.47739],[78.78235,21.47661],[78.78208,21.47563],[78.78182,21.47471],[78.78126,21.4727],[78.78123,21.47263],[78.77794,21.46632],[78.77407,21.46985],[78.77011,21.47346],[78.76919,21.47613],[78.76749,21.48108],[78.76653,21.48386],[78.76668,21.48704],[78.76678,21.48891],[78.75782,21.48975],[78.75744,21.49394],[78.75719,21.49679],[78.75739,21.50075],[78.75745,21.50204],[78.7575,21.50304],[78.75843,21.5067],[78.75853,21.50708],[78.75596,21.50644],[78.75226,21.50545],[78.74781,21.50432],[78.74548,21.50392],[78.7425,21.5035],[78.7407,21.50365],[78.74064,21.50365],[78.73835,21.5039],[78.73574,21.50456],[78.73532,21.50471],[78.73605,21.50321],[78.73669,21.50159],[78.73743,21.50053],[78.73825,21.49947],[78.73943,21.49878],[78.74096,21.50015],[78.74475,21.50189],[78.74795,21.50241],[78.7503,21.50235],[78.75209,21.50214],[78.75274,21.50121],[78.75318,21.49876],[78.75295,21.49655],[78.75267,21.49517],[78.75242,21.49391],[78.75201,21.49267],[78.75162,21.49152],[78.75071,21.4899],[78.75016,21.4896],[78.74921,21.488],[78.74911,21.48781],[78.74611,21.48285],[78.7454,21.4779],[78.74471,21.47308],[78.74456,21.47206],[78.74452,21.47204],[78.74082,21.47057],[78.73542,21.47052],[78.72987,21.46354],[78.7287,21.4636],[78.72546,21.46377],[78.72151,21.46601],[78.72087,21.46637],[78.71959,21.4671],[78.71384,21.46895],[78.70956,21.47033],[78.70936,21.47063],[78.70844,21.47205],[78.70729,21.47382],[78.706,21.47376],[78.70334,21.47364],[78.70302,21.47362],[78.70141,21.47355],[78.70164,21.47513],[78.70184,21.47653],[78.69892,21.4774],[78.69762,21.47779],[78.69432,21.47797],[78.69395,21.47797],[78.69146,21.47738],[78.69007,21.47706],[78.68978,21.48033],[78.68972,21.48107],[78.6795,21.48041],[78.67093,21.47989],[78.66981,21.47982],[78.66472,21.47798],[78.66193,21.47927],[78.66005,21.48014],[78.65641,21.48182],[78.65627,21.48189],[78.64916,21.48332],[78.64304,21.48327],[78.6401,21.48206],[78.63605,21.48039],[78.6309,21.47689],[78.62714,21.47665],[78.62654,21.47661],[78.62344,21.47912],[78.62165,21.48057],[78.6191,21.4822],[78.61091,21.4874],[78.60977,21.48708],[78.60658,21.4862],[78.60559,21.48522],[78.60419,21.48385],[78.60347,21.48423],[78.5988,21.48672],[78.59799,21.48664],[78.59551,21.4864],[78.59241,21.4861],[78.5904,21.48591],[78.58916,21.48685],[78.58673,21.48866],[78.57935,21.49687],[78.57878,21.4975],[78.57551,21.50057],[78.57498,21.50107],[78.5749,21.50114],[78.57203,21.50382],[78.57082,21.50497],[78.57021,21.5083],[78.57079,21.5103],[78.57122,21.5118],[78.57206,21.51467],[78.56556,21.51358],[78.562,21.51479],[78.56062,21.51599],[78.55791,21.51835],[78.55457,21.51867],[78.55407,21.51872],[78.55285,21.51883],[78.55196,21.51892],[78.54848,21.52066],[78.54795,21.52092],[78.5468,21.52149],[78.54661,21.52159],[78.54575,21.52202],[78.54277,21.5235],[78.54191,21.52351],[78.54095,21.52352],[78.54057,21.52352],[78.53679,21.52354],[78.53383,21.52356],[78.53034,21.52472],[78.53021,21.52476],[78.5272,21.52447],[78.52649,21.5244],[78.52555,21.52431],[78.52035,21.52568],[78.51403,21.52734],[78.51142,21.52628],[78.5098,21.52562],[78.50754,21.52555],[78.50336,21.52188],[78.50195,21.51819],[78.50146,21.51689],[78.49911,21.51689],[78.49619,21.51689],[78.49104,21.51097],[78.49024,21.50941],[78.48882,21.50666],[78.48583,21.50505],[78.48526,21.5051],[78.48255,21.50536],[78.47749,21.50585],[78.47632,21.50378],[78.47402,21.50324],[78.47069,21.50246],[78.46707,21.50245],[78.46462,21.50354],[78.46326,21.50346],[78.46275,21.50343],[78.46168,21.50337],[78.46078,21.50072],[78.46001,21.49847],[78.45959,21.49722],[78.45742,21.49638],[78.45708,21.49625],[78.45366,21.49847],[78.45004,21.50083],[78.44838,21.50133],[78.44397,21.50266],[78.44152,21.50209],[78.43755,21.50114],[78.43695,21.501],[78.43637,21.50087],[78.43592,21.50076],[78.43546,21.50065]]]}}]}