{"type":"FeatureCollection","features":[{"type":"Feature","properties":{},"geometry":{"type":"Polygon","coordinates":[[[75.92706,20.32073],[75.9467,20.30095],[75.99852,20.31365],[76.00324,20.28854],[76.03195,20.28902],[76.05037,20.3363],[76.08395,20.36529],[76.09638,20.34611],[76.12972,20.3417],[76.12708,20.3158],[76.1463,20.31156],[76.14268,20.30049],[76.19568,20.3009],[76.1672,20.23728],[76.13498,20.22231],[76.15204,20.20514],[76.11172,20.16219],[76.09902,20.10297],[76.05811,20.09903],[76.06894,20.07019],[76.02053,20.05959],[76.02552,20.02375],[76.00664,20.00475],[75.96807,20.0007],[75.99127,19.97577],[76.01747,19.97458],[76.01483,19.95384],[76.04943,19.94786],[76.08135,19.91214],[76.10104,19.85654],[76.13011,19.86345],[76.14091,19.84509],[76.25736,19.87392],[76.29897,19.87021],[76.34035,19.88253],[76.36882,19.92624],[76.39117,19.90498],[76.40898,19.92034],[76.49402,19.91756],[76.49877,19.88751],[76.54117,19.84539],[76.61128,19.83872],[76.64413,19.86733],[76.67935,19.84676],[76.69212,19.87298],[76.74011,19.87258],[76.74717,19.90723],[76.76797,19.90432],[76.77405,19.9333],[76.82417,19.92728],[76.83784,19.96138],[76.89686,19.94659],[76.90157,19.96317],[76.98982,19.99671],[76.99386,20.01827],[77.0159,20.00315],[77.0471,20.0078],[77.08534,19.95794],[77.14866,20.00201],[77.19759,19.99798],[77.21491,19.93678],[77.24942,19.90634],[77.24156,19.89288],[77.26974,19.89776],[77.2798,19.91698],[77.29339,19.89991],[77.31679,19.91022],[77.29925,19.88015],[77.32429,19.88558],[77.36597,19.85868],[77.36424,19.83364],[77.34557,19.8287],[77.36288,19.81565],[77.39065,19.82156],[77.38417,19.78874],[77.41057,19.77316],[77.38775,19.76664],[77.38612,19.72694],[77.41397,19.74417],[77.44137,19.72269],[77.44669,19.68829],[77.60808,19.64757],[77.63008,19.60865],[77.64538,19.60842],[77.64994,19.55619],[77.63476,19.55635],[77.75027,19.52244],[77.7409,19.48374],[77.7146,19.47714],[77.69952,19.4393],[77.75479,19.43237],[77.80545,19.46495],[77.83529,19.43997],[77.84813,19.45646],[77.82813,19.47605],[77.84755,19.48738],[77.84343,19.51048],[77.86207,19.52022],[77.88605,19.50098],[77.9079,19.53356],[77.94197,19.49973],[77.97632,19.50673],[77.99232,19.45654],[78.01374,19.46609],[78.02646,19.49805],[78.06843,19.46765],[78.11944,19.4976],[78.13682,19.53182],[78.12046,19.55426],[78.18958,19.568],[78.19625,19.61891],[78.17955,19.65568],[78.13161,19.66775],[78.09042,19.64585],[78.05691,19.67169],[78.04767,19.69952],[77.98904,19.68142],[77.98596,19.70004],[77.93414,19.73995],[77.89654,19.72621],[77.86112,19.74428],[77.86611,19.77204],[77.84966,19.8014],[77.89601,19.87661],[77.95448,19.91184],[78.04869,19.93176],[78.10359,19.89729],[78.15003,19.91656],[78.20108,19.90327],[78.25334,19.92997],[78.2602,19.91243],[78.24288,19.88811],[78.25526,19.87361],[78.28132,19.88581],[78.28749,19.9113],[78.33351,19.91708],[78.33039,19.8915],[78.38937,19.88032],[78.40291,19.83757],[78.48155,19.81763],[78.49932,19.79448],[78.5317,19.82297],[78.6092,19.8189],[78.70158,19.79123],[78.72216,19.76839],[78.77898,19.78099],[78.81343,19.75968],[78.84415,19.76379],[78.8628,19.73309],[78.8647,19.6582],[78.92188,19.66967],[78.97499,19.65125],[78.9689,19.61939],[78.98658,19.58722],[78.9606,19.55399],[78.99893,19.56423],[79.02447,19.54221],[79.10908,19.53031],[79.11098,19.51513],[79.14653,19.50356],[79.18412,19.46324],[79.22931,19.47039],[79.21321,19.49421],[79.243,19.52931],[79.25023,19.61493],[79.31126,19.59264],[79.3207,19.56806],[79.37553,19.57382],[79.42016,19.53618],[79.44785,19.53624],[79.47705,19.50027],[79.52007,19.52091],[79.52164,19.54475],[79.54935,19.55135],[79.5592,19.52293],[79.6048,19.50673],[79.62256,19.56152],[79.64648,19.5779],[79.71975,19.5863],[79.74717,19.60611],[79.78441,19.6007],[79.82351,19.57212],[79.83515,19.54019],[79.94725,19.46795],[79.98014,19.40461],[79.96892,19.30124],[79.92729,19.23024],[79.95038,19.17455],[79.86516,19.10807],[79.86672,19.03872],[79.9233,19.05149],[79.9417,19.02589],[79.94628,18.86338],[79.9328,18.84205],[79.90126,18.83533],[79.9393,18.78904],[80.01974,18.77151],[80.0538,18.72579],[80.11833,18.68123],[80.16564,18.70101],[80.19652,18.68073],[80.21555,18.70556],[80.25426,18.70649],[80.27515,18.72314],[80.24974,18.76482],[80.27941,18.76731],[80.30176,18.79567],[80.35385,18.81618],[80.34332,18.86114],[80.27514,18.93358],[80.27521,18.99201],[80.30089,19.02626],[80.29632,19.0509],[80.3296,19.07947],[80.3323,19.14602],[80.39413,19.1935],[80.38662,19.23699],[80.4529,19.2743],[80.48306,19.33937],[80.52136,19.35259],[80.57531,19.40524],[80.6177,19.31168],[80.67946,19.33104],[80.69518,19.28888],[80.75687,19.29149],[80.85128,19.36892],[80.82173,19.38585],[80.79552,19.43125],[80.87511,19.44808],[80.89978,19.4861],[80.88664,19.52352],[80.85296,19.53361],[80.83517,19.56704],[80.77394,19.57259],[80.76547,19.59439],[80.72848,19.61254],[80.66493,19.61588],[80.67328,19.69613],[80.54702,19.77822],[80.54977,19.82281],[80.47645,19.82812],[80.46684,19.81479],[80.48754,19.79895],[80.48541,19.77596],[80.45974,19.79639],[80.40196,19.79799],[80.40479,19.81961],[80.43894,19.81372],[80.50482,19.87216],[80.48992,19.90223],[80.41493,19.90913],[80.41351,19.93568],[80.45094,19.95587],[80.48774,19.93108],[80.52767,19.9342],[80.55284,19.99044],[80.53982,20.00714],[80.55343,20.06883],[80.54762,20.11287],[80.50519,20.14188],[80.45853,20.14775],[80.44682,20.13201],[80.40101,20.14683],[80.39318,20.16558],[80.42114,20.19307],[80.3901,20.24435],[80.47262,20.2743],[80.51804,20.27233],[80.54923,20.30956],[80.62501,20.33641],[80.59324,20.39812],[80.61066,20.43581],[80.6019,20.44894],[80.62951,20.60615],[80.57447,20.61462],[80.51904,20.58731],[80.48872,20.61921],[80.51473,20.65667],[80.58728,20.68574],[80.55266,20.7673],[80.56302,20.82154],[80.54896,20.93557],[80.46262,20.93367],[80.43081,21.01099],[80.4544,21.038],[80.44036,21.09841],[80.45631,21.11321],[80.4457,21.12264],[80.46436,21.17401],[80.61056,21.22865],[80.68094,21.31026],[80.66368,21.33189],[80.60028,21.32586],[80.5241,21.3914],[80.45537,21.40313],[80.44745,21.37294],[80.41041,21.37729],[80.39609,21.40811],[80.41834,21.43891],[80.37625,21.52344],[80.33225,21.54844],[80.32718,21.57399],[80.29889,21.5784],[80.2672,21.62042],[80.22325,21.62058],[80.20733,21.6349],[80.15082,21.60517],[80.12183,21.60718],[80.0704,21.55477],[80.03505,21.55749],[80.00034,21.53486],[79.96823,21.55809],[79.93393,21.55379],[79.92256,21.5246],[79.86378,21.53095],[79.79847,21.58131],[79.73925,21.60234],[79.66471,21.57711],[79.65406,21.55697],[79.54309631800004,21.54394598400006],[79.54403,21.56867],[79.51228,21.58989],[79.50465,21.61196],[79.51809,21.6307],[79.49502,21.67361],[79.42217,21.69085],[79.40112,21.674],[79.35534,21.67826],[79.23492,21.72314],[79.22612,21.65011],[79.15399,21.65975],[79.09418,21.59845],[79.01557,21.6007],[79.00046,21.61791],[78.91916,21.59149],[78.91755,21.57007],[78.93375,21.55947],[78.91033,21.55401],[78.94657,21.51296],[78.93774,21.48669],[78.90165,21.49981],[78.88572,21.48422],[78.79037,21.48831],[78.77794,21.46632],[78.75853,21.50708],[78.73532,21.50471],[78.75295,21.49655],[78.72987,21.46354],[78.68972,21.48107],[78.5904,21.48591],[78.57206,21.51467],[78.51403,21.52734],[78.48583,21.50505],[78.43546,21.50065],[78.41886,21.57653],[78.42794,21.60071],[78.38483,21.61736],[78.36625,21.57705],[78.34204,21.58924],[78.30932,21.57016],[78.2713,21.59295],[78.26057,21.58392],[78.27444,21.56941],[78.18232,21.55537],[78.17436,21.49723],[77.98501,21.40153],[77.88647,21.3764],[77.80384,21.41093],[77.79791,21.38938],[77.70956,21.35771],[77.69546,21.39565],[77.67149,21.37008],[77.65522,21.39196],[77.60573,21.3921],[77.60899,21.36557],[77.58858,21.36304],[77.53121,21.41951],[77.51456,21.37528],[77.49101,21.37625],[77.47328,21.4553],[77.43928,21.47494],[77.42385,21.53699],[77.4615,21.55486],[77.57115,21.52812],[77.61136,21.54114],[77.57517,21.56095],[77.57552,21.62531],[77.54638,21.69918],[77.48187,21.76828],[77.40511,21.75422],[77.28377,21.75924],[77.28693,21.72226],[77.22828,21.71591],[77.21105,21.69205],[77.17503,21.72526],[77.16137,21.71161],[77.07576,21.7209],[77.03944,21.69914],[77.03361,21.72384],[77.01532,21.71685],[77.02435,21.69044],[76.90418,21.59887],[76.85512,21.61306],[76.83647,21.59111],[76.79822,21.59557],[76.78307,21.56054],[76.79066,21.53822],[76.76571,21.52075],[76.79461,21.48803],[76.78696,21.46466],[76.74609,21.44133],[76.73475,21.40702],[76.62695,21.33337],[76.66353,21.28074],[76.66094,21.24618],[76.64499,21.24609],[76.62573,21.19107],[76.5616,21.2042],[76.53136,21.18769],[76.48946,21.19444],[76.45466,21.11333],[76.41369,21.10573],[76.3843,21.07781],[76.39892,21.03085],[76.38408,20.97805],[76.34768,20.95031],[76.28136,20.95874],[76.2266,21.01245],[76.1673,21.04056],[76.16023,21.00088],[76.08492,20.92807],[76.08152,20.90858],[76.11622,20.89382],[76.11246,20.88225],[76.05189,20.81703],[76.05074,20.78879],[76.01313,20.78608],[75.98773,20.7594],[76.01685,20.73198],[75.99953,20.71325],[75.99895,20.66792],[76.01189,20.64359],[76.03366,20.63904],[76.04111,20.55562],[76.0193,20.55087],[76.01926,20.53085],[75.9748,20.53404],[75.95137,20.52012],[75.94324,20.49619],[75.95849,20.45731],[75.94302,20.42613],[75.96896,20.3742],[75.94299,20.37182],[75.92706,20.32073]]]}}]}