{"type":"FeatureCollection","features":[{"type":"Feature","properties":{"shapeName":"Yavatmal","shapeISO":"","shapeID":"76128533B61814103412294","shapeGroup":"IND","shapeType":"ADM2"},"geometry":{"type":"Polygon","coordinates":[[[77.2865,19.91109],[77.28597,19.90576],[77.28591,19.90549],[77.28611,19.9054],[77.2876,19.90483],[77.288,19.90412],[77.2881,19.90402],[77.2883,19.90388],[77.28843,19.90379],[77.2888,19.90311],[77.28974,19.90134],[77.29096,19.90086],[77.29339,19.89991],[77.29718,19.90077],[77.3015,19.90441],[77.30245,19.90521],[77.30455,19.90698],[77.31018,19.91029],[77.31142,19.91102],[77.31202,19.91093],[77.31269,19.91083],[77.31318,19.91076],[77.31378,19.91067],[77.31503,19.91048],[77.31621,19.91031],[77.31679,19.91022],[77.31723,19.90931],[77.31733,19.90909],[77.31744,19.90886],[77.31842,19.90678],[77.31712,19.90427],[77.31677,19.90358],[77.31667,19.90338],[77.31609,19.90226],[77.31632,19.90008],[77.31678,19.89565],[77.31695,19.89407],[77.3165,19.8915],[77.31567,19.89044],[77.31043,19.89124],[77.30825,19.89196],[77.30281,19.89376],[77.29948,19.89333],[77.29886,19.89325],[77.29791,19.89041],[77.29854,19.88574],[77.29787,19.88431],[77.29768,19.88389],[77.29749,19.88348],[77.29803,19.88246],[77.29816,19.88221],[77.29925,19.88015],[77.30068,19.87973],[77.30293,19.87908],[77.30303,19.87905],[77.30715,19.87892],[77.31866,19.88398],[77.32429,19.88558],[77.32664,19.88463],[77.32732,19.88435],[77.3289,19.88368],[77.32939,19.88298],[77.3309,19.88142],[77.33232,19.87985],[77.33302,19.87931],[77.33344,19.87912],[77.33377,19.87899],[77.33409,19.87891],[77.33519,19.87785],[77.33547,19.87758],[77.33671,19.87653],[77.3406,19.87478],[77.34083,19.87468],[77.34358,19.87445],[77.34627,19.87423],[77.3466,19.8742],[77.34699,19.87417],[77.34777,19.8741],[77.34856,19.87404],[77.34953,19.8725],[77.35028,19.87128],[77.35097,19.87018],[77.35079,19.86976],[77.3488,19.8653],[77.34942,19.86237],[77.34949,19.86203],[77.34963,19.86135],[77.34973,19.86088],[77.34974,19.86085],[77.35465,19.85915],[77.36133,19.85963],[77.36215,19.85947],[77.36243,19.85941],[77.36344,19.85922],[77.36597,19.85868],[77.36713,19.85216],[77.36516,19.85093],[77.36466,19.85062],[77.36424,19.85036],[77.36092,19.84829],[77.35739,19.8461],[77.35728,19.84603],[77.36416,19.83799],[77.36448,19.83759],[77.36445,19.83689],[77.36424,19.83364],[77.35694,19.83477],[77.3568,19.83477],[77.35594,19.83499],[77.3554,19.83512],[77.35473,19.83525],[77.3538,19.83532],[77.35319,19.83534],[77.35254,19.83539],[77.35199,19.83546],[77.35115,19.83572],[77.3508,19.8358],[77.35023,19.83585],[77.34976,19.83569],[77.34745,19.83466],[77.34687,19.8344],[77.34557,19.83353],[77.3452,19.82975],[77.34519,19.8297],[77.34557,19.8287],[77.34587,19.8286],[77.34748,19.82582],[77.34911,19.82449],[77.34987,19.82387],[77.35447,19.82011],[77.35792,19.81729],[77.3585,19.81682],[77.35931,19.8166],[77.36288,19.81565],[77.36342,19.81612],[77.36495,19.81742],[77.36507,19.81752],[77.36649,19.81874],[77.36924,19.82109],[77.37037,19.82205],[77.37132,19.82285],[77.37441,19.82281],[77.37823,19.82178],[77.37877,19.82177],[77.37977,19.82176],[77.38045,19.82154],[77.38114,19.821],[77.3828,19.82055],[77.38878,19.82132],[77.39065,19.82156],[77.39266,19.8178],[77.39284,19.81745],[77.39379,19.81568],[77.39589,19.81175],[77.39426,19.81064],[77.3912,19.80855],[77.39105,19.80845],[77.39065,19.80731],[77.38601,19.794],[77.38498,19.79105],[77.38422,19.78886],[77.38417,19.78874],[77.38443,19.78842],[77.3863,19.78603],[77.38637,19.78594],[77.38951,19.78193],[77.39037,19.78083],[77.39054,19.78062],[77.39746,19.77984],[77.3977,19.77981],[77.40077,19.77947],[77.40823,19.77863],[77.40858,19.77829],[77.40933,19.77756],[77.40957,19.77733],[77.4096,19.7772],[77.40971,19.77673],[77.41057,19.77316],[77.40898,19.76919],[77.40838,19.76769],[77.40779,19.76624],[77.40625,19.76537],[77.40519,19.76477],[77.40369,19.76516],[77.40181,19.76566],[77.39803,19.76666],[77.39679,19.76699],[77.39568,19.76694],[77.38775,19.76664],[77.38636,19.76151],[77.38545,19.75975],[77.38508,19.75904],[77.38407,19.75711],[77.38372,19.75643],[77.38316,19.75535],[77.38222,19.75354],[77.38039,19.75003],[77.38035,19.74982],[77.37972,19.74667],[77.37972,19.74626],[77.37996,19.7438],[77.37998,19.74356],[77.38237,19.74085],[77.38379,19.74009],[77.38552,19.73916],[77.3865,19.73714],[77.38704,19.73604],[77.38467,19.73264],[77.38398,19.73166],[77.38395,19.7308],[77.38391,19.72964],[77.3839,19.72942],[77.38612,19.72694],[77.3876,19.72642],[77.38952,19.72574],[77.39737,19.72636],[77.39745,19.72644],[77.39758,19.72657],[77.39764,19.72675],[77.39765,19.72695],[77.39763,19.72698],[77.39871,19.73009],[77.39899,19.73089],[77.39964,19.73278],[77.40188,19.73454],[77.40244,19.735],[77.40336,19.73574],[77.40526,19.73724],[77.40657,19.73828],[77.40664,19.73834],[77.40836,19.73971],[77.41397,19.74417],[77.41867,19.74012],[77.41909,19.73976],[77.41821,19.7378],[77.4181,19.73755],[77.41897,19.73688],[77.41919,19.73671],[77.42052,19.73569],[77.4252,19.73403],[77.43361,19.73106],[77.43533,19.73045],[77.43629,19.73011],[77.43655,19.73002],[77.43658,19.72976],[77.43669,19.72884],[77.43679,19.72798],[77.43694,19.72669],[77.43698,19.72632],[77.43701,19.72609],[77.43705,19.72581],[77.43706,19.72569],[77.43736,19.72548],[77.43877,19.72451],[77.43916,19.72423],[77.43928,19.72415],[77.44115,19.72285],[77.44137,19.72269],[77.44261,19.71729],[77.44289,19.71607],[77.4429,19.71601],[77.44305,19.71538],[77.44311,19.7151],[77.44321,19.71465],[77.44381,19.71428],[77.44395,19.71419],[77.44411,19.71409],[77.44513,19.71346],[77.44664,19.71253],[77.44846,19.7092],[77.44881,19.70696],[77.44903,19.70549],[77.44922,19.70427],[77.45013,19.70304],[77.45158,19.70109],[77.45164,19.70098],[77.45203,19.70047],[77.44957,19.69771],[77.44835,19.69635],[77.44528,19.69293],[77.44595,19.69072],[77.44662,19.68866],[77.44666,19.68837],[77.44669,19.68829],[77.44783,19.68808],[77.44791,19.68806],[77.4509,19.6875],[77.4516,19.68737],[77.4519,19.68715],[77.452,19.68713],[77.45233,19.68716],[77.45258,19.68711],[77.45286,19.687],[77.45377,19.68646],[77.45582,19.68523],[77.45913,19.68326],[77.46023,19.68258],[77.46167,19.68158],[77.46262,19.6809],[77.46306,19.68061],[77.46342,19.68036],[77.46801,19.67992],[77.47324,19.6819],[77.47617,19.68299],[77.47637,19.68308],[77.47728,19.68342],[77.4783,19.68324],[77.47969,19.683],[77.4799,19.68264],[77.48008,19.68234],[77.48221,19.67876],[77.48277,19.67782],[77.48289,19.67761],[77.48297,19.67748],[77.48306,19.67732],[77.4834,19.67701],[77.48549,19.67593],[77.48705,19.67664],[77.48831,19.67721],[77.48845,19.67727],[77.48928,19.67764],[77.49143,19.67861],[77.49213,19.67893],[77.49238,19.67899],[77.49471,19.67952],[77.49582,19.67943],[77.49774,19.67938],[77.49862,19.67942],[77.49912,19.67938],[77.50019,19.67916],[77.50058,19.67901],[77.50071,19.6789],[77.50084,19.67866],[77.501,19.67862],[77.50276,19.67825],[77.50597,19.6767],[77.51385,19.67507],[77.51528,19.67419],[77.51728,19.67295],[77.51964,19.67211],[77.52386,19.67061],[77.52761,19.67053],[77.52782,19.67052],[77.53015,19.67046],[77.53201,19.67003],[77.53434,19.66949],[77.53451,19.66943],[77.53562,19.66907],[77.53598,19.66918],[77.53658,19.66926],[77.53794,19.66927],[77.53915,19.66931],[77.5393,19.66931],[77.54016,19.66933],[77.53982,19.66594],[77.53982,19.66475],[77.53993,19.6647],[77.54007,19.66442],[77.54315,19.6631],[77.54447,19.66292],[77.54718,19.66256],[77.55254,19.66369],[77.55517,19.66425],[77.55566,19.66435],[77.55475,19.66093],[77.5549,19.65986],[77.55528,19.65714],[77.55585,19.65309],[77.55702,19.6529],[77.56139,19.6522],[77.56898,19.65099],[77.57407,19.6521],[77.57465,19.65223],[77.57662,19.65413],[77.57703,19.65454],[77.57745,19.65494],[77.57975,19.65716],[77.57997,19.65737],[77.58033,19.65777],[77.58062,19.658],[77.58092,19.6583],[77.5832,19.65736],[77.58431,19.65482],[77.58481,19.65369],[77.5864,19.65253],[77.58712,19.652],[77.59095,19.65175],[77.59131,19.65173],[77.5951,19.65148],[77.59762,19.65131],[77.60031,19.64841],[77.60169,19.64503],[77.6038,19.64588],[77.60398,19.64594],[77.6043,19.64607],[77.60506,19.6464],[77.60676,19.64704],[77.60754,19.64736],[77.60808,19.64757],[77.60864,19.6466],[77.60876,19.64639],[77.60961,19.64494],[77.60933,19.64365],[77.60923,19.64322],[77.60882,19.6414],[77.60913,19.64122],[77.60987,19.64076],[77.61047,19.64039],[77.6116,19.6397],[77.61278,19.63976],[77.61573,19.63991],[77.61602,19.63965],[77.61661,19.63914],[77.61672,19.639],[77.61682,19.63884],[77.61691,19.63857],[77.61702,19.63812],[77.61709,19.63762],[77.61702,19.63735],[77.61697,19.63725],[77.61676,19.63695],[77.61659,19.63667],[77.61642,19.63609],[77.61619,19.63568],[77.61609,19.63553],[77.61581,19.63524],[77.61549,19.63497],[77.61546,19.63428],[77.61475,19.63283],[77.61499,19.63246],[77.61617,19.63066],[77.61664,19.62994],[77.62382,19.62863],[77.62776,19.62791],[77.62909,19.62605],[77.62963,19.6253],[77.62983,19.62503],[77.63081,19.62189],[77.62942,19.61648],[77.62905,19.61506],[77.63008,19.60865],[77.63385,19.60896],[77.63451,19.60916],[77.63677,19.60987],[77.63701,19.60982],[77.63764,19.61001],[77.63782,19.61019],[77.63892,19.61053],[77.64049,19.61046],[77.64133,19.61043],[77.64322,19.61034],[77.64538,19.60842],[77.64542,19.60593],[77.64486,19.60395],[77.64436,19.60222],[77.6441,19.6013],[77.64388,19.60055],[77.64121,19.59678],[77.64121,19.59642],[77.6412,19.59293],[77.6412,19.59263],[77.64119,19.58965],[77.64119,19.5886],[77.64119,19.58812],[77.6443,19.57856],[77.64463,19.57756],[77.64552,19.57484],[77.64614,19.57295],[77.64831,19.56627],[77.64886,19.56461],[77.64994,19.55619],[77.64892,19.5562],[77.64766,19.55623],[77.64753,19.55623],[77.64292,19.55631],[77.63818,19.55812],[77.63684,19.55864],[77.63519,19.55683],[77.63476,19.55635],[77.6371,19.5545],[77.64052,19.5518],[77.64401,19.54983],[77.64488,19.54934],[77.64531,19.5491],[77.64625,19.54858],[77.64692,19.54819],[77.65152,19.54791],[77.65409,19.54757],[77.65474,19.54747],[77.65567,19.54771],[77.65991,19.54741],[77.66269,19.54683],[77.6665,19.54604],[77.66688,19.54582],[77.66745,19.54548],[77.66868,19.54473],[77.67421,19.54141],[77.68075,19.54102],[77.68588,19.54072],[77.69036,19.54043],[77.69442,19.53991],[77.69631,19.53958],[77.69866,19.5391],[77.69908,19.53884],[77.70099,19.5385],[77.70742,19.53379],[77.70832,19.53287],[77.71265,19.52814],[77.71443,19.5265],[77.7149,19.52619],[77.72003,19.52751],[77.72061,19.52767],[77.7219,19.52797],[77.72333,19.52831],[77.72805,19.53107],[77.72865,19.53142],[77.73005,19.53238],[77.73219,19.53245],[77.73286,19.5325],[77.73431,19.53269],[77.73718,19.53085],[77.74103,19.52837],[77.74158,19.52802],[77.74299,19.52712],[77.74362,19.52681],[77.74404,19.52656],[77.74483,19.52604],[77.74527,19.52575],[77.74577,19.52535],[77.75027,19.52244],[77.75133,19.52089],[77.75377,19.51733],[77.7538,19.51728],[77.75474,19.51591],[77.75445,19.51468],[77.75435,19.51428],[77.75406,19.51311],[77.75337,19.51027],[77.74914,19.5078],[77.74783,19.50699],[77.74171,19.50345],[77.73978,19.50232],[77.73921,19.50069],[77.73888,19.49996],[77.73806,19.49806],[77.73791,19.49772],[77.73705,19.49558],[77.73644,19.49239],[77.74034,19.4868],[77.74071,19.48477],[77.7409,19.48374],[77.74049,19.48334],[77.74027,19.48319],[77.73985,19.48281],[77.73935,19.48258],[77.73771,19.48162],[77.73643,19.48077],[77.73581,19.48011],[77.73516,19.47987],[77.7346,19.4798],[77.73382,19.47988],[77.73311,19.48006],[77.73082,19.47991],[77.7293,19.47937],[77.72657,19.47636],[77.72619,19.47536],[77.72517,19.4754],[77.72288,19.47552],[77.71817,19.47751],[77.71534,19.47722],[77.7146,19.47714],[77.71128,19.46788],[77.70983,19.46707],[77.70932,19.46689],[77.70882,19.46657],[77.70788,19.46611],[77.70759,19.4658],[77.70711,19.46552],[77.70432,19.46386],[77.70215,19.46266],[77.7007,19.46137],[77.69969,19.46041],[77.69956,19.45994],[77.69936,19.45917],[77.69906,19.45803],[77.69871,19.45],[77.69658,19.44163],[77.69693,19.44135],[77.69952,19.4393],[77.70508,19.43929],[77.70823,19.4378],[77.71248,19.43796],[77.7138,19.43802],[77.71652,19.43694],[77.7188,19.43672],[77.72046,19.43629],[77.72091,19.43614],[77.72195,19.43566],[77.72323,19.43523],[77.72416,19.43494],[77.72637,19.43465],[77.72863,19.43449],[77.73058,19.43446],[77.7319,19.43454],[77.73241,19.4346],[77.73533,19.43543],[77.73641,19.43562],[77.73664,19.43571],[77.74138,19.43771],[77.74349,19.43753],[77.74528,19.43572],[77.7496,19.43168],[77.75479,19.43237],[77.75576,19.43264],[77.75678,19.43293],[77.75788,19.4333],[77.75865,19.43356],[77.76315,19.43503],[77.76705,19.43642],[77.76923,19.43716],[77.77183,19.43805],[77.77558,19.43933],[77.77701,19.44085],[77.77852,19.44195],[77.77975,19.44289],[77.78095,19.44397],[77.78196,19.44489],[77.78251,19.44551],[77.78703,19.44784],[77.78773,19.44835],[77.78818,19.44848],[77.78862,19.44866],[77.78901,19.44907],[77.78918,19.44926],[77.78938,19.44954],[77.78968,19.44974],[77.79009,19.44983],[77.79052,19.44985],[77.79169,19.44975],[77.79415,19.45028],[77.79545,19.45051],[77.79882,19.45111],[77.80012,19.45569],[77.80194,19.46002],[77.80239,19.46112],[77.80335,19.4621],[77.80379,19.46295],[77.80395,19.46327],[77.8042,19.46353],[77.80545,19.46495],[77.80983,19.46381],[77.81054,19.46361],[77.81329,19.45943],[77.81464,19.45738],[77.81672,19.45422],[77.82027,19.44595],[77.82218,19.44453],[77.82253,19.44427],[77.82627,19.44149],[77.83048,19.43954],[77.83061,19.43942],[77.83097,19.43931],[77.83166,19.43941],[77.83224,19.4395],[77.83529,19.43997],[77.83771,19.4477],[77.83816,19.44908],[77.83825,19.44943],[77.8401,19.4501],[77.84547,19.45213],[77.84641,19.45248],[77.84763,19.45293],[77.84813,19.45646],[77.84411,19.45947],[77.83854,19.46364],[77.83276,19.46929],[77.82908,19.47466],[77.82813,19.47605],[77.8291,19.48095],[77.8333,19.4819],[77.84278,19.48405],[77.84411,19.48435],[77.84553,19.48561],[77.84723,19.4871],[77.84755,19.48738],[77.84737,19.48781],[77.84734,19.48789],[77.84433,19.495],[77.8443,19.49538],[77.84418,19.49665],[77.84343,19.51048],[77.8448,19.51206],[77.84612,19.5135],[77.84806,19.51554],[77.8486,19.51601],[77.85411,19.51841],[77.85489,19.51859],[77.85635,19.51892],[77.86181,19.52014],[77.86207,19.52022],[77.8628,19.51977],[77.86484,19.51832],[77.86569,19.51772],[77.86588,19.51752],[77.86616,19.5173],[77.86651,19.51713],[77.86857,19.5157],[77.87035,19.51441],[77.87098,19.51428],[77.87766,19.51293],[77.87797,19.5128],[77.87845,19.51207],[77.87926,19.50983],[77.87976,19.50647],[77.87993,19.50539],[77.88246,19.50176],[77.88285,19.50112],[77.88464,19.50092],[77.88605,19.50098],[77.89114,19.50572],[77.88968,19.51062],[77.88893,19.51314],[77.89042,19.51952],[77.89075,19.51984],[77.89165,19.52044],[77.89272,19.52084],[77.89576,19.52225],[77.89698,19.52277],[77.89794,19.52323],[77.89932,19.52377],[77.901,19.52605],[77.9021,19.52734],[77.90232,19.52762],[77.90331,19.52983],[77.90362,19.53063],[77.9037,19.53068],[77.90476,19.53303],[77.90542,19.53334],[77.90584,19.53325],[77.90681,19.53331],[77.90735,19.53341],[77.9079,19.53356],[77.90833,19.53355],[77.90901,19.53336],[77.90937,19.53313],[77.91032,19.53276],[77.91105,19.53261],[77.91336,19.53157],[77.91348,19.52847],[77.91539,19.52191],[77.91566,19.52099],[77.91605,19.51966],[77.9171,19.51576],[77.91727,19.51565],[77.92289,19.51346],[77.92553,19.51235],[77.92692,19.51177],[77.92782,19.51139],[77.92894,19.51092],[77.933,19.50922],[77.93468,19.5072],[77.93619,19.50539],[77.93664,19.50484],[77.93873,19.50103],[77.94197,19.49973],[77.94284,19.49941],[77.94403,19.49894],[77.94807,19.50167],[77.95372,19.51008],[77.9574,19.51105],[77.95865,19.51139],[77.9594,19.51159],[77.96135,19.51151],[77.96248,19.51103],[77.96341,19.51075],[77.96476,19.51042],[77.9659,19.51005],[77.96678,19.50992],[77.96858,19.50982],[77.96899,19.50981],[77.9695,19.50979],[77.97018,19.50962],[77.97077,19.5094],[77.97297,19.50912],[77.97632,19.50673],[77.97454,19.49704],[77.97485,19.49616],[77.97504,19.49564],[77.97517,19.49538],[77.98083,19.48973],[77.98601,19.48246],[77.98637,19.48215],[77.98735,19.48133],[77.98865,19.48003],[77.98902,19.47942],[77.98962,19.47825],[77.98975,19.47787],[77.98989,19.47668],[77.98978,19.47605],[77.98949,19.47536],[77.98904,19.47369],[77.98866,19.47294],[77.98832,19.47249],[77.98801,19.47213],[77.98753,19.47172],[77.98721,19.46972],[77.98712,19.46806],[77.987,19.46604],[77.98761,19.46061],[77.99037,19.45839],[77.99232,19.45654],[77.99339,19.45705],[77.9935,19.45715],[77.99365,19.45728],[77.99483,19.45828],[78.00013,19.46286],[78.00059,19.46325],[78.00391,19.46283],[78.01,19.46206],[78.01193,19.46414],[78.01374,19.46609],[78.01442,19.47148],[78.01491,19.47191],[78.01489,19.47214],[78.0148,19.47301],[78.01478,19.47346],[78.01479,19.47406],[78.01463,19.47582],[78.01446,19.47712],[78.01429,19.47935],[78.0144,19.48005],[78.01456,19.48025],[78.01479,19.48057],[78.01484,19.48074],[78.01482,19.48151],[78.0149,19.48189],[78.01498,19.48225],[78.01528,19.48277],[78.01551,19.4832],[78.01557,19.48346],[78.01579,19.48512],[78.01593,19.48559],[78.0163,19.48826],[78.01688,19.49087],[78.01699,19.49138],[78.02007,19.49676],[78.02646,19.49805],[78.03128,19.49534],[78.03327,19.49359],[78.03988,19.48781],[78.04006,19.48765],[78.04472,19.48357],[78.05173,19.47903],[78.05452,19.47723],[78.05655,19.4751],[78.06376,19.46755],[78.06604,19.4676],[78.06843,19.46765],[78.07477,19.47168],[78.07886,19.4752],[78.08052,19.47664],[78.08361,19.4793],[78.09134,19.4847],[78.09322,19.48601],[78.09532,19.48748],[78.09604,19.48798],[78.10254,19.48759],[78.1074,19.48932],[78.11154,19.4908],[78.11494,19.49202],[78.11944,19.4976],[78.12115,19.5011],[78.12198,19.50583],[78.12245,19.50893],[78.12263,19.50951],[78.12289,19.50996],[78.12278,19.51097],[78.12392,19.51524],[78.12411,19.51554],[78.12466,19.5164],[78.12489,19.51675],[78.12566,19.51794],[78.12576,19.51809],[78.12735,19.51943],[78.12826,19.5202],[78.13052,19.52212],[78.13482,19.52582],[78.13567,19.52648],[78.13587,19.52824],[78.13682,19.53182],[78.1363,19.53348],[78.13613,19.53404],[78.13559,19.53576],[78.13476,19.53672],[78.13402,19.53758],[78.13079,19.54134],[78.12526,19.54603],[78.12475,19.54646],[78.12399,19.54711],[78.12311,19.54892],[78.12235,19.55053],[78.12124,19.55267],[78.1209,19.55337],[78.12046,19.55426],[78.12354,19.55672],[78.12532,19.55815],[78.13217,19.55817],[78.13604,19.55649],[78.13807,19.55561],[78.14053,19.55455],[78.1447,19.55398],[78.14797,19.55354],[78.15025,19.55416],[78.15754,19.55613],[78.15897,19.55651],[78.16691,19.5595],[78.16719,19.55963],[78.16765,19.55978],[78.18515,19.5643],[78.18758,19.56633],[78.18852,19.56708],[78.18958,19.568],[78.1898,19.56898],[78.19018,19.5707],[78.19042,19.57179],[78.18995,19.57321],[78.18833,19.57815],[78.18782,19.57977],[78.1874,19.58097],[78.1873,19.58125],[78.18617,19.58472],[78.18859,19.58764],[78.19069,19.59033],[78.19177,19.59159],[78.19287,19.59282],[78.19265,19.6009],[78.19258,19.60321],[78.19256,19.60388],[78.19251,19.60543],[78.19308,19.60723],[78.19321,19.60801],[78.19334,19.60828],[78.19361,19.60864],[78.19419,19.60948],[78.19472,19.61048],[78.19492,19.61078],[78.19508,19.61104],[78.19516,19.61156],[78.19603,19.61455],[78.19607,19.61525],[78.19608,19.61546],[78.19625,19.61891],[78.19622,19.61916],[78.19605,19.62037],[78.19588,19.62164],[78.19539,19.62518],[78.19537,19.6253],[78.19527,19.62607],[78.19525,19.62622],[78.19506,19.62658],[78.19504,19.62662],[78.19472,19.62724],[78.19469,19.6273],[78.19454,19.6276],[78.19434,19.628],[78.19416,19.62834],[78.19414,19.6284],[78.19406,19.62855],[78.19395,19.62876],[78.19384,19.62898],[78.19378,19.62909],[78.19228,19.63202],[78.19181,19.63294],[78.18996,19.63656],[78.18761,19.64311],[78.18195,19.65193],[78.1812,19.6531],[78.17955,19.65568],[78.17754,19.6565],[78.17493,19.65759],[78.16924,19.65863],[78.16815,19.65921],[78.16756,19.65952],[78.16532,19.66071],[78.16362,19.66162],[78.16124,19.6625],[78.15367,19.66532],[78.15302,19.66543],[78.15121,19.66572],[78.14622,19.66654],[78.14556,19.66665],[78.14086,19.66742],[78.13765,19.66758],[78.1364,19.66758],[78.13161,19.66775],[78.12789,19.66476],[78.12646,19.66032],[78.12294,19.65865],[78.10763,19.66058],[78.10623,19.65972],[78.10517,19.65907],[78.10271,19.65756],[78.09846,19.65227],[78.09716,19.64906],[78.09622,19.64739],[78.09572,19.64647],[78.09567,19.64586],[78.0929,19.64595],[78.09042,19.64585],[78.08898,19.64646],[78.08498,19.64816],[78.08354,19.64877],[78.08343,19.64881],[78.08279,19.64909],[78.08143,19.65085],[78.07999,19.65272],[78.07732,19.6562],[78.07436,19.66113],[78.07243,19.66436],[78.06779,19.66856],[78.06754,19.66879],[78.06217,19.67027],[78.05691,19.67169],[78.05715,19.67242],[78.05713,19.67304],[78.05665,19.67531],[78.05657,19.67566],[78.05656,19.67967],[78.05603,19.68582],[78.05345,19.69218],[78.04767,19.69952],[78.04761,19.69953],[78.04343,19.70041],[78.04303,19.70049],[78.04087,19.70094],[78.04004,19.70084],[78.03582,19.70029],[78.03241,19.69985],[78.02981,19.69879],[78.024,19.69643],[78.0236,19.69627],[78.02253,19.69583],[78.01983,19.69474],[78.01519,19.69169],[78.01467,19.69135],[78.01434,19.69113],[78.01104,19.68897],[78.0007,19.68218],[78.00059,19.68211],[78.00037,19.68205],[77.99872,19.68164],[77.99827,19.68153],[77.99805,19.68147],[77.99761,19.68136],[77.99448,19.68138],[77.99314,19.68139],[77.98904,19.68142],[77.98513,19.6872],[77.98526,19.68928],[77.98561,19.69472],[77.98563,19.69507],[77.98565,19.69532],[77.98567,19.6957],[77.98596,19.70004],[77.98269,19.70224],[77.97825,19.70275],[77.97664,19.70324],[77.97495,19.70364],[77.97267,19.70383],[77.97182,19.7039],[77.97047,19.70409],[77.96548,19.70704],[77.96487,19.70874],[77.96406,19.71103],[77.96321,19.71342],[77.96159,19.71799],[77.95376,19.72999],[77.95071,19.73139],[77.94705,19.73307],[77.94109,19.73581],[77.93744,19.73749],[77.93414,19.73995],[77.93217,19.73914],[77.93109,19.73868],[77.92999,19.7384],[77.92872,19.73831],[77.92787,19.73812],[77.92736,19.73794],[77.92593,19.73713],[77.92508,19.73649],[77.92385,19.73531],[77.92033,19.73233],[77.91733,19.73127],[77.91499,19.73041],[77.91048,19.73156],[77.90721,19.73239],[77.90641,19.73278],[77.90289,19.73551],[77.9003,19.73551],[77.90005,19.73551],[77.89911,19.73421],[77.89898,19.73398],[77.89851,19.73296],[77.89793,19.72943],[77.89654,19.72621],[77.89433,19.72703],[77.89324,19.72737],[77.89217,19.72782],[77.88813,19.73109],[77.88668,19.73226],[77.88546,19.73325],[77.87947,19.73811],[77.87896,19.7385],[77.87868,19.74028],[77.87822,19.74244],[77.87821,19.74322],[77.87802,19.74441],[77.87733,19.74507],[77.87606,19.74473],[77.87453,19.74432],[77.87283,19.74386],[77.87142,19.74299],[77.87037,19.74234],[77.86727,19.74187],[77.86381,19.74235],[77.86329,19.74267],[77.86184,19.74355],[77.86112,19.74428],[77.86099,19.74511],[77.85986,19.75217],[77.8596,19.75377],[77.86505,19.76384],[77.86683,19.76713],[77.86611,19.77204],[77.86525,19.77383],[77.86499,19.77438],[77.86391,19.77595],[77.86259,19.77923],[77.86118,19.78083],[77.85616,19.78672],[77.85381,19.78941],[77.85257,19.7915],[77.85143,19.79344],[77.85125,19.79375],[77.85005,19.79962],[77.84983,19.80066],[77.84966,19.8014],[77.85297,19.80597],[77.85536,19.80928],[77.85555,19.80954],[77.85695,19.81147],[77.86382,19.81716],[77.87002,19.82355],[77.8709,19.82452],[77.87137,19.82673],[77.87172,19.82834],[77.87171,19.82932],[77.8717,19.82982],[77.87129,19.83352],[77.87134,19.83379],[77.87153,19.83435],[77.87195,19.83529],[77.87306,19.83763],[77.87374,19.83889],[77.87417,19.84021],[77.8743,19.84069],[77.87469,19.84216],[77.87469,19.84261],[77.87476,19.84308],[77.87484,19.84343],[77.87499,19.84371],[77.87544,19.845],[77.87567,19.84587],[77.8768,19.85017],[77.87697,19.8503],[77.87773,19.85045],[77.87812,19.85063],[77.87879,19.85116],[77.87952,19.85186],[77.88006,19.85258],[77.8842,19.85564],[77.88437,19.85581],[77.88678,19.85754],[77.887,19.85827],[77.88721,19.85901],[77.88824,19.86247],[77.8899,19.86426],[77.89135,19.86561],[77.89221,19.867],[77.89256,19.86777],[77.8928,19.87196],[77.89327,19.8727],[77.89389,19.87395],[77.89419,19.87463],[77.89448,19.87498],[77.89567,19.87612],[77.89601,19.87661],[77.89679,19.87711],[77.8974,19.87746],[77.89833,19.87802],[77.89868,19.87831],[77.89941,19.87917],[77.89984,19.87952],[77.90057,19.87999],[77.90062,19.87999],[77.90332,19.88095],[77.90459,19.88127],[77.91558,19.88403],[77.9161,19.88416],[77.92037,19.88523],[77.92092,19.88579],[77.92132,19.88632],[77.92182,19.88711],[77.92451,19.89202],[77.92494,19.89225],[77.92715,19.89177],[77.92891,19.89169],[77.92902,19.8917],[77.93491,19.89141],[77.94013,19.8932],[77.94072,19.89405],[77.94077,19.89425],[77.9409,19.89486],[77.9411,19.89516],[77.94146,19.89541],[77.94167,19.89563],[77.94196,19.89623],[77.94225,19.89676],[77.94235,19.89708],[77.94249,19.89809],[77.9426,19.89852],[77.94276,19.8989],[77.94337,19.89966],[77.94393,19.90027],[77.94436,19.90131],[77.94762,19.90647],[77.94841,19.90773],[77.94967,19.90858],[77.95062,19.90923],[77.95448,19.91184],[77.96082,19.91165],[77.96559,19.91053],[77.96874,19.91076],[77.97023,19.91087],[77.97205,19.91101],[77.97907,19.91354],[77.98315,19.91616],[77.98875,19.91733],[77.99117,19.91717],[77.99289,19.91705],[78.00048,19.91837],[78.00059,19.91839],[78.01219,19.91489],[78.01248,19.9148],[78.01923,19.91624],[78.01962,19.91666],[78.02203,19.91925],[78.02309,19.9204],[78.02367,19.92103],[78.02378,19.92115],[78.02844,19.92617],[78.03402,19.92907],[78.04301,19.93072],[78.04869,19.93176],[78.05281,19.93142],[78.05384,19.93133],[78.05567,19.92953],[78.05792,19.92454],[78.05819,19.92348],[78.05866,19.92174],[78.05884,19.92141],[78.05904,19.92091],[78.05921,19.92037],[78.0593,19.91984],[78.05925,19.91943],[78.05916,19.91909],[78.05944,19.91869],[78.0638,19.9132],[78.06482,19.9123],[78.07062,19.90719],[78.07204,19.90617],[78.07497,19.90407],[78.07896,19.90121],[78.08825,19.89944],[78.09014,19.89907],[78.0945,19.89825],[78.0968,19.89801],[78.10359,19.89729],[78.1049,19.89741],[78.10547,19.89746],[78.10596,19.8975],[78.10663,19.89756],[78.1068,19.89758],[78.10709,19.8976],[78.10947,19.89781],[78.11208,19.89804],[78.1127,19.89816],[78.11898,19.89933],[78.11946,19.89942],[78.12127,19.89975],[78.12339,19.90015],[78.12622,19.90068],[78.12868,19.90153],[78.13169,19.90262],[78.1355,19.90712],[78.1382,19.91198],[78.14026,19.91378],[78.1427,19.91591],[78.14514,19.91613],[78.14638,19.91624],[78.14751,19.91634],[78.15003,19.91656],[78.1503,19.91648],[78.15426,19.91524],[78.15677,19.91446],[78.15769,19.91431],[78.16279,19.91347],[78.16783,19.91265],[78.16963,19.91236],[78.17246,19.9119],[78.17352,19.91173],[78.17842,19.91092],[78.18052,19.90962],[78.18083,19.90943],[78.18165,19.90892],[78.18978,19.90391],[78.19576,19.90299],[78.19909,19.90317],[78.20108,19.90327],[78.20125,19.90335],[78.20369,19.90447],[78.21034,19.90751],[78.21697,19.91225],[78.21932,19.91393],[78.22237,19.9161],[78.22695,19.91662],[78.23087,19.91706],[78.23477,19.91856],[78.23697,19.91941],[78.2403,19.92457],[78.24241,19.92577],[78.24772,19.92878],[78.24871,19.92899],[78.25234,19.92976],[78.25334,19.92997],[78.2582,19.92638],[78.25862,19.92528],[78.25935,19.92336],[78.25966,19.92252],[78.26012,19.9213],[78.26081,19.91949],[78.2602,19.91243],[78.25767,19.90787],[78.25753,19.90763],[78.25584,19.90457],[78.25562,19.90438],[78.25538,19.90418],[78.25507,19.90391],[78.24955,19.89924],[78.24892,19.89871],[78.2441,19.89294],[78.24321,19.88943],[78.24316,19.88922],[78.24288,19.88811],[78.24391,19.88656],[78.24409,19.88628],[78.24521,19.88459],[78.24691,19.88202],[78.25191,19.87446],[78.25215,19.8744],[78.25526,19.87361],[78.26217,19.87509],[78.26779,19.87629],[78.276,19.88022],[78.27837,19.88271],[78.27854,19.88289],[78.28091,19.88537],[78.28111,19.88559],[78.28132,19.88581],[78.28288,19.89207],[78.28305,19.89351],[78.28427,19.90413],[78.28439,19.90519],[78.28463,19.9072],[78.28466,19.90749],[78.28474,19.90817],[78.28559,19.90914],[78.28749,19.9113],[78.28968,19.91241],[78.29121,19.91318],[78.29523,19.91519],[78.30303,19.91777],[78.30795,19.91615],[78.3082,19.91607],[78.30914,19.91576],[78.31201,19.91481],[78.31261,19.91461],[78.31531,19.91372],[78.32022,19.91516],[78.3217,19.91559],[78.32187,19.91564],[78.3225,19.91582],[78.32464,19.91645],[78.32876,19.91674],[78.32917,19.91677],[78.33258,19.91701],[78.33351,19.91708],[78.33707,19.91392],[78.34027,19.91111],[78.34027,19.91106],[78.34026,19.911],[78.34024,19.91076],[78.34016,19.9099],[78.34007,19.90897],[78.33974,19.90531],[78.33176,19.90039],[78.32811,19.89599],[78.33039,19.8915],[78.33666,19.88736],[78.33932,19.88561],[78.34025,19.88499],[78.34141,19.88423],[78.34523,19.88358],[78.34647,19.88337],[78.34741,19.88321],[78.34755,19.88319],[78.35167,19.88249],[78.35186,19.88246],[78.35584,19.88278],[78.35956,19.88307],[78.36074,19.88316],[78.36237,19.88329],[78.36334,19.88336],[78.36356,19.88338],[78.36457,19.88346],[78.36496,19.88349],[78.37095,19.88396],[78.37497,19.8823],[78.37593,19.8819],[78.37968,19.88035],[78.3809,19.88035],[78.38278,19.88034],[78.38427,19.88034],[78.38602,19.88033],[78.38682,19.88033],[78.38937,19.88032],[78.39015,19.87531],[78.3902,19.87499],[78.38941,19.86474],[78.39064,19.85937],[78.39122,19.85683],[78.3912,19.8556],[78.39117,19.85384],[78.39448,19.84733],[78.40181,19.83884],[78.40201,19.83861],[78.40213,19.83847],[78.40255,19.83799],[78.40258,19.83796],[78.40291,19.83757],[78.40295,19.83755],[78.40854,19.83435],[78.40982,19.83362],[78.4143,19.83106],[78.42041,19.829],[78.42286,19.82813],[78.43119,19.82527],[78.43397,19.82432],[78.43825,19.82329],[78.443,19.82214],[78.44388,19.82192],[78.4499,19.82047],[78.45101,19.8203],[78.45489,19.81972],[78.45567,19.81961],[78.46295,19.81852],[78.46474,19.81825],[78.4698,19.8175],[78.47,19.81747],[78.4738,19.81752],[78.47411,19.81752],[78.47722,19.81757],[78.4779,19.81758],[78.47993,19.81761],[78.48155,19.81763],[78.48411,19.81475],[78.48967,19.80849],[78.49485,19.79982],[78.49908,19.79477],[78.49919,19.79464],[78.49932,19.79448],[78.50024,19.79441],[78.50448,19.79409],[78.50543,19.79402],[78.50907,19.79375],[78.51503,19.80251],[78.51637,19.80883],[78.51701,19.81186],[78.5178,19.8156],[78.5204,19.81773],[78.52091,19.81815],[78.52113,19.81833],[78.52269,19.81961],[78.52438,19.821],[78.52464,19.82121],[78.52494,19.82129],[78.53141,19.8229],[78.5317,19.82297],[78.53633,19.82209],[78.53703,19.82196],[78.53845,19.82169],[78.53944,19.82151],[78.54135,19.82113],[78.54193,19.82103],[78.54314,19.8208],[78.5439,19.82066],[78.54467,19.82051],[78.54929,19.81964],[78.55071,19.81937],[78.56076,19.81746],[78.56093,19.81743],[78.56127,19.81736],[78.56339,19.81696],[78.56514,19.81676],[78.56863,19.81637],[78.56947,19.81627],[78.57022,19.81619],[78.5708,19.81612],[78.5756,19.81558],[78.57851,19.81524],[78.57863,19.81523],[78.57914,19.81518],[78.57919,19.81517],[78.57956,19.8151],[78.5905,19.81307],[78.59727,19.81678],[78.60081,19.81873],[78.60115,19.81874],[78.60507,19.81882],[78.6092,19.8189],[78.61952,19.81482],[78.6199,19.81467],[78.6249,19.81014],[78.62942,19.80874],[78.63147,19.80811],[78.63179,19.80801],[78.63589,19.80674],[78.64079,19.80523],[78.64147,19.80511],[78.65102,19.80343],[78.65186,19.80328],[78.65393,19.80292],[78.65678,19.80207],[78.6607,19.80089],[78.66478,19.79966],[78.67125,19.79771],[78.67667,19.79608],[78.67728,19.79591],[78.67839,19.79558],[78.68456,19.79371],[78.68728,19.79289],[78.69116,19.79172],[78.69202,19.79146],[78.69216,19.79146],[78.69293,19.79144],[78.70158,19.79123],[78.70618,19.78802],[78.70747,19.78712],[78.711,19.781],[78.71436,19.77517],[78.71488,19.77427],[78.71891,19.77102],[78.72154,19.76889],[78.72157,19.76886],[78.7216,19.76884],[78.72195,19.76856],[78.72216,19.76839],[78.72623,19.76946],[78.73043,19.77056],[78.73468,19.77287],[78.73486,19.77297],[78.73571,19.77343],[78.73757,19.77444],[78.74338,19.78032],[78.74345,19.78039],[78.74364,19.78059],[78.74407,19.78102],[78.74713,19.78117],[78.74732,19.78118],[78.74881,19.78125],[78.75095,19.7807],[78.75171,19.7805],[78.754,19.77991],[78.75799,19.77889],[78.76329,19.7781],[78.76541,19.77779],[78.76548,19.77778],[78.76799,19.7774],[78.76868,19.7773],[78.76898,19.77725],[78.77307,19.77878],[78.77391,19.7791],[78.77507,19.77953],[78.7773,19.78036],[78.77806,19.78064],[78.77826,19.78071],[78.77898,19.78099],[78.77976,19.78095],[78.79067,19.78038],[78.79916,19.77326],[78.79944,19.77302],[78.79948,19.77298],[78.79968,19.77281],[78.80251,19.77044],[78.80275,19.77024],[78.80569,19.76625],[78.809,19.76175],[78.81064,19.76098],[78.8109,19.76086],[78.81298,19.75989],[78.81326,19.75976],[78.81335,19.75972],[78.81343,19.75968],[78.81688,19.76055],[78.81767,19.76075],[78.8185,19.76096],[78.82059,19.76149],[78.82097,19.76159],[78.82212,19.76188],[78.82288,19.76207],[78.82298,19.7621],[78.82843,19.76209],[78.83112,19.76208],[78.83514,19.76261],[78.83552,19.76266],[78.83716,19.76287],[78.83895,19.7631],[78.84124,19.7634],[78.84415,19.76379],[78.84645,19.76263],[78.8469,19.7624],[78.85019,19.76073],[78.85193,19.76349],[78.85238,19.76421],[78.85289,19.76502],[78.85363,19.7662],[78.85412,19.76697],[78.85781,19.76965],[78.85896,19.77049],[78.85935,19.77077],[78.8672,19.77027],[78.86987,19.76963],[78.87059,19.76936],[78.87091,19.7693],[78.87154,19.76923],[78.87551,19.76828],[78.8775,19.76674],[78.87826,19.76632],[78.87867,19.76604],[78.8791,19.76573],[78.87964,19.76509],[78.88124,19.76384],[78.88148,19.76187],[78.88168,19.76025],[78.88177,19.75941],[78.88124,19.75744],[78.88142,19.75698],[78.88088,19.75478],[78.88035,19.75259],[78.88279,19.74798],[78.88294,19.74769],[78.8835,19.74663],[78.88753,19.74517],[78.89049,19.7441],[78.89121,19.74374],[78.89275,19.74298],[78.90056,19.7391],[78.90078,19.73899],[78.9018,19.73849],[78.90236,19.73821],[78.90337,19.7377],[78.90814,19.73875],[78.91608,19.74252],[78.91733,19.74312],[78.9176,19.74325],[78.91918,19.74379],[78.91946,19.74388],[78.92039,19.7442],[78.9241,19.74547],[78.92472,19.7456],[78.93144,19.74696],[78.93206,19.74708],[78.93849,19.7473],[78.93893,19.74731],[78.93982,19.74734],[78.94152,19.7474],[78.94936,19.74924],[78.95209,19.75361],[78.95215,19.75422],[78.95214,19.75426],[78.95186,19.75519],[78.95059,19.75935],[78.9482,19.76377],[78.94762,19.76454],[78.94594,19.76679],[78.94534,19.76766],[78.94453,19.76869],[78.9419,19.77222],[78.94159,19.77429],[78.94155,19.77455],[78.94131,19.77618],[78.94091,19.77891],[78.94231,19.78518],[78.94252,19.78541],[78.94326,19.78619],[78.94335,19.78652],[78.94361,19.78718],[78.94436,19.78799],[78.94544,19.78914],[78.95027,19.79677],[78.95058,19.79728],[78.95067,19.79741],[78.95106,19.79772],[78.95688,19.80249],[78.95844,19.80377],[78.96036,19.804],[78.96275,19.80419],[78.96893,19.80467],[78.97219,19.80495],[78.97524,19.80483],[78.97652,19.80486],[78.97774,19.80481],[78.97826,19.80479],[78.97859,19.80478],[78.98456,19.80454],[78.98684,19.80437],[78.98917,19.80435],[78.99048,19.80429],[78.99065,19.80432],[78.99778,19.80534],[78.99929,19.80508],[79.00139,19.80472],[79.00759,19.80459],[79.0096,19.80448],[79.01093,19.8045],[79.01164,19.80451],[79.01388,19.80335],[79.01402,19.80322],[79.02091,19.79971],[79.02819,19.80157],[79.02879,19.80172],[79.02976,19.80197],[79.0355,19.80701],[79.03765,19.81184],[79.0387,19.8142],[79.04333,19.81777],[79.05182,19.81569],[79.05905,19.81511],[79.05936,19.81509],[79.065,19.81533],[79.06502,19.81575],[79.06541,19.81571],[79.06687,19.81575],[79.07042,19.81741],[79.07331,19.81877],[79.07803,19.82162],[79.08034,19.82346],[79.08053,19.82362],[79.08127,19.82444],[79.08143,19.82462],[79.08468,19.82711],[79.08519,19.8276],[79.08604,19.82881],[79.08731,19.83078],[79.08753,19.83111],[79.08773,19.83129],[79.08802,19.83151],[79.08873,19.8323],[79.08881,19.83245],[79.0895,19.83392],[79.08996,19.83458],[79.09002,19.83468],[79.09011,19.83474],[79.09101,19.83569],[79.09108,19.8358],[79.09111,19.83672],[79.09106,19.83685],[79.09151,19.83794],[79.09435,19.84093],[79.09451,19.8411],[79.09856,19.8419],[79.09924,19.84203],[79.10026,19.84223],[79.10348,19.84287],[79.11022,19.8471],[79.11201,19.84904],[79.11244,19.84932],[79.1128,19.84954],[79.11292,19.84968],[79.11297,19.84976],[79.11362,19.85082],[79.12116,19.85905],[79.12545,19.86195],[79.12556,19.86202],[79.13303,19.86363],[79.1363,19.86617],[79.13805,19.87069],[79.13836,19.87149],[79.13845,19.87172],[79.14238,19.87716],[79.14465,19.88025],[79.14665,19.88301],[79.14707,19.88358],[79.14722,19.88378],[79.14989,19.88746],[79.15195,19.89325],[79.1521,19.89366],[79.15082,19.89402],[79.14753,19.89495],[79.1472,19.89504],[79.14523,19.8956],[79.14076,19.89685],[79.13871,19.89743],[79.13797,19.8979],[79.13557,19.89842],[79.13305,19.89906],[79.13288,19.89908],[79.13211,19.89911],[79.13192,19.89913],[79.13096,19.89947],[79.12851,19.90017],[79.12767,19.90044],[79.1252,19.90125],[79.1228,19.90193],[79.12024,19.90265],[79.11545,19.90396],[79.11495,19.90412],[79.11466,19.90421],[79.11407,19.90439],[79.11329,19.90541],[79.11271,19.90617],[79.11033,19.90927],[79.10956,19.91028],[79.10593,19.91204],[79.10568,19.91216],[79.10481,19.91259],[79.10358,19.91319],[79.10275,19.91359],[79.09596,19.91509],[79.09554,19.91522],[79.09533,19.91528],[79.09465,19.91689],[79.09459,19.91704],[79.09318,19.92036],[79.09316,19.92058],[79.09313,19.92089],[79.09291,19.92328],[79.09283,19.92413],[79.09252,19.92742],[79.09198,19.93323],[79.0925,19.94029],[79.09252,19.94061],[79.09404,19.94625],[79.09617,19.94776],[79.09628,19.94784],[79.09726,19.94853],[79.09764,19.94881],[79.09777,19.9489],[79.10015,19.95058],[79.10215,19.952],[79.1053,19.95424],[79.10586,19.95464],[79.10869,19.9595],[79.10917,19.96118],[79.11024,19.96496],[79.11025,19.96641],[79.10942,19.96693],[79.10893,19.96724],[79.10756,19.96811],[79.10699,19.96847],[79.09821,19.97401],[79.0966,19.97549],[79.09416,19.97774],[79.0955,19.982],[79.09685,19.98269],[79.10203,19.98535],[79.10394,19.98582],[79.10643,19.98644],[79.10795,19.98682],[79.10844,19.98694],[79.10932,19.98686],[79.11063,19.98674],[79.11397,19.98645],[79.11565,19.98905],[79.11406,19.99326],[79.11365,19.99406],[79.11356,19.99457],[79.11338,19.99505],[79.11253,19.99699],[79.11048,20.00103],[79.11032,20.00152],[79.11009,20.00271],[79.10962,20.00644],[79.10916,20.00835],[79.10914,20.00854],[79.10822,20.01038],[79.10778,20.01119],[79.10713,20.01193],[79.10498,20.01567],[79.10355,20.01616],[79.0988,20.01779],[79.09664,20.01883],[79.09088,20.0216],[79.08818,20.02443],[79.08517,20.02759],[79.0837,20.02914],[79.08171,20.03637],[79.08142,20.03752],[79.08139,20.03765],[79.08079,20.03932],[79.0806,20.03967],[79.08057,20.04],[79.08062,20.04036],[79.08065,20.04083],[79.07988,20.0438],[79.07986,20.04388],[79.07957,20.04415],[79.07905,20.04487],[79.07701,20.0484],[79.07689,20.04861],[79.07637,20.04951],[79.07342,20.05466],[79.07261,20.05814],[79.07179,20.06151],[79.07196,20.06238],[79.07198,20.06281],[79.07191,20.06328],[79.07171,20.0636],[79.07152,20.06384],[79.07101,20.06449],[79.0668,20.06825],[79.06665,20.06838],[79.06479,20.07005],[79.06196,20.0689],[79.06175,20.06882],[79.05973,20.068],[79.0567,20.06743],[79.05536,20.06718],[79.05446,20.06723],[79.05122,20.06799],[79.04954,20.06839],[79.04903,20.06851],[79.04475,20.07176],[79.04467,20.07237],[79.04462,20.07274],[79.04468,20.07309],[79.04476,20.07336],[79.04507,20.07384],[79.0461,20.07492],[79.0477,20.07803],[79.0483,20.0818],[79.04878,20.08474],[79.04704,20.08628],[79.04671,20.08683],[79.04647,20.08709],[79.04603,20.08747],[79.04566,20.0877],[79.04507,20.08803],[79.0437,20.08924],[79.04292,20.08972],[79.04222,20.09014],[79.0356,20.09416],[79.03151,20.09841],[79.03128,20.09843],[79.02984,20.10015],[79.02865,20.10139],[79.02827,20.10171],[79.02792,20.1019],[79.02723,20.10311],[79.02703,20.10341],[79.02692,20.10353],[79.02691,20.10354],[79.02596,20.10397],[79.02503,20.10505],[79.02486,20.10532],[79.02216,20.10814],[79.01985,20.11055],[79.01713,20.11337],[79.01275,20.11605],[79.0124,20.11617],[79.01128,20.11689],[79.01072,20.11729],[79.00468,20.12098],[79.00455,20.12106],[79.00422,20.12108],[79.00029,20.12131],[78.9956,20.12271],[78.99455,20.1228],[78.99103,20.12311],[78.99058,20.12305],[78.98461,20.12232],[78.98375,20.12222],[78.98106,20.12116],[78.9805,20.12094],[78.97966,20.12093],[78.97459,20.12088],[78.97097,20.12378],[78.97077,20.1252],[78.97064,20.12605],[78.97021,20.12895],[78.97015,20.12936],[78.96986,20.13129],[78.96944,20.13414],[78.97087,20.13823],[78.97434,20.14165],[78.97865,20.14269],[78.98189,20.14555],[78.98188,20.1469],[78.98188,20.14771],[78.98187,20.14925],[78.98078,20.15196],[78.98028,20.15313],[78.97797,20.15496],[78.97643,20.15617],[78.97076,20.16065],[78.97061,20.16077],[78.97022,20.16108],[78.96982,20.16123],[78.96932,20.16142],[78.96401,20.16297],[78.95857,20.16592],[78.95705,20.16743],[78.95656,20.16793],[78.95557,20.16891],[78.95611,20.17001],[78.95626,20.17031],[78.9573,20.17241],[78.95822,20.17795],[78.95824,20.18092],[78.95824,20.18105],[78.95824,20.18111],[78.95824,20.18231],[78.95736,20.1853],[78.95747,20.18714],[78.95748,20.18732],[78.9575,20.18761],[78.95784,20.19324],[78.96199,20.19947],[78.963,20.20265],[78.96304,20.20314],[78.96307,20.20342],[78.96159,20.20598],[78.9608,20.20734],[78.96075,20.20742],[78.95232,20.21107],[78.94715,20.21238],[78.9443,20.21445],[78.94194,20.21617],[78.93991,20.21868],[78.93875,20.22017],[78.93837,20.22059],[78.93804,20.22105],[78.93794,20.22121],[78.93775,20.22181],[78.93764,20.22197],[78.93748,20.22219],[78.93743,20.22227],[78.93732,20.22338],[78.93736,20.22435],[78.93722,20.22554],[78.93548,20.22772],[78.93502,20.22829],[78.93061,20.22994],[78.92788,20.23246],[78.92439,20.23569],[78.92426,20.23581],[78.92412,20.23594],[78.92224,20.23778],[78.92216,20.23796],[78.92238,20.24046],[78.92235,20.24069],[78.92235,20.24084],[78.92242,20.24096],[78.9232,20.24985],[78.92176,20.25294],[78.91926,20.25505],[78.9173,20.25496],[78.9171,20.25491],[78.91667,20.25479],[78.91658,20.25477],[78.916,20.2549],[78.91522,20.25462],[78.91291,20.25435],[78.91265,20.25436],[78.91255,20.25435],[78.90999,20.25408],[78.90786,20.25386],[78.90678,20.25375],[78.90588,20.25365],[78.89893,20.24988],[78.89696,20.24918],[78.89548,20.24866],[78.89411,20.24865],[78.89379,20.24864],[78.89357,20.24857],[78.8933,20.24853],[78.89251,20.24827],[78.89227,20.24824],[78.89048,20.248],[78.88988,20.24792],[78.88764,20.24794],[78.88574,20.24796],[78.88076,20.24918],[78.87938,20.24962],[78.879,20.24965],[78.87646,20.25028],[78.87482,20.25066],[78.87373,20.25099],[78.87155,20.25159],[78.86113,20.25275],[78.85772,20.25252],[78.85552,20.25237],[78.85106,20.25207],[78.85063,20.25225],[78.84944,20.25199],[78.84828,20.25176],[78.84796,20.25171],[78.84651,20.25153],[78.84157,20.25058],[78.83931,20.25014],[78.83878,20.25001],[78.8384,20.24988],[78.83782,20.24978],[78.83566,20.24933],[78.83504,20.24925],[78.83412,20.24885],[78.82998,20.24806],[78.82754,20.2476],[78.82636,20.24758],[78.82512,20.24756],[78.82062,20.24749],[78.81875,20.24886],[78.81808,20.24935],[78.81579,20.25102],[78.81486,20.2517],[78.81359,20.25358],[78.81358,20.2536],[78.81301,20.25445],[78.81185,20.26036],[78.81328,20.2633],[78.8148,20.26469],[78.81646,20.26621],[78.81675,20.26613],[78.81699,20.26607],[78.81704,20.26606],[78.81721,20.26617],[78.81757,20.26653],[78.8192,20.26816],[78.8192,20.26896],[78.81991,20.26969],[78.82051,20.27053],[78.81892,20.27521],[78.81876,20.27569],[78.81685,20.2777],[78.81419,20.28048],[78.81299,20.28175],[78.8121,20.28267],[78.80912,20.2858],[78.80887,20.28606],[78.8062,20.28886],[78.80573,20.2891],[78.80443,20.29108],[78.80346,20.29286],[78.80366,20.29325],[78.80331,20.29398],[78.8023,20.29839],[78.79954,20.29779],[78.79929,20.29774],[78.79813,20.29748],[78.79751,20.29735],[78.79742,20.29733],[78.79667,20.29717],[78.79604,20.29703],[78.79536,20.29688],[78.79247,20.29625],[78.79045,20.29687],[78.79005,20.29699],[78.78863,20.29742],[78.78678,20.29799],[78.78603,20.29822],[78.78508,20.29851],[78.78088,20.2998],[78.78009,20.29958],[78.77963,20.29946],[78.77921,20.29935],[78.7765,20.29862],[78.76985,20.2949],[78.7651,20.29418],[78.76416,20.29418],[78.76289,20.29391],[78.76203,20.29381],[78.76163,20.29377],[78.76094,20.29386],[78.76046,20.29401],[78.75705,20.29553],[78.75498,20.29642],[78.75199,20.29693],[78.75175,20.29697],[78.75164,20.29699],[78.74995,20.29727],[78.74945,20.29741],[78.74906,20.29717],[78.74896,20.29712],[78.74176,20.29359],[78.74103,20.29323],[78.73989,20.29337],[78.73954,20.29329],[78.73871,20.2935],[78.73855,20.29459],[78.73851,20.29487],[78.73812,20.29745],[78.73769,20.30033],[78.73735,20.3026],[78.73721,20.30354],[78.73637,20.30414],[78.73465,20.30536],[78.73426,20.30546],[78.73325,20.3057],[78.73166,20.30608],[78.73028,20.30631],[78.7295,20.30662],[78.72894,20.30676],[78.72807,20.30686],[78.72743,20.30695],[78.72634,20.30718],[78.72511,20.30734],[78.72436,20.3075],[78.72269,20.30804],[78.72174,20.30841],[78.72085,20.30853],[78.71962,20.30873],[78.71843,20.30884],[78.71786,20.30889],[78.71171,20.30961],[78.71138,20.30965],[78.70867,20.30997],[78.70866,20.31145],[78.70864,20.31309],[78.70862,20.31439],[78.71107,20.31803],[78.71212,20.32322],[78.7117,20.32481],[78.71118,20.32683],[78.71085,20.32809],[78.71086,20.33059],[78.71086,20.3308],[78.71087,20.3328],[78.71187,20.33561],[78.71264,20.33776],[78.71222,20.34316],[78.71129,20.34536],[78.71016,20.3485],[78.70979,20.34989],[78.7094,20.35063],[78.70932,20.35078],[78.70868,20.35198],[78.70776,20.3532],[78.70577,20.354],[78.70019,20.35547],[78.69289,20.3574],[78.69237,20.35827],[78.69135,20.35996],[78.69086,20.36445],[78.69073,20.36565],[78.69065,20.36639],[78.6906,20.36691],[78.69046,20.36825],[78.69036,20.36916],[78.69034,20.36933],[78.68585,20.37411],[78.68579,20.37417],[78.68529,20.3747],[78.68511,20.37519],[78.68438,20.37715],[78.68272,20.38163],[78.682,20.38203],[78.68119,20.38254],[78.68079,20.38278],[78.6803,20.38307],[78.67984,20.38334],[78.67604,20.38558],[78.67468,20.38639],[78.67247,20.3877],[78.67087,20.38867],[78.67056,20.38876],[78.67027,20.38899],[78.66924,20.38987],[78.66896,20.39019],[78.66741,20.39273],[78.667,20.39339],[78.66664,20.39399],[78.6639,20.4004],[78.66189,20.40512],[78.66144,20.40586],[78.66081,20.40691],[78.66047,20.40747],[78.65994,20.40834],[78.65979,20.40859],[78.65888,20.41009],[78.65864,20.41105],[78.65842,20.4117],[78.65818,20.41226],[78.6579,20.41428],[78.65542,20.41565],[78.65238,20.41734],[78.65212,20.41748],[78.65172,20.4177],[78.64755,20.42002],[78.64611,20.42374],[78.64831,20.42801],[78.64831,20.42858],[78.64829,20.43029],[78.64848,20.43139],[78.64857,20.43236],[78.64813,20.43254],[78.64683,20.43298],[78.64634,20.43314],[78.6445,20.43376],[78.64142,20.4348],[78.63729,20.43412],[78.63316,20.43345],[78.62708,20.43245],[78.6242,20.43243],[78.62013,20.4324],[78.61749,20.43509],[78.61745,20.43526],[78.61743,20.43535],[78.6173,20.43595],[78.61701,20.43721],[78.61673,20.43844],[78.6162,20.44077],[78.6154,20.44114],[78.6142,20.44171],[78.61362,20.44195],[78.61174,20.44281],[78.60962,20.44015],[78.60947,20.43995],[78.60932,20.43977],[78.60887,20.4392],[78.6088,20.43911],[78.6088,20.43829],[78.60878,20.43536],[78.60879,20.43483],[78.60873,20.43444],[78.60869,20.43397],[78.60866,20.43385],[78.60854,20.43354],[78.60822,20.43267],[78.60779,20.43147],[78.6076,20.43093],[78.60712,20.43065],[78.60696,20.43056],[78.6044,20.42908],[78.59859,20.42894],[78.59793,20.42892],[78.59748,20.42891],[78.59701,20.4289],[78.59398,20.42882],[78.59219,20.42878],[78.5907,20.42875],[78.58842,20.42891],[78.5871,20.42901],[78.58692,20.42903],[78.57796,20.42969],[78.57739,20.42998],[78.57452,20.43142],[78.5737,20.43183],[78.57142,20.43297],[78.56768,20.43615],[78.56578,20.43777],[78.56436,20.439],[78.56378,20.43947],[78.56324,20.44054],[78.56298,20.44106],[78.56247,20.44208],[78.56008,20.44685],[78.55924,20.44852],[78.55861,20.44883],[78.55829,20.44899],[78.55717,20.44954],[78.5539,20.45119],[78.55335,20.45155],[78.5528,20.45191],[78.55061,20.45344],[78.5501,20.4538],[78.54938,20.4543],[78.54751,20.4556],[78.54718,20.45585],[78.54488,20.45745],[78.54397,20.45809],[78.54369,20.45828],[78.54057,20.46047],[78.54004,20.46084],[78.53843,20.46292],[78.53787,20.46364],[78.53776,20.46423],[78.53685,20.46891],[78.53632,20.47167],[78.5376,20.47628],[78.53703,20.47781],[78.53684,20.47831],[78.53668,20.47886],[78.53657,20.47907],[78.53645,20.47961],[78.53628,20.48011],[78.53547,20.48066],[78.53328,20.48231],[78.53304,20.48259],[78.53265,20.48308],[78.53237,20.4833],[78.53185,20.48369],[78.5316,20.48387],[78.53133,20.48396],[78.53116,20.48399],[78.52863,20.48594],[78.52614,20.48786],[78.52532,20.48937],[78.52526,20.48948],[78.52496,20.49003],[78.52502,20.49467],[78.52504,20.49643],[78.52509,20.50061],[78.52378,20.50358],[78.52358,20.50399],[78.52184,20.50708],[78.51811,20.50931],[78.518,20.50938],[78.51681,20.51009],[78.51554,20.51191],[78.51497,20.51272],[78.51387,20.51428],[78.51341,20.51494],[78.51243,20.51634],[78.5103,20.51937],[78.50974,20.52015],[78.50923,20.52035],[78.50816,20.52076],[78.50795,20.52084],[78.50726,20.5211],[78.50603,20.52157],[78.50428,20.52224],[78.50327,20.52262],[78.50256,20.52267],[78.50204,20.52271],[78.49869,20.52294],[78.4975,20.52354],[78.49706,20.52376],[78.49527,20.52467],[78.49268,20.52599],[78.48937,20.52664],[78.4893,20.52665],[78.48875,20.52676],[78.48566,20.52737],[78.48254,20.52855],[78.4815,20.52895],[78.47788,20.52796],[78.47699,20.5277],[78.47574,20.52712],[78.47392,20.52628],[78.47099,20.52493],[78.46991,20.52443],[78.46902,20.52341],[78.46846,20.52293],[78.46649,20.52092],[78.46536,20.51986],[78.45718,20.51411],[78.45687,20.51399],[78.45597,20.51337],[78.45516,20.51278],[78.45496,20.51263],[78.45458,20.51236],[78.4543,20.51239],[78.45299,20.51256],[78.45273,20.51259],[78.45219,20.51266],[78.44982,20.51296],[78.44878,20.5133],[78.44801,20.51355],[78.44506,20.51452],[78.44211,20.51657],[78.44084,20.5169],[78.4404,20.51702],[78.43967,20.51721],[78.43508,20.51841],[78.43461,20.5182],[78.43338,20.51764],[78.43308,20.51751],[78.43056,20.51638],[78.42923,20.51578],[78.42686,20.51472],[78.42382,20.51335],[78.42355,20.51324],[78.4232,20.51308],[78.42273,20.51301],[78.42165,20.51285],[78.42101,20.51275],[78.42006,20.51271],[78.41923,20.51267],[78.41797,20.51254],[78.4131,20.51202],[78.41265,20.51221],[78.41161,20.51264],[78.41074,20.513],[78.40798,20.51416],[78.40477,20.51551],[78.4046,20.51554],[78.40172,20.51602],[78.40132,20.51609],[78.39938,20.51642],[78.39785,20.51668],[78.39678,20.51686],[78.3962,20.51724],[78.39525,20.51766],[78.39488,20.51778],[78.39433,20.51789],[78.39329,20.51796],[78.39217,20.51825],[78.39007,20.51917],[78.38968,20.51934],[78.38735,20.52037],[78.38691,20.52101],[78.385,20.52376],[78.38468,20.52422],[78.38329,20.52622],[78.38287,20.52682],[78.38252,20.52759],[78.38227,20.52797],[78.38199,20.5283],[78.38181,20.52852],[78.3811,20.52906],[78.3807,20.5293],[78.38039,20.52944],[78.37881,20.53032],[78.37791,20.53067],[78.37341,20.53233],[78.3723,20.53266],[78.37188,20.53269],[78.37007,20.53276],[78.36989,20.53265],[78.36968,20.53253],[78.36921,20.53226],[78.36046,20.52727],[78.36034,20.52732],[78.36017,20.5274],[78.35981,20.52755],[78.35935,20.52776],[78.35856,20.52809],[78.35748,20.52855],[78.35678,20.52885],[78.35654,20.52911],[78.35421,20.53149],[78.35091,20.53488],[78.3506,20.53526],[78.34875,20.53793],[78.34832,20.53854],[78.34788,20.53917],[78.34765,20.53936],[78.34514,20.54147],[78.34456,20.54196],[78.34112,20.54366],[78.33822,20.54386],[78.33752,20.54391],[78.33226,20.54557],[78.33168,20.54604],[78.33138,20.54611],[78.32966,20.54641],[78.32842,20.5467],[78.32729,20.54703],[78.32644,20.5473],[78.32554,20.54762],[78.32473,20.54794],[78.32427,20.54812],[78.32378,20.54834],[78.32319,20.54847],[78.31774,20.55021],[78.31709,20.55042],[78.3109,20.55238],[78.30975,20.55275],[78.30815,20.55344],[78.30622,20.55431],[78.30581,20.55416],[78.30476,20.5547],[78.30405,20.55499],[78.30367,20.55541],[78.30065,20.5567],[78.29859,20.5576],[78.29679,20.55905],[78.29628,20.55946],[78.29621,20.55952],[78.29521,20.56032],[78.29384,20.56031],[78.29334,20.56048],[78.29297,20.56053],[78.29263,20.56053],[78.29203,20.56047],[78.29101,20.56028],[78.2885,20.56026],[78.28831,20.56032],[78.28799,20.56043],[78.28335,20.56198],[78.28042,20.56295],[78.27813,20.56534],[78.27604,20.56968],[78.27561,20.5705],[78.27557,20.57058],[78.27552,20.57081],[78.27544,20.57105],[78.27533,20.57124],[78.27518,20.57146],[78.27413,20.57364],[78.27209,20.57458],[78.27141,20.5749],[78.26866,20.57617],[78.26453,20.57999],[78.26453,20.58004],[78.26441,20.58085],[78.2639,20.58444],[78.26357,20.58463],[78.26372,20.5853],[78.26374,20.58575],[78.26374,20.5859],[78.26325,20.58894],[78.263,20.5894],[78.26291,20.58957],[78.26285,20.58967],[78.26275,20.58984],[78.26264,20.59005],[78.26197,20.59125],[78.26041,20.59406],[78.26013,20.59457],[78.26008,20.59466],[78.25971,20.59882],[78.25965,20.59951],[78.25955,20.59981],[78.25949,20.59998],[78.25927,20.60077],[78.25927,20.60253],[78.25949,20.60299],[78.25933,20.60344],[78.25929,20.6039],[78.25934,20.60445],[78.25904,20.60472],[78.25879,20.60507],[78.25673,20.60819],[78.25649,20.60877],[78.25566,20.61079],[78.25543,20.61134],[78.25448,20.61351],[78.25332,20.61644],[78.25297,20.62074],[78.25295,20.62091],[78.25331,20.62381],[78.25355,20.62571],[78.25373,20.62684],[78.25352,20.62928],[78.25348,20.62976],[78.25335,20.63127],[78.25333,20.6315],[78.25317,20.63339],[78.25216,20.63722],[78.25177,20.6387],[78.25138,20.64015],[78.25086,20.64211],[78.25046,20.64364],[78.25117,20.64618],[78.25181,20.64803],[78.25311,20.64887],[78.25358,20.64941],[78.25441,20.65],[78.25582,20.65086],[78.25675,20.65144],[78.2571,20.65172],[78.26029,20.65488],[78.26382,20.6583],[78.26455,20.659],[78.26479,20.65923],[78.2649,20.65934],[78.2655,20.65992],[78.26592,20.66012],[78.26707,20.66178],[78.26757,20.66248],[78.26956,20.66583],[78.27035,20.6691],[78.27055,20.66991],[78.27038,20.67077],[78.27036,20.6709],[78.26972,20.67418],[78.26904,20.67777],[78.26881,20.67901],[78.26964,20.67988],[78.27056,20.68083],[78.27092,20.68121],[78.27318,20.68355],[78.27353,20.68392],[78.2763,20.6868],[78.27698,20.68751],[78.27726,20.68783],[78.27752,20.68817],[78.27767,20.68844],[78.27785,20.68895],[78.27817,20.69015],[78.2783,20.69053],[78.27856,20.69168],[78.2787,20.69213],[78.2788,20.69263],[78.27878,20.69327],[78.27894,20.69447],[78.28007,20.69695],[78.27764,20.69712],[78.27657,20.69721],[78.27604,20.69725],[78.27543,20.6973],[78.27164,20.69704],[78.26909,20.69687],[78.2682,20.69681],[78.26539,20.69661],[78.26019,20.69625],[78.25788,20.69197],[78.25751,20.6876],[78.25748,20.68722],[78.2573,20.68508],[78.25666,20.68494],[78.25456,20.68447],[78.24774,20.68542],[78.24572,20.6857],[78.24424,20.68591],[78.24368,20.68599],[78.24324,20.68605],[78.23715,20.6869],[78.2356,20.68866],[78.23497,20.68938],[78.23424,20.69021],[78.23294,20.69092],[78.23218,20.69132],[78.23184,20.69151],[78.23102,20.69157],[78.23054,20.69161],[78.22701,20.69187],[78.22616,20.69174],[78.21859,20.69061],[78.21562,20.69016],[78.21393,20.68991],[78.21308,20.68961],[78.21186,20.68225],[78.21161,20.68075],[78.20959,20.67705],[78.20639,20.67731],[78.20236,20.67764],[78.2008,20.67777],[78.1941,20.67714],[78.19115,20.67732],[78.19085,20.67734],[78.1893,20.67743],[78.1881,20.6775],[78.18342,20.67778],[78.18294,20.67595],[78.18168,20.67111],[78.18019,20.67128],[78.17972,20.67133],[78.17526,20.67185],[78.17436,20.67196],[78.17016,20.67053],[78.16868,20.66764],[78.15947,20.66778],[78.15956,20.66127],[78.15958,20.65969],[78.15534,20.66013],[78.15353,20.66032],[78.14906,20.66078],[78.1485,20.66083],[78.14788,20.6609],[78.1459,20.66111],[78.14314,20.66091],[78.1367,20.66045],[78.13349,20.66411],[78.1328,20.66489],[78.13217,20.66418],[78.13136,20.66327],[78.1304,20.66296],[78.12559,20.66137],[78.12716,20.65817],[78.13289,20.65461],[78.13207,20.64946],[78.13193,20.64857],[78.13004,20.64894],[78.1295,20.64905],[78.12935,20.64908],[78.12697,20.64955],[78.1215,20.64875],[78.12029,20.64857],[78.11343,20.64944],[78.11283,20.64952],[78.11277,20.64801],[78.11275,20.64758],[78.11269,20.64611],[78.11246,20.64073],[78.11104,20.64074],[78.10881,20.64075],[78.10448,20.64077],[78.10389,20.64167],[78.10205,20.64448],[78.09795,20.643],[78.09386,20.64152],[78.09675,20.64853],[78.09708,20.64934],[78.09774,20.65094],[78.09793,20.65139],[78.09843,20.65652],[78.09858,20.65803],[78.09878,20.66008],[78.10086,20.65958],[78.10088,20.66624],[78.10088,20.66654],[78.09623,20.6681],[78.09552,20.67033],[78.09441,20.67015],[78.09438,20.67015],[78.09376,20.67004],[78.09344,20.66999],[78.09285,20.66989],[78.09024,20.66946],[78.08975,20.66937],[78.08962,20.66935],[78.08958,20.67263],[78.08548,20.67362],[78.08364,20.66946],[78.08158,20.6691],[78.08078,20.66525],[78.07869,20.66465],[78.07763,20.66435],[78.07805,20.66826],[78.07448,20.6686],[78.07146,20.66889],[78.07179,20.67032],[78.07209,20.67165],[78.07103,20.67187],[78.06576,20.67294],[78.0642,20.67324],[78.06413,20.67263],[78.06382,20.66996],[78.06351,20.67],[78.06297,20.67009],[78.05987,20.67058],[78.05958,20.67062],[78.05932,20.67066],[78.0591,20.66971],[78.05911,20.66949],[78.05896,20.66858],[78.05331,20.66841],[78.05192,20.66837],[78.05102,20.66834],[78.04226,20.66808],[78.04112,20.66669],[78.03923,20.66701],[78.03701,20.66004],[78.03469,20.6603],[78.02906,20.65737],[78.02717,20.65223],[78.02701,20.6518],[78.02613,20.64942],[78.02439,20.64675],[78.02383,20.64589],[78.02356,20.64548],[78.02183,20.64282],[78.02311,20.64103],[78.02329,20.64078],[78.02338,20.64065],[78.02365,20.64027],[78.02408,20.63967],[78.02414,20.63958],[78.02424,20.63944],[78.02447,20.63912],[78.02457,20.63898],[78.02499,20.63839],[78.02514,20.63819],[78.02577,20.63731],[78.02582,20.63723],[78.02642,20.63642],[78.02645,20.63638],[78.02649,20.63632],[78.02661,20.63616],[78.02793,20.63438],[78.02719,20.63338],[78.02645,20.6331],[78.02624,20.63302],[78.02598,20.63291],[78.02578,20.63283],[78.02298,20.63174],[78.02292,20.63166],[78.02191,20.63019],[78.02119,20.62916],[78.02089,20.62874],[78.01969,20.62837],[78.01814,20.62788],[78.01573,20.62713],[78.01255,20.62668],[78.00728,20.62594],[78.00535,20.62566],[78.00059,20.62499],[77.99666,20.62341],[77.99469,20.62077],[77.99176,20.61684],[77.98898,20.61312],[77.98446,20.60986],[77.98258,20.60849],[77.98067,20.60566],[77.97948,20.6039],[77.97919,20.60287],[77.97879,20.60141],[77.97705,20.59519],[77.977,20.595],[77.97659,20.59432],[77.97438,20.59066],[77.97157,20.58826],[77.97118,20.58792],[77.97108,20.58787],[77.96593,20.58551],[77.96425,20.58475],[77.95811,20.58194],[77.95164,20.5759],[77.95193,20.58053],[77.94515,20.58009],[77.94459,20.57892],[77.94417,20.57802],[77.94366,20.57695],[77.94024,20.57593],[77.93998,20.57585],[77.93469,20.57762],[77.93209,20.57404],[77.93124,20.56929],[77.92908,20.56715],[77.92707,20.56161],[77.92638,20.56082],[77.92491,20.55911],[77.92236,20.56068],[77.92277,20.56474],[77.91992,20.5658],[77.91845,20.56584],[77.9163,20.5659],[77.91413,20.56596],[77.91296,20.56599],[77.91362,20.56765],[77.91493,20.57093],[77.9152,20.5716],[77.91792,20.57844],[77.91866,20.58505],[77.91907,20.58872],[77.91576,20.58928],[77.9167,20.5916],[77.91871,20.59663],[77.91888,20.59817],[77.91944,20.60309],[77.91958,20.60436],[77.91967,20.60509],[77.91876,20.60577],[77.91707,20.60704],[77.91616,20.60734],[77.91182,20.60876],[77.90964,20.60947],[77.90748,20.61279],[77.90548,20.61356],[77.90349,20.61432],[77.903,20.61451],[77.90146,20.6151],[77.89368,20.62403],[77.88884,20.62225],[77.88867,20.62204],[77.88624,20.61902],[77.88347,20.61747],[77.88196,20.61265],[77.87796,20.60993],[77.87557,20.61018],[77.87381,20.61036],[77.86926,20.61211],[77.86673,20.60982],[77.86657,20.60847],[77.86619,20.60576],[77.86603,20.60457],[77.86526,20.59877],[77.86638,20.59544],[77.86526,20.59469],[77.8627,20.59298],[77.85796,20.59114],[77.85739,20.59092],[77.85596,20.59037],[77.85516,20.59006],[77.84798,20.58845],[77.84744,20.58826],[77.84727,20.58822],[77.84731,20.58755],[77.84778,20.57812],[77.84868,20.57679],[77.8474,20.57096],[77.84642,20.57044],[77.84278,20.56853],[77.84276,20.56852],[77.84253,20.5684],[77.8382,20.56614],[77.82808,20.57384],[77.82199,20.58161],[77.8177,20.58585],[77.81625,20.58634],[77.81211,20.58775],[77.81146,20.58485],[77.81105,20.58301],[77.80809,20.56974],[77.80757,20.56737],[77.80452,20.56579],[77.804,20.56552],[77.80249,20.56474],[77.79953,20.5632],[77.7948,20.56075],[77.79031,20.55695],[77.78849,20.55304],[77.7862,20.5481],[77.78396,20.54539],[77.78305,20.54429],[77.77221,20.54051],[77.77194,20.54072],[77.77183,20.54083],[77.77095,20.54157],[77.76873,20.54345],[77.76664,20.54522],[77.76633,20.54522],[77.76009,20.54525],[77.75948,20.54526],[77.75664,20.54527],[77.75579,20.54576],[77.75111,20.54848],[77.7459,20.55875],[77.74398,20.56056],[77.74285,20.56163],[77.74252,20.56194],[77.74131,20.56166],[77.73868,20.56105],[77.73775,20.56084],[77.73616,20.56047],[77.73044,20.56327],[77.72169,20.566],[77.72023,20.56626],[77.71632,20.56694],[77.7141,20.56733],[77.71229,20.56765],[77.70977,20.56774],[77.70345,20.56798],[77.69355,20.57324],[77.69294,20.57476],[77.69141,20.57859],[77.69027,20.57916],[77.688,20.58029],[77.68327,20.58045],[77.68098,20.58053],[77.6794,20.58059],[77.6751,20.58074],[77.66744,20.581],[77.66652,20.57909],[77.66434,20.57452],[77.66374,20.57326],[77.66371,20.57319],[77.66321,20.57216],[77.66217,20.57093],[77.66037,20.56879],[77.65979,20.56576],[77.65625,20.56476],[77.65369,20.56475],[77.65274,20.55891],[77.65256,20.55806],[77.65195,20.55406],[77.65084,20.54728],[77.65007,20.54474],[77.64835,20.53912],[77.64831,20.53897],[77.64779,20.53726],[77.6455,20.52977],[77.65666,20.52899],[77.65891,20.53222],[77.65932,20.53281],[77.66332,20.53518],[77.66417,20.53569],[77.66729,20.53755],[77.66839,20.53761],[77.66872,20.53763],[77.67102,20.53775],[77.67765,20.53633],[77.68439,20.53489],[77.68873,20.53397],[77.68971,20.5334],[77.69104,20.53263],[77.6912,20.53056],[77.6917,20.5239],[77.69167,20.52385],[77.68952,20.52002],[77.68738,20.51861],[77.68626,20.51836],[77.68483,20.51804],[77.68449,20.51795],[77.68316,20.51767],[77.67665,20.51622],[77.67549,20.51596],[77.67349,20.51552],[77.67228,20.50819],[77.66916,20.50358],[77.66815,20.50208],[77.66317,20.49567],[77.6629,20.49453],[77.66125,20.48765],[77.65913,20.48747],[77.65737,20.48741],[77.65552,20.48729],[77.65552,20.48719],[77.65546,20.48505],[77.65519,20.48261],[77.65493,20.48024],[77.65094,20.47024],[77.65098,20.46895],[77.65105,20.46714],[77.65105,20.46702],[77.65132,20.45945],[77.65154,20.45635],[77.64819,20.44955],[77.64237,20.45051],[77.64118,20.45071],[77.63797,20.45179],[77.63221,20.45374],[77.6291,20.45479],[77.62428,20.45642],[77.62102,20.45873],[77.61981,20.45959],[77.61899,20.46017],[77.61861,20.46044],[77.61731,20.46136],[77.61532,20.45996],[77.61418,20.45916],[77.61437,20.4537],[77.60899,20.45277],[77.60731,20.45101],[77.60712,20.45081],[77.60686,20.45055],[77.60417,20.44771],[77.60408,20.44762],[77.60389,20.44743],[77.60197,20.44543],[77.60302,20.44385],[77.60328,20.44346],[77.60347,20.44317],[77.60377,20.44271],[77.60429,20.44193],[77.60572,20.43976],[77.60776,20.43667],[77.60747,20.43606],[77.60693,20.43512],[77.6065,20.4343],[77.60596,20.43329],[77.60295,20.43068],[77.59891,20.42894],[77.59878,20.42883],[77.59772,20.42802],[77.59522,20.42609],[77.594,20.42514],[77.59367,20.42388],[77.59349,20.42319],[77.59456,20.41997],[77.59787,20.41581],[77.59816,20.41363],[77.59764,20.4125],[77.59731,20.4118],[77.59699,20.41112],[77.59501,20.41175],[77.59228,20.41261],[77.59029,20.41324],[77.58657,20.41241],[77.58555,20.41214],[77.58445,20.41087],[77.58402,20.41037],[77.58313,20.40934],[77.5828,20.40717],[77.58032,20.40196],[77.58004,20.40137],[77.57996,20.40121],[77.57835,20.39784],[77.57832,20.39777],[77.57816,20.39743],[77.57781,20.3967],[77.57638,20.39369],[77.5761,20.39311],[77.57501,20.38686],[77.57553,20.37739],[77.57763,20.37363],[77.57878,20.37158],[77.57829,20.37015],[77.57771,20.36843],[77.57366,20.36223],[77.57337,20.36179],[77.5728,20.36092],[77.57239,20.36029],[77.57197,20.35964],[77.57096,20.35587],[77.57049,20.3526],[77.57033,20.35151],[77.56913,20.34314],[77.56843,20.33828],[77.56827,20.33391],[77.56857,20.33274],[77.5691,20.3307],[77.571,20.32973],[77.57128,20.32976],[77.57182,20.3299],[77.57623,20.33097],[77.57748,20.33079],[77.57922,20.33055],[77.58096,20.32835],[77.58154,20.32623],[77.58186,20.3262],[77.58502,20.32591],[77.58549,20.32438],[77.58622,20.32199],[77.58638,20.32148],[77.58598,20.31678],[77.58629,20.31563],[77.58692,20.31323],[77.58728,20.31189],[77.58838,20.31028],[77.58867,20.30986],[77.58968,20.30837],[77.59072,20.30759],[77.59428,20.30489],[77.59578,20.30183],[77.59597,20.29976],[77.596,20.29939],[77.59604,20.29896],[77.59606,20.29878],[77.59609,20.29849],[77.59622,20.29701],[77.59593,20.29416],[77.59562,20.29105],[77.59593,20.28781],[77.5962,20.28499],[77.59657,20.28117],[77.60065,20.28042],[77.60132,20.2803],[77.60296,20.27999],[77.60562,20.2795],[77.60996,20.2787],[77.61014,20.27766],[77.61046,20.27561],[77.6105,20.27538],[77.61083,20.27337],[77.61227,20.26451],[77.62522,20.26199],[77.62777,20.26178],[77.63056,20.26155],[77.63381,20.26128],[77.63414,20.26103],[77.63527,20.26019],[77.63778,20.25832],[77.63864,20.25768],[77.64349,20.25408],[77.64955,20.25155],[77.65,20.25152],[77.65018,20.25151],[77.65412,20.25128],[77.6614,20.24978],[77.6692,20.24816],[77.66905,20.24765],[77.66731,20.24159],[77.66024,20.22616],[77.65752,20.21801],[77.65713,20.21684],[77.65522,20.21111],[77.6557,20.20939],[77.65664,20.20827],[77.65751,20.20722],[77.65806,20.20657],[77.65961,20.20471],[77.66034,20.20292],[77.66045,20.20264],[77.65892,20.20164],[77.65854,20.20139],[77.65732,20.2006],[77.65378,20.19943],[77.6485,20.1942],[77.64725,20.19065],[77.64826,20.1888],[77.65117,20.18734],[77.65244,20.18579],[77.652,20.18246],[77.65198,20.18229],[77.65223,20.18142],[77.65275,20.17964],[77.65331,20.17772],[77.65434,20.17418],[77.65762,20.17357],[77.66197,20.17409],[77.66318,20.17424],[77.66364,20.17429],[77.66448,20.17439],[77.6656,20.17453],[77.66704,20.17441],[77.66943,20.17421],[77.67182,20.1733],[77.67557,20.17188],[77.67924,20.17049],[77.68199,20.16945],[77.68203,20.16892],[77.68226,20.16629],[77.68106,20.16342],[77.67984,20.16052],[77.67946,20.15859],[77.67914,20.15699],[77.67896,20.15604],[77.6782,20.15218],[77.67811,20.15171],[77.67747,20.14849],[77.68011,20.14758],[77.68279,20.14665],[77.68306,20.14655],[77.68359,20.14637],[77.68485,20.14503],[77.68479,20.14484],[77.68454,20.14405],[77.68447,20.14384],[77.68315,20.1397],[77.68116,20.13348],[77.68029,20.13229],[77.67708,20.12787],[77.67664,20.12727],[77.67418,20.1239],[77.67348,20.122],[77.67294,20.12053],[77.67295,20.12034],[77.67295,20.12021],[77.67301,20.11865],[77.67306,20.11735],[77.67323,20.11318],[77.67328,20.11165],[77.67334,20.11027],[77.67337,20.10934],[77.67235,20.10487],[77.67172,20.10401],[77.6692,20.10059],[77.66528,20.09839],[77.66344,20.09794],[77.65984,20.09707],[77.65928,20.09208],[77.65889,20.08864],[77.65853,20.08736],[77.65763,20.08418],[77.65757,20.08397],[77.65694,20.08172],[77.65684,20.08137],[77.65617,20.08042],[77.65543,20.07937],[77.65504,20.07881],[77.6542,20.07837],[77.6518,20.07712],[77.65036,20.07637],[77.65017,20.07627],[77.64959,20.07404],[77.64911,20.0722],[77.64485,20.07024],[77.64235,20.06825],[77.64086,20.06706],[77.64104,20.06372],[77.6411,20.06259],[77.64115,20.06171],[77.64125,20.05977],[77.63599,20.05231],[77.63526,20.05127],[77.63112,20.0482],[77.62933,20.04688],[77.62762,20.04561],[77.62679,20.0427],[77.62655,20.04188],[77.62544,20.04173],[77.62038,20.04105],[77.61974,20.04186],[77.61817,20.0416],[77.61219,20.03891],[77.61082,20.03837],[77.60893,20.03842],[77.60553,20.03627],[77.60319,20.03595],[77.60021,20.03811],[77.59775,20.03789],[77.59482,20.03414],[77.59396,20.03305],[77.58652,20.03187],[77.58441,20.03154],[77.58415,20.0315],[77.58401,20.03147],[77.58153,20.03035],[77.58102,20.0309],[77.57309,20.03949],[77.57122,20.04152],[77.56941,20.04348],[77.56614,20.04385],[77.56207,20.0471],[77.56183,20.04715],[77.55926,20.04696],[77.55757,20.04892],[77.55665,20.05407],[77.55521,20.0622],[77.55401,20.06479],[77.55361,20.06502],[77.55239,20.06572],[77.54694,20.06886],[77.54318,20.07177],[77.54109,20.07339],[77.53991,20.07678],[77.53736,20.08085],[77.53469,20.08513],[77.5333,20.08734],[77.52901,20.09206],[77.52768,20.09353],[77.52673,20.09457],[77.52424,20.09385],[77.52147,20.09305],[77.51617,20.09153],[77.51608,20.0915],[77.51556,20.09135],[77.51542,20.09131],[77.51517,20.09124],[77.51491,20.09117],[77.51445,20.09103],[77.51379,20.09084],[77.51255,20.09049],[77.51189,20.0903],[77.51068,20.08995],[77.50675,20.08882],[77.50648,20.08874],[77.5035,20.08788],[77.49676,20.08214],[77.49175,20.08029],[77.4889,20.0814],[77.48863,20.08171],[77.48848,20.08189],[77.48649,20.08418],[77.48397,20.08449],[77.48357,20.08454],[77.47885,20.08134],[77.47748,20.08041],[77.47622,20.07955],[77.47395,20.07729],[77.47044,20.07381],[77.46996,20.07356],[77.46652,20.07183],[77.45649,20.07093],[77.45235,20.07123],[77.45215,20.07126],[77.45139,20.07135],[77.45063,20.07141],[77.45053,20.0715],[77.4505,20.07156],[77.45049,20.07159],[77.45012,20.07167],[77.44884,20.07196],[77.44776,20.0722],[77.44721,20.07233],[77.44589,20.07262],[77.44035,20.07388],[77.43931,20.07411],[77.43826,20.07435],[77.43802,20.07446],[77.43691,20.07496],[77.43363,20.07645],[77.43276,20.07657],[77.42637,20.07748],[77.42287,20.07917],[77.42248,20.07936],[77.42048,20.08033],[77.41677,20.08335],[77.41431,20.08326],[77.41281,20.08321],[77.40879,20.08623],[77.40463,20.08545],[77.39991,20.08549],[77.39912,20.0855],[77.39294,20.08655],[77.39101,20.08687],[77.38778,20.08811],[77.38622,20.08907],[77.38296,20.09108],[77.37759,20.09439],[77.37503,20.09686],[77.37447,20.0974],[77.3701,20.10161],[77.37,20.10074],[77.36987,20.09958],[77.36974,20.0985],[77.3691,20.09312],[77.36895,20.09184],[77.36892,20.09161],[77.36869,20.08965],[77.36863,20.08917],[77.36809,20.0883],[77.36806,20.08816],[77.36715,20.08696],[77.36468,20.08369],[77.35855,20.07885],[77.35784,20.07829],[77.35727,20.07742],[77.35689,20.07624],[77.35612,20.07457],[77.35607,20.07364],[77.35605,20.07333],[77.356,20.07231],[77.35598,20.07189],[77.35598,20.07176],[77.35596,20.07153],[77.35592,20.07053],[77.35583,20.06879],[77.35988,20.06456],[77.36261,20.06171],[77.37117,20.05278],[77.37388,20.04876],[77.37442,20.04679],[77.37315,20.04443],[77.37151,20.04138],[77.37095,20.04032],[77.3704,20.0393],[77.36888,20.03737],[77.36765,20.03581],[77.36227,20.02898],[77.36136,20.02715],[77.36046,20.02536],[77.36008,20.02461],[77.35768,20.0198],[77.35512,20.01467],[77.35343,20.01332],[77.34982,20.01192],[77.34912,20.01165],[77.34769,20.01109],[77.34603,20.01045],[77.34309,20.00932],[77.3426,20.0085],[77.34162,20.00686],[77.34177,20.00559],[77.34186,20.00493],[77.34232,20.00121],[77.34201,19.99778],[77.34187,19.99631],[77.34138,19.9909],[77.34121,19.98453],[77.341,19.98382],[77.3399,19.98008],[77.33887,19.97661],[77.34112,19.97327],[77.34086,19.97073],[77.34075,19.96967],[77.33974,19.96991],[77.33758,19.97043],[77.33706,19.97055],[77.33474,19.97111],[77.33414,19.97125],[77.33318,19.97125],[77.33292,19.97125],[77.33202,19.96945],[77.32998,19.96538],[77.32569,19.95681],[77.32228,19.95985],[77.32197,19.95992],[77.31663,19.96115],[77.30826,19.96308],[77.308,19.95384],[77.30705,19.95032],[77.30669,19.94899],[77.30655,19.94846],[77.30641,19.94794],[77.30634,19.94767],[77.30628,19.94747],[77.30619,19.94713],[77.30432,19.94466],[77.30402,19.94426],[77.30168,19.94117],[77.29509,19.93811],[77.28804,19.93608],[77.2878,19.93309],[77.28708,19.92405],[77.28714,19.92149],[77.28727,19.91577],[77.2865,19.91109]]]}}]}